<?xml version="1.0" encoding="UTF-8"?>
<gpx creator="GlobalMotionEditor" version="1.1" xmlns="http://www.topografix.com/GPX/1/1">
<metadata>
<name>오라올레길(방선문-유지)</name>
<desc>Bientus, Inc. - www.ramblr.com - Share your outdoor stories on a map!</desc>
<author>
<name></name>
</author>
<link href="https://www.ramblr.com/web/mymap/trip/1320578/10615246"></link>
<time></time>
</metadata>
<trk>
<name>오라올레길(방선문-유지)</name>
<trkseg>
<trkpt lat="33.452780" lon="126.517670"><ele>245.9</ele><time></time></trkpt>
<trkpt lat="33.453240" lon="126.517670"><ele>244.8</ele><time></time></trkpt>
<trkpt lat="33.453710" lon="126.517360"><ele>243.7</ele><time></time></trkpt>
<trkpt lat="33.454060" lon="126.517400"><ele>242.6</ele><time></time></trkpt>
<trkpt lat="33.454440" lon="126.517590"><ele>241.3</ele><time></time></trkpt>
<trkpt lat="33.454910" lon="126.517510"><ele>240.1</ele><time></time></trkpt>
<trkpt lat="33.455620" lon="126.517120"><ele>238.9</ele><time></time></trkpt>
<trkpt lat="33.455940" lon="126.517090"><ele>237.6</ele><time></time></trkpt>
<trkpt lat="33.456340" lon="126.516890"><ele>236.3</ele><time></time></trkpt>
<trkpt lat="33.457120" lon="126.516280"><ele>235.0</ele><time></time></trkpt>
<trkpt lat="33.457237" lon="126.516450"><ele>233.6</ele><time></time></trkpt>
<trkpt lat="33.45777427944621" lon="126.51651586623574"><ele>227.9849548339844</ele><time></time></trkpt>
<trkpt lat="33.457550" lon="126.516772"><ele>230.7</ele><time></time></trkpt>
<trkpt lat="33.458150" lon="126.517469"><ele>229.2</ele><time></time></trkpt>
<trkpt lat="33.458250" lon="126.517800"><ele>227.6</ele><time></time></trkpt>
<trkpt lat="33.458520" lon="126.517950"><ele>225.9</ele><time></time></trkpt>
<trkpt lat="33.458633" lon="126.517732"><ele>223.9</ele><time></time></trkpt>
<trkpt lat="33.458938" lon="126.517839"><ele>222.0</ele><time></time></trkpt>
<trkpt lat="33.459385" lon="126.517813"><ele>220.0</ele><time></time></trkpt>
<trkpt lat="33.460346585498314" lon="126.51745551289746"><ele>217.8383026123047</ele><time></time></trkpt>
<trkpt lat="33.46054999999999" lon="126.51741291534421"><ele>216.8068389892578</ele><time></time></trkpt>
<trkpt lat="33.4607638633269" lon="126.51756980737494"><ele>215.8425598144531</ele><time></time></trkpt>
<trkpt lat="33.46110932725143" lon="126.5176402503319"><ele>214.4531097412109</ele><time></time></trkpt>
<trkpt lat="33.461416337937884" lon="126.51758144543837"><ele>213.5501708984375</ele><time></time></trkpt>
<trkpt lat="33.462475950501" lon="126.51731252149582"><ele>207.7070617675781</ele><time></time></trkpt>
<trkpt lat="33.46349276240114" lon="126.51733134358598"><ele>201.2581329345703</ele><time></time></trkpt>
<trkpt lat="33.46415786491058" lon="126.5174302883606"><ele>197.7597351074219</ele><time></time></trkpt>
<trkpt lat="33.46466958184863" lon="126.51740364418029"><ele>195.5747528076172</ele><time></time></trkpt>
<trkpt lat="33.466376409437586" lon="126.51664378769684"><ele>185.6997222900391</ele><time></time></trkpt>
<trkpt lat="33.466735" lon="126.516267"><ele>196.3</ele><time></time></trkpt>
<trkpt lat="33.466735" lon="126.515935"><ele>194.4</ele><time></time></trkpt>
<trkpt lat="33.4671336009116" lon="126.51574688954925"><ele>184.0471343994141</ele><time></time></trkpt>
<trkpt lat="33.46733475000578" lon="126.51587069444275"><ele>182.91357421875</ele><time></time></trkpt>
<trkpt lat="33.467805" lon="126.516117"><ele>189.8</ele><time></time></trkpt>
<trkpt lat="33.468191" lon="126.515699"><ele>188.6</ele><time></time></trkpt>
<trkpt lat="33.468500" lon="126.515072"><ele>187.7</ele><time></time></trkpt>
<trkpt lat="33.468697" lon="126.514997"><ele>187.1</ele><time></time></trkpt>
<trkpt lat="33.470025" lon="126.515252"><ele>186.8</ele><time></time></trkpt>
<trkpt lat="33.468689" lon="126.515000"><ele>186.8</ele><time></time></trkpt>
<trkpt lat="33.468497" lon="126.515079"><ele>187.0</ele><time></time></trkpt>
<trkpt lat="33.468175" lon="126.515715"><ele>187.5</ele><time></time></trkpt>
<trkpt lat="33.467818" lon="126.516102"><ele>188.2</ele><time></time></trkpt>
<trkpt lat="33.467567" lon="126.516075"><ele>189.2</ele><time></time></trkpt>
<trkpt lat="33.467076" lon="126.515707"><ele>190.5</ele><time></time></trkpt>
<trkpt lat="33.466750" lon="126.515930"><ele>191.9</ele><time></time></trkpt>
<trkpt lat="33.466622" lon="126.516567"><ele>193.6</ele><time></time></trkpt>
<trkpt lat="33.466352" lon="126.516590"><ele>195.4</ele><time></time></trkpt>
<trkpt lat="33.465954" lon="126.516899"><ele>197.3</ele><time></time></trkpt>
<trkpt lat="33.465067" lon="126.517205"><ele>199.4</ele><time></time></trkpt>
<trkpt lat="33.464852" lon="126.517421"><ele>201.5</ele><time></time></trkpt>
<trkpt lat="33.464234" lon="126.517500"><ele>203.6</ele><time></time></trkpt>
<trkpt lat="33.463332" lon="126.517373"><ele>205.8</ele><time></time></trkpt>
<trkpt lat="33.461949" lon="126.517443"><ele>208.0</ele><time></time></trkpt>
<trkpt lat="33.461118" lon="126.517706"><ele>210.1</ele><time></time></trkpt>
<trkpt lat="33.460777" lon="126.517640"><ele>212.2</ele><time></time></trkpt>
<trkpt lat="33.460569" lon="126.517461"><ele>214.3</ele><time></time></trkpt>
<trkpt lat="33.460157" lon="126.517499"><ele>216.2</ele><time></time></trkpt>
<trkpt lat="33.459399" lon="126.517858"><ele>218.1</ele><time></time></trkpt>
<trkpt lat="33.458691" lon="126.517840"><ele>219.9</ele><time></time></trkpt>
<trkpt lat="33.458522" lon="126.517981"><ele>221.6</ele><time></time></trkpt>
<trkpt lat="33.458269" lon="126.517759"><ele>223.3</ele><time></time></trkpt>
<trkpt lat="33.458194" lon="126.517480"><ele>224.8</ele><time></time></trkpt>
<trkpt lat="33.457983" lon="126.517188"><ele>226.4</ele><time></time></trkpt>
<trkpt lat="33.457617" lon="126.516980"><ele>227.9</ele><time></time></trkpt>
<trkpt lat="33.457537" lon="126.516835"><ele>229.5</ele><time></time></trkpt>
<trkpt lat="33.457755" lon="126.516638"><ele>230.8</ele><time></time></trkpt>
<trkpt lat="33.457802" lon="126.516511"><ele>232.1</ele><time></time></trkpt>
<trkpt lat="33.457743" lon="126.516417"><ele>233.3</ele><time></time></trkpt>
<trkpt lat="33.457635" lon="126.516367"><ele>234.4</ele><time></time></trkpt>
<trkpt lat="33.457253" lon="126.516454"><ele>235.6</ele><time></time></trkpt>
<trkpt lat="33.457099" lon="126.516299"><ele>236.7</ele><time></time></trkpt>
<trkpt lat="33.456340" lon="126.516890"><ele>237.8</ele><time></time></trkpt>
<trkpt lat="33.455940" lon="126.517090"><ele>239.0</ele><time></time></trkpt>
<trkpt lat="33.455620" lon="126.517120"><ele>240.0</ele><time></time></trkpt>
<trkpt lat="33.454910" lon="126.517510"><ele>241.1</ele><time></time></trkpt>
<trkpt lat="33.454440" lon="126.517590"><ele>242.2</ele><time></time></trkpt>
<trkpt lat="33.454060" lon="126.517400"><ele>243.2</ele><time></time></trkpt>
<trkpt lat="33.453710" lon="126.517360"><ele>244.2</ele><time></time></trkpt>
<trkpt lat="33.453250" lon="126.517670"><ele>245.2</ele><time></time></trkpt>
<trkpt lat="33.452740" lon="126.517640"><ele>246.2</ele><time></time></trkpt>
</trkseg>
</trk>
</gpx>
