<?xml version="1.0" encoding="UTF-8"?>
<gpx xmlns="http://www.topografix.com/GPX/1/1" creator="MTK - http://www.toursprung.com" version="1.1" xmlns:xsi="http://www.w3.org/2001/XMLSchema-instance" xsi:schemaLocation="http://www.topografix.com/GPX/1/1 http://www.topografix.com/GPX/1/1/gpx.xsd">
<metadata>
<name>머체왓 6km</name>
<extensions><extra>{}</extra></extensions>
</metadata>

<trk>
<name>머체왓 6km</name>
<trkseg>
<trkpt lat="33.330630" lon="126.672920" sectionIndex="0" pointIndex="0" originalElevation="246.0" isOriginalElevationFromOSM="false" isAnchor="false"><ele>234.4</ele></trkpt>
<trkpt lat="33.330480" lon="126.672680" sectionIndex="0" pointIndex="1" originalElevation="233.0" isOriginalElevationFromOSM="false" isAnchor="false"><ele>234.3</ele></trkpt>
<trkpt lat="33.330420" lon="126.672600" sectionIndex="0" pointIndex="2" originalElevation="233.0" isOriginalElevationFromOSM="false" isAnchor="false"><ele>234.2</ele></trkpt>
<trkpt lat="33.330260" lon="126.672480" sectionIndex="0" pointIndex="3" originalElevation="233.0" isOriginalElevationFromOSM="false" isAnchor="false"><ele>234.1</ele></trkpt>
<trkpt lat="33.330160" lon="126.672410" sectionIndex="0" pointIndex="4" originalElevation="233.0" isOriginalElevationFromOSM="false" isAnchor="false"><ele>234.0</ele></trkpt>
<trkpt lat="33.330030" lon="126.672340" sectionIndex="0" pointIndex="5" originalElevation="233.0" isOriginalElevationFromOSM="false" isAnchor="false"><ele>233.9</ele></trkpt>
<trkpt lat="33.329900" lon="126.672230" sectionIndex="0" pointIndex="6" originalElevation="233.0" isOriginalElevationFromOSM="false" isAnchor="false"><ele>233.9</ele></trkpt>
<trkpt lat="33.329870" lon="126.672180" sectionIndex="0" pointIndex="7" originalElevation="233.0" isOriginalElevationFromOSM="false" isAnchor="false"><ele>233.8</ele></trkpt>
<trkpt lat="33.329870" lon="126.672180" sectionIndex="0" pointIndex="8" originalElevation="233.0" isOriginalElevationFromOSM="false" isAnchor="false"><ele>233.8</ele></trkpt>
<trkpt lat="33.329840" lon="126.672120" sectionIndex="0" pointIndex="9" originalElevation="233.0" isOriginalElevationFromOSM="false" isAnchor="false"><ele>233.7</ele></trkpt>
<trkpt lat="33.329840" lon="126.672070" sectionIndex="0" pointIndex="10" originalElevation="233.0" isOriginalElevationFromOSM="false" isAnchor="false"><ele>233.7</ele></trkpt>
<trkpt lat="33.329850" lon="126.672020" sectionIndex="0" pointIndex="11" originalElevation="233.0" isOriginalElevationFromOSM="false" isAnchor="false"><ele>233.7</ele></trkpt>
<trkpt lat="33.329840" lon="126.671970" sectionIndex="0" pointIndex="12" originalElevation="233.0" isOriginalElevationFromOSM="false" isAnchor="false"><ele>233.7</ele></trkpt>
<trkpt lat="33.329800" lon="126.671830" sectionIndex="0" pointIndex="13" originalElevation="234.0" isOriginalElevationFromOSM="false" isAnchor="false"><ele>233.7</ele></trkpt>
<trkpt lat="33.329830" lon="126.671730" sectionIndex="0" pointIndex="14" originalElevation="234.0" isOriginalElevationFromOSM="false" isAnchor="false"><ele>233.8</ele></trkpt>
<trkpt lat="33.330000" lon="126.671640" sectionIndex="0" pointIndex="15" originalElevation="234.0" isOriginalElevationFromOSM="false" isAnchor="false"><ele>233.8</ele></trkpt>
<trkpt lat="33.330110" lon="126.671560" sectionIndex="0" pointIndex="16" originalElevation="234.0" isOriginalElevationFromOSM="false" isAnchor="false"><ele>233.8</ele></trkpt>
<trkpt lat="33.330160" lon="126.671520" sectionIndex="0" pointIndex="17" originalElevation="234.0" isOriginalElevationFromOSM="false" isAnchor="false"><ele>233.8</ele></trkpt>
<trkpt lat="33.330170" lon="126.671480" sectionIndex="0" pointIndex="18" originalElevation="234.0" isOriginalElevationFromOSM="false" isAnchor="false"><ele>233.9</ele></trkpt>
<trkpt lat="33.330160" lon="126.671430" sectionIndex="0" pointIndex="19" originalElevation="234.0" isOriginalElevationFromOSM="false" isAnchor="false"><ele>234.0</ele></trkpt>
<trkpt lat="33.330090" lon="126.671340" sectionIndex="0" pointIndex="20" originalElevation="234.0" isOriginalElevationFromOSM="false" isAnchor="false"><ele>234.1</ele></trkpt>
<trkpt lat="33.330090" lon="126.671340" sectionIndex="0" pointIndex="21" originalElevation="234.0" isOriginalElevationFromOSM="false" isAnchor="false"><ele>234.2</ele></trkpt>
<trkpt lat="33.330090" lon="126.671340" sectionIndex="0" pointIndex="22" originalElevation="234.0" isOriginalElevationFromOSM="false" isAnchor="false"><ele>234.3</ele></trkpt>
<trkpt lat="33.330070" lon="126.671350" sectionIndex="0" pointIndex="23" originalElevation="234.0" isOriginalElevationFromOSM="false" isAnchor="false"><ele>234.4</ele></trkpt>
<trkpt lat="33.329980" lon="126.671130" sectionIndex="0" pointIndex="24" originalElevation="234.0" isOriginalElevationFromOSM="false" isAnchor="false"><ele>234.4</ele></trkpt>
<trkpt lat="33.329850" lon="126.671080" sectionIndex="0" pointIndex="25" originalElevation="239.0" isOriginalElevationFromOSM="false" isAnchor="false"><ele>234.5</ele></trkpt>
<trkpt lat="33.329620" lon="126.671020" sectionIndex="0" pointIndex="26" originalElevation="233.0" isOriginalElevationFromOSM="false" isAnchor="false"><ele>234.6</ele></trkpt>
<trkpt lat="33.329520" lon="126.670950" sectionIndex="0" pointIndex="27" originalElevation="233.0" isOriginalElevationFromOSM="false" isAnchor="false"><ele>234.6</ele></trkpt>
<trkpt lat="33.329460" lon="126.670820" sectionIndex="0" pointIndex="28" originalElevation="233.0" isOriginalElevationFromOSM="false" isAnchor="false"><ele>234.7</ele></trkpt>
<trkpt lat="33.329430" lon="126.670710" sectionIndex="0" pointIndex="29" originalElevation="233.0" isOriginalElevationFromOSM="false" isAnchor="false"><ele>234.7</ele></trkpt>
<trkpt lat="33.329420" lon="126.670480" sectionIndex="0" pointIndex="30" originalElevation="233.0" isOriginalElevationFromOSM="false" isAnchor="false"><ele>234.7</ele></trkpt>
<trkpt lat="33.329500" lon="126.670250" sectionIndex="0" pointIndex="31" originalElevation="237.0" isOriginalElevationFromOSM="false" isAnchor="false"><ele>234.8</ele></trkpt>
<trkpt lat="33.329510" lon="126.670180" sectionIndex="0" pointIndex="32" originalElevation="237.0" isOriginalElevationFromOSM="false" isAnchor="false"><ele>234.8</ele></trkpt>
<trkpt lat="33.329500" lon="126.670120" sectionIndex="0" pointIndex="33" originalElevation="237.0" isOriginalElevationFromOSM="false" isAnchor="false"><ele>234.8</ele></trkpt>
<trkpt lat="33.329370" lon="126.669810" sectionIndex="0" pointIndex="34" originalElevation="237.0" isOriginalElevationFromOSM="false" isAnchor="false"><ele>234.8</ele></trkpt>
<trkpt lat="33.329310" lon="126.669750" sectionIndex="0" pointIndex="35" originalElevation="237.0" isOriginalElevationFromOSM="false" isAnchor="false"><ele>234.8</ele></trkpt>
<trkpt lat="33.329240" lon="126.669750" sectionIndex="0" pointIndex="36" originalElevation="237.0" isOriginalElevationFromOSM="false" isAnchor="false"><ele>234.8</ele></trkpt>
<trkpt lat="33.329070" lon="126.669830" sectionIndex="0" pointIndex="37" originalElevation="237.0" isOriginalElevationFromOSM="false" isAnchor="false"><ele>234.7</ele></trkpt>
<trkpt lat="33.328890" lon="126.669890" sectionIndex="0" pointIndex="38" originalElevation="231.0" isOriginalElevationFromOSM="false" isAnchor="false"><ele>234.6</ele></trkpt>
<trkpt lat="33.328800" lon="126.669880" sectionIndex="0" pointIndex="39" originalElevation="231.0" isOriginalElevationFromOSM="false" isAnchor="false"><ele>234.5</ele></trkpt>
<trkpt lat="33.328700" lon="126.669810" sectionIndex="0" pointIndex="40" originalElevation="231.0" isOriginalElevationFromOSM="false" isAnchor="false"><ele>234.4</ele></trkpt>
<trkpt lat="33.328160" lon="126.669360" sectionIndex="0" pointIndex="41" originalElevation="235.0" isOriginalElevationFromOSM="false" isAnchor="false"><ele>234.2</ele></trkpt>
<trkpt lat="33.328140" lon="126.669360" sectionIndex="0" pointIndex="42" originalElevation="235.0" isOriginalElevationFromOSM="false" isAnchor="false"><ele>234.1</ele></trkpt>
<trkpt lat="33.328140" lon="126.669360" sectionIndex="0" pointIndex="43" originalElevation="235.0" isOriginalElevationFromOSM="false" isAnchor="false"><ele>233.9</ele></trkpt>
<trkpt lat="33.328120" lon="126.669360" sectionIndex="0" pointIndex="44" originalElevation="235.0" isOriginalElevationFromOSM="false" isAnchor="false"><ele>233.7</ele></trkpt>
<trkpt lat="33.328050" lon="126.669450" sectionIndex="0" pointIndex="45" originalElevation="228.0" isOriginalElevationFromOSM="false" isAnchor="false"><ele>233.6</ele></trkpt>
<trkpt lat="33.327900" lon="126.669400" sectionIndex="0" pointIndex="46" originalElevation="239.0" isOriginalElevationFromOSM="false" isAnchor="false"><ele>233.4</ele></trkpt>
<trkpt lat="33.327840" lon="126.669400" sectionIndex="0" pointIndex="47" originalElevation="239.0" isOriginalElevationFromOSM="false" isAnchor="false"><ele>233.2</ele></trkpt>
<trkpt lat="33.327790" lon="126.669430" sectionIndex="0" pointIndex="48" originalElevation="239.0" isOriginalElevationFromOSM="false" isAnchor="false"><ele>233.1</ele></trkpt>
<trkpt lat="33.327760" lon="126.669480" sectionIndex="0" pointIndex="49" originalElevation="233.5" isOriginalElevationFromOSM="false" isAnchor="false"><ele>233.0</ele></trkpt>
<trkpt lat="33.327760" lon="126.669480" sectionIndex="0" pointIndex="50" originalElevation="233.5" isOriginalElevationFromOSM="false" isAnchor="false"><ele>232.9</ele></trkpt>
<trkpt lat="33.327610" lon="126.669670" sectionIndex="0" pointIndex="51" originalElevation="228.0" isOriginalElevationFromOSM="false" isAnchor="false"><ele>232.9</ele></trkpt>
<trkpt lat="33.327560" lon="126.669860" sectionIndex="0" pointIndex="52" originalElevation="228.0" isOriginalElevationFromOSM="false" isAnchor="false"><ele>232.9</ele></trkpt>
<trkpt lat="33.327530" lon="126.669900" sectionIndex="0" pointIndex="53" originalElevation="228.0" isOriginalElevationFromOSM="false" isAnchor="false"><ele>233.0</ele></trkpt>
<trkpt lat="33.327440" lon="126.669950" sectionIndex="0" pointIndex="54" originalElevation="228.0" isOriginalElevationFromOSM="false" isAnchor="false"><ele>233.2</ele></trkpt>
<trkpt lat="33.327350" lon="126.669920" sectionIndex="0" pointIndex="55" originalElevation="228.0" isOriginalElevationFromOSM="false" isAnchor="false"><ele>233.4</ele></trkpt>
<trkpt lat="33.327240" lon="126.669820" sectionIndex="0" pointIndex="56" originalElevation="228.0" isOriginalElevationFromOSM="false" isAnchor="false"><ele>233.8</ele></trkpt>
<trkpt lat="33.327190" lon="126.669760" sectionIndex="0" pointIndex="57" originalElevation="233.0" isOriginalElevationFromOSM="false" isAnchor="false"><ele>234.2</ele></trkpt>
<trkpt lat="33.327060" lon="126.669760" sectionIndex="0" pointIndex="58" originalElevation="233.0" isOriginalElevationFromOSM="false" isAnchor="false"><ele>234.6</ele></trkpt>
<trkpt lat="33.326960" lon="126.669630" sectionIndex="0" pointIndex="59" originalElevation="233.0" isOriginalElevationFromOSM="false" isAnchor="false"><ele>235.1</ele></trkpt>
<trkpt lat="33.326940" lon="126.669560" sectionIndex="0" pointIndex="60" originalElevation="233.0" isOriginalElevationFromOSM="false" isAnchor="false"><ele>235.7</ele></trkpt>
<trkpt lat="33.326920" lon="126.669480" sectionIndex="0" pointIndex="61" originalElevation="233.0" isOriginalElevationFromOSM="false" isAnchor="false"><ele>236.3</ele></trkpt>
<trkpt lat="33.326950" lon="126.669370" sectionIndex="0" pointIndex="62" originalElevation="241.0" isOriginalElevationFromOSM="false" isAnchor="false"><ele>236.9</ele></trkpt>
<trkpt lat="33.326990" lon="126.669310" sectionIndex="0" pointIndex="63" originalElevation="241.0" isOriginalElevationFromOSM="false" isAnchor="false"><ele>237.5</ele></trkpt>
<trkpt lat="33.327030" lon="126.669260" sectionIndex="0" pointIndex="64" originalElevation="241.0" isOriginalElevationFromOSM="false" isAnchor="false"><ele>238.2</ele></trkpt>
<trkpt lat="33.327090" lon="126.669220" sectionIndex="0" pointIndex="65" originalElevation="241.0" isOriginalElevationFromOSM="false" isAnchor="false"><ele>239.0</ele></trkpt>
<trkpt lat="33.327090" lon="126.669150" sectionIndex="0" pointIndex="66" originalElevation="241.0" isOriginalElevationFromOSM="false" isAnchor="false"><ele>239.7</ele></trkpt>
<trkpt lat="33.327140" lon="126.669060" sectionIndex="0" pointIndex="67" originalElevation="241.0" isOriginalElevationFromOSM="false" isAnchor="false"><ele>240.5</ele></trkpt>
<trkpt lat="33.327150" lon="126.669020" sectionIndex="0" pointIndex="68" originalElevation="241.0" isOriginalElevationFromOSM="false" isAnchor="false"><ele>241.2</ele></trkpt>
<trkpt lat="33.327140" lon="126.668940" sectionIndex="0" pointIndex="69" originalElevation="241.0" isOriginalElevationFromOSM="false" isAnchor="false"><ele>241.9</ele></trkpt>
<trkpt lat="33.327030" lon="126.668740" sectionIndex="0" pointIndex="70" originalElevation="241.0" isOriginalElevationFromOSM="false" isAnchor="false"><ele>242.7</ele></trkpt>
<trkpt lat="33.326880" lon="126.668520" sectionIndex="0" pointIndex="71" originalElevation="245.0" isOriginalElevationFromOSM="false" isAnchor="false"><ele>243.4</ele></trkpt>
<trkpt lat="33.326850" lon="126.668420" sectionIndex="0" pointIndex="72" originalElevation="245.0" isOriginalElevationFromOSM="false" isAnchor="false"><ele>244.1</ele></trkpt>
<trkpt lat="33.326820" lon="126.668310" sectionIndex="0" pointIndex="73" originalElevation="245.0" isOriginalElevationFromOSM="false" isAnchor="false"><ele>244.7</ele></trkpt>
<trkpt lat="33.326800" lon="126.668200" sectionIndex="0" pointIndex="74" originalElevation="245.0" isOriginalElevationFromOSM="false" isAnchor="false"><ele>245.4</ele></trkpt>
<trkpt lat="33.326780" lon="126.668120" sectionIndex="0" pointIndex="75" originalElevation="245.0" isOriginalElevationFromOSM="false" isAnchor="false"><ele>246.1</ele></trkpt>
<trkpt lat="33.326740" lon="126.668070" sectionIndex="0" pointIndex="76" originalElevation="245.0" isOriginalElevationFromOSM="false" isAnchor="false"><ele>246.8</ele></trkpt>
<trkpt lat="33.326710" lon="126.667860" sectionIndex="0" pointIndex="77" originalElevation="245.0" isOriginalElevationFromOSM="false" isAnchor="false"><ele>247.5</ele></trkpt>
<trkpt lat="33.326700" lon="126.667860" sectionIndex="0" pointIndex="78" originalElevation="245.0" isOriginalElevationFromOSM="false" isAnchor="false"><ele>248.2</ele></trkpt>
<trkpt lat="33.326680" lon="126.667680" sectionIndex="0" pointIndex="79" originalElevation="251.0" isOriginalElevationFromOSM="false" isAnchor="false"><ele>248.9</ele></trkpt>
<trkpt lat="33.326620" lon="126.667520" sectionIndex="0" pointIndex="80" originalElevation="251.0" isOriginalElevationFromOSM="false" isAnchor="false"><ele>249.6</ele></trkpt>
<trkpt lat="33.326470" lon="126.667460" sectionIndex="0" pointIndex="81" originalElevation="251.0" isOriginalElevationFromOSM="false" isAnchor="false"><ele>250.4</ele></trkpt>
<trkpt lat="33.326390" lon="126.667390" sectionIndex="0" pointIndex="82" originalElevation="253.0" isOriginalElevationFromOSM="false" isAnchor="false"><ele>251.1</ele></trkpt>
<trkpt lat="33.326240" lon="126.667410" sectionIndex="0" pointIndex="83" originalElevation="253.0" isOriginalElevationFromOSM="false" isAnchor="false"><ele>251.9</ele></trkpt>
<trkpt lat="33.326160" lon="126.667370" sectionIndex="0" pointIndex="84" originalElevation="253.0" isOriginalElevationFromOSM="false" isAnchor="false"><ele>252.6</ele></trkpt>
<trkpt lat="33.326110" lon="126.667310" sectionIndex="0" pointIndex="85" originalElevation="253.0" isOriginalElevationFromOSM="false" isAnchor="false"><ele>253.4</ele></trkpt>
<trkpt lat="33.326110" lon="126.667310" sectionIndex="0" pointIndex="86" originalElevation="253.0" isOriginalElevationFromOSM="false" isAnchor="false"><ele>254.1</ele></trkpt>
<trkpt lat="33.326080" lon="126.667270" sectionIndex="0" pointIndex="87" originalElevation="253.0" isOriginalElevationFromOSM="false" isAnchor="false"><ele>254.9</ele></trkpt>
<trkpt lat="33.326000" lon="126.666990" sectionIndex="0" pointIndex="88" originalElevation="253.0" isOriginalElevationFromOSM="false" isAnchor="false"><ele>255.6</ele></trkpt>
<trkpt lat="33.325980" lon="126.666790" sectionIndex="0" pointIndex="89" originalElevation="258.0" isOriginalElevationFromOSM="false" isAnchor="false"><ele>256.3</ele></trkpt>
<trkpt lat="33.325960" lon="126.666660" sectionIndex="0" pointIndex="90" originalElevation="258.0" isOriginalElevationFromOSM="false" isAnchor="false"><ele>257.0</ele></trkpt>
<trkpt lat="33.325920" lon="126.666550" sectionIndex="0" pointIndex="91" originalElevation="258.0" isOriginalElevationFromOSM="false" isAnchor="false"><ele>257.7</ele></trkpt>
<trkpt lat="33.325900" lon="126.666440" sectionIndex="0" pointIndex="92" originalElevation="258.0" isOriginalElevationFromOSM="false" isAnchor="false"><ele>258.3</ele></trkpt>
<trkpt lat="33.325950" lon="126.666280" sectionIndex="0" pointIndex="93" originalElevation="258.0" isOriginalElevationFromOSM="false" isAnchor="false"><ele>259.0</ele></trkpt>
<trkpt lat="33.326020" lon="126.666110" sectionIndex="0" pointIndex="94" originalElevation="263.0" isOriginalElevationFromOSM="false" isAnchor="false"><ele>259.6</ele></trkpt>
<trkpt lat="33.326040" lon="126.666020" sectionIndex="0" pointIndex="95" originalElevation="263.0" isOriginalElevationFromOSM="false" isAnchor="false"><ele>260.1</ele></trkpt>
<trkpt lat="33.326020" lon="126.665930" sectionIndex="0" pointIndex="96" originalElevation="263.0" isOriginalElevationFromOSM="false" isAnchor="false"><ele>260.6</ele></trkpt>
<trkpt lat="33.326040" lon="126.665860" sectionIndex="0" pointIndex="97" originalElevation="263.0" isOriginalElevationFromOSM="false" isAnchor="false"><ele>261.0</ele></trkpt>
<trkpt lat="33.326080" lon="126.665790" sectionIndex="0" pointIndex="98" originalElevation="263.0" isOriginalElevationFromOSM="false" isAnchor="false"><ele>261.5</ele></trkpt>
<trkpt lat="33.326170" lon="126.665700" sectionIndex="0" pointIndex="99" originalElevation="263.0" isOriginalElevationFromOSM="false" isAnchor="false"><ele>261.8</ele></trkpt>
<trkpt lat="33.326300" lon="126.665540" sectionIndex="0" pointIndex="100" originalElevation="263.0" isOriginalElevationFromOSM="false" isAnchor="false"><ele>262.2</ele></trkpt>
<trkpt lat="33.326350" lon="126.665450" sectionIndex="0" pointIndex="101" originalElevation="263.0" isOriginalElevationFromOSM="false" isAnchor="false"><ele>262.5</ele></trkpt>
<trkpt lat="33.326430" lon="126.665370" sectionIndex="0" pointIndex="102" originalElevation="263.0" isOriginalElevationFromOSM="false" isAnchor="false"><ele>262.7</ele></trkpt>
<trkpt lat="33.326460" lon="126.665300" sectionIndex="0" pointIndex="103" originalElevation="263.0" isOriginalElevationFromOSM="false" isAnchor="false"><ele>262.9</ele></trkpt>
<trkpt lat="33.326520" lon="126.665260" sectionIndex="0" pointIndex="104" originalElevation="264.0" isOriginalElevationFromOSM="false" isAnchor="false"><ele>263.1</ele></trkpt>
<trkpt lat="33.326660" lon="126.665260" sectionIndex="0" pointIndex="105" originalElevation="264.0" isOriginalElevationFromOSM="false" isAnchor="false"><ele>263.2</ele></trkpt>
<trkpt lat="33.326720" lon="126.665200" sectionIndex="0" pointIndex="106" originalElevation="264.0" isOriginalElevationFromOSM="false" isAnchor="false"><ele>263.2</ele></trkpt>
<trkpt lat="33.326740" lon="126.665040" sectionIndex="0" pointIndex="107" originalElevation="264.0" isOriginalElevationFromOSM="false" isAnchor="false"><ele>263.3</ele></trkpt>
<trkpt lat="33.326710" lon="126.665010" sectionIndex="0" pointIndex="108" originalElevation="264.0" isOriginalElevationFromOSM="false" isAnchor="false"><ele>263.2</ele></trkpt>
<trkpt lat="33.326710" lon="126.665010" sectionIndex="0" pointIndex="109" originalElevation="264.0" isOriginalElevationFromOSM="false" isAnchor="false"><ele>263.2</ele></trkpt>
<trkpt lat="33.326680" lon="126.664980" sectionIndex="0" pointIndex="110" originalElevation="264.0" isOriginalElevationFromOSM="false" isAnchor="false"><ele>263.1</ele></trkpt>
<trkpt lat="33.326660" lon="126.664900" sectionIndex="0" pointIndex="111" originalElevation="264.0" isOriginalElevationFromOSM="false" isAnchor="false"><ele>262.9</ele></trkpt>
<trkpt lat="33.326650" lon="126.664780" sectionIndex="0" pointIndex="112" originalElevation="264.0" isOriginalElevationFromOSM="false" isAnchor="false"><ele>262.8</ele></trkpt>
<trkpt lat="33.326610" lon="126.664630" sectionIndex="0" pointIndex="113" originalElevation="264.0" isOriginalElevationFromOSM="false" isAnchor="false"><ele>262.7</ele></trkpt>
<trkpt lat="33.326600" lon="126.664560" sectionIndex="0" pointIndex="114" originalElevation="264.0" isOriginalElevationFromOSM="false" isAnchor="false"><ele>262.6</ele></trkpt>
<trkpt lat="33.326520" lon="126.664560" sectionIndex="0" pointIndex="115" originalElevation="264.0" isOriginalElevationFromOSM="false" isAnchor="false"><ele>262.5</ele></trkpt>
<trkpt lat="33.326430" lon="126.664600" sectionIndex="0" pointIndex="116" originalElevation="264.0" isOriginalElevationFromOSM="false" isAnchor="false"><ele>262.4</ele></trkpt>
<trkpt lat="33.326370" lon="126.664660" sectionIndex="0" pointIndex="117" originalElevation="260.0" isOriginalElevationFromOSM="false" isAnchor="false"><ele>262.4</ele></trkpt>
<trkpt lat="33.326340" lon="126.664680" sectionIndex="0" pointIndex="118" originalElevation="260.0" isOriginalElevationFromOSM="false" isAnchor="false"><ele>262.4</ele></trkpt>
<trkpt lat="33.326290" lon="126.664670" sectionIndex="0" pointIndex="119" originalElevation="260.0" isOriginalElevationFromOSM="false" isAnchor="false"><ele>262.4</ele></trkpt>
<trkpt lat="33.326240" lon="126.664590" sectionIndex="0" pointIndex="120" originalElevation="260.0" isOriginalElevationFromOSM="false" isAnchor="false"><ele>262.5</ele></trkpt>
<trkpt lat="33.326170" lon="126.664520" sectionIndex="0" pointIndex="121" originalElevation="260.0" isOriginalElevationFromOSM="false" isAnchor="false"><ele>262.6</ele></trkpt>
<trkpt lat="33.326180" lon="126.664470" sectionIndex="0" pointIndex="122" originalElevation="260.0" isOriginalElevationFromOSM="false" isAnchor="false"><ele>262.8</ele></trkpt>
<trkpt lat="33.326240" lon="126.664410" sectionIndex="0" pointIndex="123" originalElevation="259.0" isOriginalElevationFromOSM="false" isAnchor="false"><ele>263.0</ele></trkpt>
<trkpt lat="33.326250" lon="126.664250" sectionIndex="0" pointIndex="124" originalElevation="259.0" isOriginalElevationFromOSM="false" isAnchor="false"><ele>263.3</ele></trkpt>
<trkpt lat="33.326270" lon="126.664130" sectionIndex="0" pointIndex="125" originalElevation="259.0" isOriginalElevationFromOSM="false" isAnchor="false"><ele>263.6</ele></trkpt>
<trkpt lat="33.326370" lon="126.664120" sectionIndex="0" pointIndex="126" originalElevation="259.0" isOriginalElevationFromOSM="false" isAnchor="false"><ele>264.0</ele></trkpt>
<trkpt lat="33.326440" lon="126.664060" sectionIndex="0" pointIndex="127" originalElevation="267.0" isOriginalElevationFromOSM="false" isAnchor="false"><ele>264.5</ele></trkpt>
<trkpt lat="33.326550" lon="126.663990" sectionIndex="0" pointIndex="128" originalElevation="267.0" isOriginalElevationFromOSM="false" isAnchor="false"><ele>265.0</ele></trkpt>
<trkpt lat="33.326640" lon="126.663900" sectionIndex="0" pointIndex="129" originalElevation="267.0" isOriginalElevationFromOSM="false" isAnchor="false"><ele>265.5</ele></trkpt>
<trkpt lat="33.326690" lon="126.663800" sectionIndex="0" pointIndex="130" originalElevation="267.0" isOriginalElevationFromOSM="false" isAnchor="false"><ele>266.0</ele></trkpt>
<trkpt lat="33.326770" lon="126.663540" sectionIndex="0" pointIndex="131" originalElevation="269.0" isOriginalElevationFromOSM="false" isAnchor="false"><ele>266.6</ele></trkpt>
<trkpt lat="33.326790" lon="126.663500" sectionIndex="0" pointIndex="132" originalElevation="269.0" isOriginalElevationFromOSM="false" isAnchor="false"><ele>267.2</ele></trkpt>
<trkpt lat="33.326860" lon="126.663440" sectionIndex="0" pointIndex="133" originalElevation="269.0" isOriginalElevationFromOSM="false" isAnchor="false"><ele>267.8</ele></trkpt>
<trkpt lat="33.326910" lon="126.663340" sectionIndex="0" pointIndex="134" originalElevation="269.0" isOriginalElevationFromOSM="false" isAnchor="false"><ele>268.3</ele></trkpt>
<trkpt lat="33.326890" lon="126.663080" sectionIndex="0" pointIndex="135" originalElevation="269.0" isOriginalElevationFromOSM="false" isAnchor="false"><ele>268.9</ele></trkpt>
<trkpt lat="33.326930" lon="126.663000" sectionIndex="0" pointIndex="136" originalElevation="269.0" isOriginalElevationFromOSM="false" isAnchor="false"><ele>269.5</ele></trkpt>
<trkpt lat="33.327000" lon="126.662970" sectionIndex="0" pointIndex="137" originalElevation="269.0" isOriginalElevationFromOSM="false" isAnchor="false"><ele>270.0</ele></trkpt>
<trkpt lat="33.327040" lon="126.662880" sectionIndex="0" pointIndex="138" originalElevation="269.0" isOriginalElevationFromOSM="false" isAnchor="false"><ele>270.5</ele></trkpt>
<trkpt lat="33.327110" lon="126.662810" sectionIndex="0" pointIndex="139" originalElevation="269.0" isOriginalElevationFromOSM="false" isAnchor="false"><ele>271.1</ele></trkpt>
<trkpt lat="33.327200" lon="126.662790" sectionIndex="0" pointIndex="140" originalElevation="269.0" isOriginalElevationFromOSM="false" isAnchor="false"><ele>271.6</ele></trkpt>
<trkpt lat="33.327270" lon="126.662790" sectionIndex="0" pointIndex="141" originalElevation="275.0" isOriginalElevationFromOSM="false" isAnchor="false"><ele>272.2</ele></trkpt>
<trkpt lat="33.327360" lon="126.662870" sectionIndex="0" pointIndex="142" originalElevation="275.0" isOriginalElevationFromOSM="false" isAnchor="false"><ele>272.7</ele></trkpt>
<trkpt lat="33.327520" lon="126.662910" sectionIndex="0" pointIndex="143" originalElevation="275.0" isOriginalElevationFromOSM="false" isAnchor="false"><ele>273.2</ele></trkpt>
<trkpt lat="33.327580" lon="126.662950" sectionIndex="0" pointIndex="144" originalElevation="275.0" isOriginalElevationFromOSM="false" isAnchor="false"><ele>273.7</ele></trkpt>
<trkpt lat="33.327620" lon="126.662940" sectionIndex="0" pointIndex="145" originalElevation="275.0" isOriginalElevationFromOSM="false" isAnchor="false"><ele>274.2</ele></trkpt>
<trkpt lat="33.327600" lon="126.663000" sectionIndex="0" pointIndex="146" originalElevation="275.0" isOriginalElevationFromOSM="false" isAnchor="false"><ele>274.8</ele></trkpt>
<trkpt lat="33.327600" lon="126.663000" sectionIndex="0" pointIndex="147" originalElevation="275.0" isOriginalElevationFromOSM="false" isAnchor="false"><ele>275.4</ele></trkpt>
<trkpt lat="33.327760" lon="126.662680" sectionIndex="0" pointIndex="148" originalElevation="274.0" isOriginalElevationFromOSM="false" isAnchor="false"><ele>276.0</ele></trkpt>
<trkpt lat="33.327840" lon="126.662570" sectionIndex="0" pointIndex="149" originalElevation="274.0" isOriginalElevationFromOSM="false" isAnchor="false"><ele>276.6</ele></trkpt>
<trkpt lat="33.327990" lon="126.662410" sectionIndex="0" pointIndex="150" originalElevation="274.0" isOriginalElevationFromOSM="false" isAnchor="false"><ele>277.2</ele></trkpt>
<trkpt lat="33.328100" lon="126.662220" sectionIndex="0" pointIndex="151" originalElevation="277.0" isOriginalElevationFromOSM="false" isAnchor="false"><ele>277.9</ele></trkpt>
<trkpt lat="33.328160" lon="126.662060" sectionIndex="0" pointIndex="152" originalElevation="277.0" isOriginalElevationFromOSM="false" isAnchor="false"><ele>278.7</ele></trkpt>
<trkpt lat="33.328220" lon="126.661970" sectionIndex="0" pointIndex="153" originalElevation="277.0" isOriginalElevationFromOSM="false" isAnchor="false"><ele>279.5</ele></trkpt>
<trkpt lat="33.328340" lon="126.661880" sectionIndex="0" pointIndex="154" originalElevation="281.0" isOriginalElevationFromOSM="false" isAnchor="false"><ele>280.3</ele></trkpt>
<trkpt lat="33.328360" lon="126.661810" sectionIndex="0" pointIndex="155" originalElevation="281.0" isOriginalElevationFromOSM="false" isAnchor="false"><ele>281.1</ele></trkpt>
<trkpt lat="33.328490" lon="126.661510" sectionIndex="0" pointIndex="156" originalElevation="281.0" isOriginalElevationFromOSM="false" isAnchor="false"><ele>282.0</ele></trkpt>
<trkpt lat="33.328660" lon="126.661330" sectionIndex="0" pointIndex="157" originalElevation="281.0" isOriginalElevationFromOSM="false" isAnchor="false"><ele>282.8</ele></trkpt>
<trkpt lat="33.328760" lon="126.661140" sectionIndex="0" pointIndex="158" originalElevation="281.0" isOriginalElevationFromOSM="false" isAnchor="false"><ele>283.7</ele></trkpt>
<trkpt lat="33.328900" lon="126.660940" sectionIndex="0" pointIndex="159" originalElevation="287.0" isOriginalElevationFromOSM="false" isAnchor="false"><ele>284.6</ele></trkpt>
<trkpt lat="33.329190" lon="126.660660" sectionIndex="0" pointIndex="160" originalElevation="287.0" isOriginalElevationFromOSM="false" isAnchor="false"><ele>285.6</ele></trkpt>
<trkpt lat="33.329290" lon="126.660530" sectionIndex="0" pointIndex="161" originalElevation="287.0" isOriginalElevationFromOSM="false" isAnchor="false"><ele>286.6</ele></trkpt>
<trkpt lat="33.329420" lon="126.660310" sectionIndex="0" pointIndex="162" originalElevation="287.0" isOriginalElevationFromOSM="false" isAnchor="false"><ele>287.5</ele></trkpt>
<trkpt lat="33.329490" lon="126.660090" sectionIndex="0" pointIndex="163" originalElevation="288.0" isOriginalElevationFromOSM="false" isAnchor="false"><ele>288.5</ele></trkpt>
<trkpt lat="33.329580" lon="126.659890" sectionIndex="0" pointIndex="164" originalElevation="288.0" isOriginalElevationFromOSM="false" isAnchor="false"><ele>289.5</ele></trkpt>
<trkpt lat="33.329720" lon="126.659670" sectionIndex="0" pointIndex="165" originalElevation="288.0" isOriginalElevationFromOSM="false" isAnchor="false"><ele>290.6</ele></trkpt>
<trkpt lat="33.329930" lon="126.659390" sectionIndex="0" pointIndex="166" originalElevation="295.0" isOriginalElevationFromOSM="false" isAnchor="false"><ele>291.6</ele></trkpt>
<trkpt lat="33.329990" lon="126.659270" sectionIndex="0" pointIndex="167" originalElevation="295.0" isOriginalElevationFromOSM="false" isAnchor="false"><ele>292.6</ele></trkpt>
<trkpt lat="33.330030" lon="126.659140" sectionIndex="0" pointIndex="168" originalElevation="295.0" isOriginalElevationFromOSM="false" isAnchor="false"><ele>293.5</ele></trkpt>
<trkpt lat="33.330100" lon="126.658980" sectionIndex="0" pointIndex="169" originalElevation="295.0" isOriginalElevationFromOSM="false" isAnchor="false"><ele>294.5</ele></trkpt>
<trkpt lat="33.330170" lon="126.658940" sectionIndex="0" pointIndex="170" originalElevation="295.0" isOriginalElevationFromOSM="false" isAnchor="false"><ele>295.5</ele></trkpt>
<trkpt lat="33.330290" lon="126.658920" sectionIndex="0" pointIndex="171" originalElevation="295.0" isOriginalElevationFromOSM="false" isAnchor="false"><ele>296.4</ele></trkpt>
<trkpt lat="33.330410" lon="126.658870" sectionIndex="0" pointIndex="172" originalElevation="295.0" isOriginalElevationFromOSM="false" isAnchor="false"><ele>297.3</ele></trkpt>
<trkpt lat="33.330530" lon="126.658610" sectionIndex="0" pointIndex="173" originalElevation="298.5" isOriginalElevationFromOSM="false" isAnchor="false"><ele>298.2</ele></trkpt>
<trkpt lat="33.330530" lon="126.658610" sectionIndex="0" pointIndex="174" originalElevation="298.5" isOriginalElevationFromOSM="false" isAnchor="false"><ele>299.0</ele></trkpt>
<trkpt lat="33.330600" lon="126.658450" sectionIndex="0" pointIndex="175" originalElevation="302.0" isOriginalElevationFromOSM="false" isAnchor="false"><ele>299.8</ele></trkpt>
<trkpt lat="33.330700" lon="126.658040" sectionIndex="0" pointIndex="176" originalElevation="302.0" isOriginalElevationFromOSM="false" isAnchor="false"><ele>300.6</ele></trkpt>
<trkpt lat="33.330750" lon="126.657920" sectionIndex="0" pointIndex="177" originalElevation="302.0" isOriginalElevationFromOSM="false" isAnchor="false"><ele>301.3</ele></trkpt>
<trkpt lat="33.330980" lon="126.657720" sectionIndex="0" pointIndex="178" originalElevation="305.0" isOriginalElevationFromOSM="false" isAnchor="false"><ele>302.0</ele></trkpt>
<trkpt lat="33.331220" lon="126.657620" sectionIndex="0" pointIndex="179" originalElevation="305.0" isOriginalElevationFromOSM="false" isAnchor="false"><ele>302.7</ele></trkpt>
<trkpt lat="33.331340" lon="126.657550" sectionIndex="0" pointIndex="180" originalElevation="305.0" isOriginalElevationFromOSM="false" isAnchor="false"><ele>303.4</ele></trkpt>
<trkpt lat="33.331520" lon="126.657180" sectionIndex="0" pointIndex="181" originalElevation="306.0" isOriginalElevationFromOSM="false" isAnchor="false"><ele>304.0</ele></trkpt>
<trkpt lat="33.331670" lon="126.656960" sectionIndex="0" pointIndex="182" originalElevation="306.0" isOriginalElevationFromOSM="false" isAnchor="false"><ele>304.5</ele></trkpt>
<trkpt lat="33.331800" lon="126.656930" sectionIndex="0" pointIndex="183" originalElevation="307.0" isOriginalElevationFromOSM="false" isAnchor="false"><ele>305.1</ele></trkpt>
<trkpt lat="33.331900" lon="126.656940" sectionIndex="0" pointIndex="184" originalElevation="307.0" isOriginalElevationFromOSM="false" isAnchor="false"><ele>305.6</ele></trkpt>
<trkpt lat="33.331970" lon="126.656980" sectionIndex="0" pointIndex="185" originalElevation="306.0" isOriginalElevationFromOSM="false" isAnchor="false"><ele>306.1</ele></trkpt>
<trkpt lat="33.332000" lon="126.657010" sectionIndex="0" pointIndex="186" originalElevation="306.0" isOriginalElevationFromOSM="false" isAnchor="false"><ele>306.6</ele></trkpt>
<trkpt lat="33.332050" lon="126.657080" sectionIndex="0" pointIndex="187" originalElevation="306.0" isOriginalElevationFromOSM="false" isAnchor="false"><ele>307.1</ele></trkpt>
<trkpt lat="33.332070" lon="126.657200" sectionIndex="0" pointIndex="188" originalElevation="306.0" isOriginalElevationFromOSM="false" isAnchor="false"><ele>307.6</ele></trkpt>
<trkpt lat="33.332070" lon="126.657200" sectionIndex="0" pointIndex="189" originalElevation="306.0" isOriginalElevationFromOSM="false" isAnchor="false"><ele>308.0</ele></trkpt>
<trkpt lat="33.332100" lon="126.657360" sectionIndex="0" pointIndex="190" originalElevation="306.0" isOriginalElevationFromOSM="false" isAnchor="false"><ele>308.4</ele></trkpt>
<trkpt lat="33.332120" lon="126.657390" sectionIndex="0" pointIndex="191" originalElevation="306.0" isOriginalElevationFromOSM="false" isAnchor="false"><ele>308.9</ele></trkpt>
<trkpt lat="33.332190" lon="126.657400" sectionIndex="0" pointIndex="192" originalElevation="306.0" isOriginalElevationFromOSM="false" isAnchor="false"><ele>309.2</ele></trkpt>
<trkpt lat="33.332290" lon="126.657380" sectionIndex="0" pointIndex="193" originalElevation="313.0" isOriginalElevationFromOSM="false" isAnchor="false"><ele>309.6</ele></trkpt>
<trkpt lat="33.332510" lon="126.657380" sectionIndex="0" pointIndex="194" originalElevation="313.0" isOriginalElevationFromOSM="false" isAnchor="false"><ele>309.9</ele></trkpt>
<trkpt lat="33.332570" lon="126.657400" sectionIndex="0" pointIndex="195" originalElevation="313.0" isOriginalElevationFromOSM="false" isAnchor="false"><ele>310.2</ele></trkpt>
<trkpt lat="33.332590" lon="126.657380" sectionIndex="0" pointIndex="196" originalElevation="313.0" isOriginalElevationFromOSM="false" isAnchor="false"><ele>310.4</ele></trkpt>
<trkpt lat="33.332630" lon="126.657330" sectionIndex="0" pointIndex="197" originalElevation="313.0" isOriginalElevationFromOSM="false" isAnchor="false"><ele>310.6</ele></trkpt>
<trkpt lat="33.332730" lon="126.657310" sectionIndex="0" pointIndex="198" originalElevation="313.0" isOriginalElevationFromOSM="false" isAnchor="false"><ele>310.7</ele></trkpt>
<trkpt lat="33.332810" lon="126.657320" sectionIndex="0" pointIndex="199" originalElevation="313.0" isOriginalElevationFromOSM="false" isAnchor="false"><ele>310.7</ele></trkpt>
<trkpt lat="33.332820" lon="126.657330" sectionIndex="0" pointIndex="200" originalElevation="313.0" isOriginalElevationFromOSM="false" isAnchor="false"><ele>310.7</ele></trkpt>
<trkpt lat="33.332820" lon="126.657330" sectionIndex="0" pointIndex="201" originalElevation="313.0" isOriginalElevationFromOSM="false" isAnchor="false"><ele>310.7</ele></trkpt>
<trkpt lat="33.332830" lon="126.657350" sectionIndex="0" pointIndex="202" originalElevation="313.0" isOriginalElevationFromOSM="false" isAnchor="false"><ele>310.5</ele></trkpt>
<trkpt lat="33.332830" lon="126.657460" sectionIndex="0" pointIndex="203" originalElevation="313.0" isOriginalElevationFromOSM="false" isAnchor="false"><ele>310.4</ele></trkpt>
<trkpt lat="33.332790" lon="126.657540" sectionIndex="0" pointIndex="204" originalElevation="313.0" isOriginalElevationFromOSM="false" isAnchor="false"><ele>310.1</ele></trkpt>
<trkpt lat="33.332790" lon="126.657620" sectionIndex="0" pointIndex="205" originalElevation="313.0" isOriginalElevationFromOSM="false" isAnchor="false"><ele>309.8</ele></trkpt>
<trkpt lat="33.332770" lon="126.657730" sectionIndex="0" pointIndex="206" originalElevation="313.0" isOriginalElevationFromOSM="false" isAnchor="false"><ele>309.6</ele></trkpt>
<trkpt lat="33.332730" lon="126.657820" sectionIndex="0" pointIndex="207" originalElevation="306.0" isOriginalElevationFromOSM="false" isAnchor="false"><ele>309.4</ele></trkpt>
<trkpt lat="33.332720" lon="126.657870" sectionIndex="0" pointIndex="208" originalElevation="306.0" isOriginalElevationFromOSM="false" isAnchor="false"><ele>309.1</ele></trkpt>
<trkpt lat="33.332670" lon="126.657910" sectionIndex="0" pointIndex="209" originalElevation="306.0" isOriginalElevationFromOSM="false" isAnchor="false"><ele>308.9</ele></trkpt>
<trkpt lat="33.332650" lon="126.657980" sectionIndex="0" pointIndex="210" originalElevation="306.0" isOriginalElevationFromOSM="false" isAnchor="false"><ele>308.7</ele></trkpt>
<trkpt lat="33.332700" lon="126.658040" sectionIndex="0" pointIndex="211" originalElevation="306.0" isOriginalElevationFromOSM="false" isAnchor="false"><ele>308.6</ele></trkpt>
<trkpt lat="33.332770" lon="126.658080" sectionIndex="0" pointIndex="212" originalElevation="306.0" isOriginalElevationFromOSM="false" isAnchor="false"><ele>308.6</ele></trkpt>
<trkpt lat="33.332810" lon="126.658120" sectionIndex="0" pointIndex="213" originalElevation="306.0" isOriginalElevationFromOSM="false" isAnchor="false"><ele>308.6</ele></trkpt>
<trkpt lat="33.332840" lon="126.658190" sectionIndex="0" pointIndex="214" originalElevation="306.0" isOriginalElevationFromOSM="false" isAnchor="false"><ele>308.7</ele></trkpt>
<trkpt lat="33.332910" lon="126.658380" sectionIndex="0" pointIndex="215" originalElevation="306.0" isOriginalElevationFromOSM="false" isAnchor="false"><ele>308.9</ele></trkpt>
<trkpt lat="33.332980" lon="126.658450" sectionIndex="0" pointIndex="216" originalElevation="306.0" isOriginalElevationFromOSM="false" isAnchor="false"><ele>309.2</ele></trkpt>
<trkpt lat="33.333010" lon="126.658500" sectionIndex="0" pointIndex="217" originalElevation="306.0" isOriginalElevationFromOSM="false" isAnchor="false"><ele>309.5</ele></trkpt>
<trkpt lat="33.333010" lon="126.658600" sectionIndex="0" pointIndex="218" originalElevation="306.0" isOriginalElevationFromOSM="false" isAnchor="false"><ele>309.8</ele></trkpt>
<trkpt lat="33.332990" lon="126.658660" sectionIndex="0" pointIndex="219" originalElevation="303.0" isOriginalElevationFromOSM="false" isAnchor="false"><ele>310.2</ele></trkpt>
<trkpt lat="33.333040" lon="126.658850" sectionIndex="0" pointIndex="220" originalElevation="303.0" isOriginalElevationFromOSM="false" isAnchor="false"><ele>310.7</ele></trkpt>
<trkpt lat="33.333090" lon="126.658940" sectionIndex="0" pointIndex="221" originalElevation="317.0" isOriginalElevationFromOSM="false" isAnchor="false"><ele>311.1</ele></trkpt>
<trkpt lat="33.333110" lon="126.659010" sectionIndex="0" pointIndex="222" originalElevation="317.0" isOriginalElevationFromOSM="false" isAnchor="false"><ele>311.5</ele></trkpt>
<trkpt lat="33.333170" lon="126.659070" sectionIndex="0" pointIndex="223" originalElevation="317.0" isOriginalElevationFromOSM="false" isAnchor="false"><ele>312.0</ele></trkpt>
<trkpt lat="33.333210" lon="126.659090" sectionIndex="0" pointIndex="224" originalElevation="317.0" isOriginalElevationFromOSM="false" isAnchor="false"><ele>312.4</ele></trkpt>
<trkpt lat="33.333320" lon="126.659130" sectionIndex="0" pointIndex="225" originalElevation="317.0" isOriginalElevationFromOSM="false" isAnchor="false"><ele>312.7</ele></trkpt>
<trkpt lat="33.333330" lon="126.659190" sectionIndex="0" pointIndex="226" originalElevation="317.0" isOriginalElevationFromOSM="false" isAnchor="false"><ele>312.9</ele></trkpt>
<trkpt lat="33.333310" lon="126.659310" sectionIndex="0" pointIndex="227" originalElevation="317.0" isOriginalElevationFromOSM="false" isAnchor="false"><ele>313.1</ele></trkpt>
<trkpt lat="33.333280" lon="126.659330" sectionIndex="0" pointIndex="228" originalElevation="317.0" isOriginalElevationFromOSM="false" isAnchor="false"><ele>313.1</ele></trkpt>
<trkpt lat="33.333190" lon="126.659340" sectionIndex="0" pointIndex="229" originalElevation="317.0" isOriginalElevationFromOSM="false" isAnchor="false"><ele>313.1</ele></trkpt>
<trkpt lat="33.333150" lon="126.659370" sectionIndex="0" pointIndex="230" originalElevation="317.0" isOriginalElevationFromOSM="false" isAnchor="false"><ele>313.0</ele></trkpt>
<trkpt lat="33.333140" lon="126.659470" sectionIndex="0" pointIndex="231" originalElevation="312.0" isOriginalElevationFromOSM="false" isAnchor="false"><ele>312.9</ele></trkpt>
<trkpt lat="33.333100" lon="126.659560" sectionIndex="0" pointIndex="232" originalElevation="312.0" isOriginalElevationFromOSM="false" isAnchor="false"><ele>312.6</ele></trkpt>
<trkpt lat="33.333100" lon="126.659560" sectionIndex="0" pointIndex="233" originalElevation="312.0" isOriginalElevationFromOSM="false" isAnchor="false"><ele>312.3</ele></trkpt>
<trkpt lat="33.333080" lon="126.659680" sectionIndex="0" pointIndex="234" originalElevation="312.0" isOriginalElevationFromOSM="false" isAnchor="false"><ele>311.9</ele></trkpt>
<trkpt lat="33.333080" lon="126.659840" sectionIndex="0" pointIndex="235" originalElevation="312.0" isOriginalElevationFromOSM="false" isAnchor="false"><ele>311.5</ele></trkpt>
<trkpt lat="33.333120" lon="126.660000" sectionIndex="0" pointIndex="236" originalElevation="312.0" isOriginalElevationFromOSM="false" isAnchor="false"><ele>311.1</ele></trkpt>
<trkpt lat="33.333150" lon="126.660080" sectionIndex="0" pointIndex="237" originalElevation="312.0" isOriginalElevationFromOSM="false" isAnchor="false"><ele>310.5</ele></trkpt>
<trkpt lat="33.333150" lon="126.660170" sectionIndex="0" pointIndex="238" originalElevation="312.0" isOriginalElevationFromOSM="false" isAnchor="false"><ele>310.0</ele></trkpt>
<trkpt lat="33.333140" lon="126.660250" sectionIndex="0" pointIndex="239" originalElevation="312.0" isOriginalElevationFromOSM="false" isAnchor="false"><ele>309.5</ele></trkpt>
<trkpt lat="33.333180" lon="126.660460" sectionIndex="0" pointIndex="240" originalElevation="306.0" isOriginalElevationFromOSM="false" isAnchor="false"><ele>309.0</ele></trkpt>
<trkpt lat="33.333240" lon="126.660610" sectionIndex="0" pointIndex="241" originalElevation="306.0" isOriginalElevationFromOSM="false" isAnchor="false"><ele>308.5</ele></trkpt>
<trkpt lat="33.333230" lon="126.660680" sectionIndex="0" pointIndex="242" originalElevation="306.0" isOriginalElevationFromOSM="false" isAnchor="false"><ele>308.0</ele></trkpt>
<trkpt lat="33.333250" lon="126.660760" sectionIndex="0" pointIndex="243" originalElevation="306.0" isOriginalElevationFromOSM="false" isAnchor="false"><ele>307.6</ele></trkpt>
<trkpt lat="33.333270" lon="126.660840" sectionIndex="0" pointIndex="244" originalElevation="306.0" isOriginalElevationFromOSM="false" isAnchor="false"><ele>307.2</ele></trkpt>
<trkpt lat="33.333390" lon="126.660990" sectionIndex="0" pointIndex="245" originalElevation="306.0" isOriginalElevationFromOSM="false" isAnchor="false"><ele>306.8</ele></trkpt>
<trkpt lat="33.333440" lon="126.661090" sectionIndex="0" pointIndex="246" originalElevation="306.0" isOriginalElevationFromOSM="false" isAnchor="false"><ele>306.4</ele></trkpt>
<trkpt lat="33.333500" lon="126.661190" sectionIndex="0" pointIndex="247" originalElevation="304.0" isOriginalElevationFromOSM="false" isAnchor="false"><ele>306.1</ele></trkpt>
<trkpt lat="33.333550" lon="126.661430" sectionIndex="0" pointIndex="248" originalElevation="304.0" isOriginalElevationFromOSM="false" isAnchor="false"><ele>305.8</ele></trkpt>
<trkpt lat="33.333580" lon="126.661490" sectionIndex="0" pointIndex="249" originalElevation="304.0" isOriginalElevationFromOSM="false" isAnchor="false"><ele>305.5</ele></trkpt>
<trkpt lat="33.333660" lon="126.661590" sectionIndex="0" pointIndex="250" originalElevation="304.0" isOriginalElevationFromOSM="false" isAnchor="false"><ele>305.2</ele></trkpt>
<trkpt lat="33.333700" lon="126.661720" sectionIndex="0" pointIndex="251" originalElevation="304.0" isOriginalElevationFromOSM="false" isAnchor="false"><ele>304.9</ele></trkpt>
<trkpt lat="33.333780" lon="126.661760" sectionIndex="0" pointIndex="252" originalElevation="304.0" isOriginalElevationFromOSM="false" isAnchor="false"><ele>304.5</ele></trkpt>
<trkpt lat="33.333830" lon="126.661810" sectionIndex="0" pointIndex="253" originalElevation="304.0" isOriginalElevationFromOSM="false" isAnchor="false"><ele>304.2</ele></trkpt>
<trkpt lat="33.333900" lon="126.662150" sectionIndex="0" pointIndex="254" originalElevation="307.0" isOriginalElevationFromOSM="false" isAnchor="false"><ele>303.8</ele></trkpt>
<trkpt lat="33.333930" lon="126.662270" sectionIndex="0" pointIndex="255" originalElevation="307.0" isOriginalElevationFromOSM="false" isAnchor="false"><ele>303.5</ele></trkpt>
<trkpt lat="33.333990" lon="126.662390" sectionIndex="0" pointIndex="256" originalElevation="307.0" isOriginalElevationFromOSM="false" isAnchor="false"><ele>303.0</ele></trkpt>
<trkpt lat="33.334010" lon="126.662500" sectionIndex="0" pointIndex="257" originalElevation="307.0" isOriginalElevationFromOSM="false" isAnchor="false"><ele>302.5</ele></trkpt>
<trkpt lat="33.333970" lon="126.662590" sectionIndex="0" pointIndex="258" originalElevation="307.0" isOriginalElevationFromOSM="false" isAnchor="false"><ele>301.9</ele></trkpt>
<trkpt lat="33.333900" lon="126.662710" sectionIndex="0" pointIndex="259" originalElevation="307.0" isOriginalElevationFromOSM="false" isAnchor="false"><ele>301.2</ele></trkpt>
<trkpt lat="33.333850" lon="126.662790" sectionIndex="0" pointIndex="260" originalElevation="298.0" isOriginalElevationFromOSM="false" isAnchor="false"><ele>300.5</ele></trkpt>
<trkpt lat="33.333810" lon="126.662900" sectionIndex="0" pointIndex="261" originalElevation="298.0" isOriginalElevationFromOSM="false" isAnchor="false"><ele>299.7</ele></trkpt>
<trkpt lat="33.333800" lon="126.662990" sectionIndex="0" pointIndex="262" originalElevation="298.0" isOriginalElevationFromOSM="false" isAnchor="false"><ele>298.8</ele></trkpt>
<trkpt lat="33.333760" lon="126.663080" sectionIndex="0" pointIndex="263" originalElevation="298.0" isOriginalElevationFromOSM="false" isAnchor="false"><ele>297.9</ele></trkpt>
<trkpt lat="33.333630" lon="126.663200" sectionIndex="0" pointIndex="264" originalElevation="298.0" isOriginalElevationFromOSM="false" isAnchor="false"><ele>296.8</ele></trkpt>
<trkpt lat="33.333550" lon="126.663240" sectionIndex="0" pointIndex="265" originalElevation="298.0" isOriginalElevationFromOSM="false" isAnchor="false"><ele>295.7</ele></trkpt>
<trkpt lat="33.333360" lon="126.663380" sectionIndex="0" pointIndex="266" originalElevation="298.0" isOriginalElevationFromOSM="false" isAnchor="false"><ele>294.6</ele></trkpt>
<trkpt lat="33.333210" lon="126.663670" sectionIndex="0" pointIndex="267" originalElevation="295.0" isOriginalElevationFromOSM="false" isAnchor="false"><ele>293.3</ele></trkpt>
<trkpt lat="33.333220" lon="126.663760" sectionIndex="0" pointIndex="268" originalElevation="295.0" isOriginalElevationFromOSM="false" isAnchor="false"><ele>292.1</ele></trkpt>
<trkpt lat="33.333220" lon="126.663850" sectionIndex="0" pointIndex="269" originalElevation="295.0" isOriginalElevationFromOSM="false" isAnchor="false"><ele>290.7</ele></trkpt>
<trkpt lat="33.333180" lon="126.663960" sectionIndex="0" pointIndex="270" originalElevation="295.0" isOriginalElevationFromOSM="false" isAnchor="false"><ele>289.3</ele></trkpt>
<trkpt lat="33.333040" lon="126.664160" sectionIndex="0" pointIndex="271" originalElevation="284.0" isOriginalElevationFromOSM="false" isAnchor="false"><ele>287.9</ele></trkpt>
<trkpt lat="33.332900" lon="126.664320" sectionIndex="0" pointIndex="272" originalElevation="284.0" isOriginalElevationFromOSM="false" isAnchor="false"><ele>286.4</ele></trkpt>
<trkpt lat="33.332780" lon="126.664480" sectionIndex="0" pointIndex="273" originalElevation="284.0" isOriginalElevationFromOSM="false" isAnchor="false"><ele>285.0</ele></trkpt>
<trkpt lat="33.332760" lon="126.664600" sectionIndex="0" pointIndex="274" originalElevation="284.0" isOriginalElevationFromOSM="false" isAnchor="false"><ele>283.5</ele></trkpt>
<trkpt lat="33.332700" lon="126.664780" sectionIndex="0" pointIndex="275" originalElevation="284.0" isOriginalElevationFromOSM="false" isAnchor="false"><ele>282.1</ele></trkpt>
<trkpt lat="33.332590" lon="126.664860" sectionIndex="0" pointIndex="276" originalElevation="284.0" isOriginalElevationFromOSM="false" isAnchor="false"><ele>280.8</ele></trkpt>
<trkpt lat="33.332180" lon="126.664920" sectionIndex="0" pointIndex="277" originalElevation="274.0" isOriginalElevationFromOSM="false" isAnchor="false"><ele>279.5</ele></trkpt>
<trkpt lat="33.332020" lon="126.664920" sectionIndex="0" pointIndex="278" originalElevation="274.0" isOriginalElevationFromOSM="false" isAnchor="false"><ele>278.3</ele></trkpt>
<trkpt lat="33.331830" lon="126.665000" sectionIndex="0" pointIndex="279" originalElevation="274.0" isOriginalElevationFromOSM="false" isAnchor="false"><ele>277.1</ele></trkpt>
<trkpt lat="33.331710" lon="126.665080" sectionIndex="0" pointIndex="280" originalElevation="274.0" isOriginalElevationFromOSM="false" isAnchor="false"><ele>276.0</ele></trkpt>
<trkpt lat="33.331660" lon="126.665200" sectionIndex="0" pointIndex="281" originalElevation="274.0" isOriginalElevationFromOSM="false" isAnchor="false"><ele>275.0</ele></trkpt>
<trkpt lat="33.331650" lon="126.665250" sectionIndex="0" pointIndex="282" originalElevation="270.5" isOriginalElevationFromOSM="false" isAnchor="false"><ele>274.1</ele></trkpt>
<trkpt lat="33.331650" lon="126.665250" sectionIndex="0" pointIndex="283" originalElevation="270.5" isOriginalElevationFromOSM="false" isAnchor="false"><ele>273.2</ele></trkpt>
<trkpt lat="33.331630" lon="126.665330" sectionIndex="0" pointIndex="284" originalElevation="267.0" isOriginalElevationFromOSM="false" isAnchor="false"><ele>272.5</ele></trkpt>
<trkpt lat="33.331630" lon="126.665410" sectionIndex="0" pointIndex="285" originalElevation="267.0" isOriginalElevationFromOSM="false" isAnchor="false"><ele>271.9</ele></trkpt>
<trkpt lat="33.331700" lon="126.665490" sectionIndex="0" pointIndex="286" originalElevation="267.0" isOriginalElevationFromOSM="false" isAnchor="false"><ele>271.4</ele></trkpt>
<trkpt lat="33.331770" lon="126.665590" sectionIndex="0" pointIndex="287" originalElevation="267.0" isOriginalElevationFromOSM="false" isAnchor="false"><ele>271.0</ele></trkpt>
<trkpt lat="33.331920" lon="126.665660" sectionIndex="0" pointIndex="288" originalElevation="267.0" isOriginalElevationFromOSM="false" isAnchor="false"><ele>270.7</ele></trkpt>
<trkpt lat="33.332050" lon="126.665700" sectionIndex="0" pointIndex="289" originalElevation="267.0" isOriginalElevationFromOSM="false" isAnchor="false"><ele>270.5</ele></trkpt>
<trkpt lat="33.332380" lon="126.665850" sectionIndex="0" pointIndex="290" originalElevation="274.0" isOriginalElevationFromOSM="false" isAnchor="false"><ele>270.3</ele></trkpt>
<trkpt lat="33.332460" lon="126.665910" sectionIndex="0" pointIndex="291" originalElevation="274.0" isOriginalElevationFromOSM="false" isAnchor="false"><ele>270.2</ele></trkpt>
<trkpt lat="33.332510" lon="126.665980" sectionIndex="0" pointIndex="292" originalElevation="274.0" isOriginalElevationFromOSM="false" isAnchor="false"><ele>270.2</ele></trkpt>
<trkpt lat="33.332550" lon="126.666120" sectionIndex="0" pointIndex="293" originalElevation="269.0" isOriginalElevationFromOSM="false" isAnchor="false"><ele>270.3</ele></trkpt>
<trkpt lat="33.332620" lon="126.666250" sectionIndex="0" pointIndex="294" originalElevation="269.0" isOriginalElevationFromOSM="false" isAnchor="false"><ele>270.4</ele></trkpt>
<trkpt lat="33.332730" lon="126.666350" sectionIndex="0" pointIndex="295" originalElevation="269.0" isOriginalElevationFromOSM="false" isAnchor="false"><ele>270.6</ele></trkpt>
<trkpt lat="33.332780" lon="126.666580" sectionIndex="0" pointIndex="296" originalElevation="269.0" isOriginalElevationFromOSM="false" isAnchor="false"><ele>270.9</ele></trkpt>
<trkpt lat="33.332840" lon="126.666760" sectionIndex="0" pointIndex="297" originalElevation="269.0" isOriginalElevationFromOSM="false" isAnchor="false"><ele>271.2</ele></trkpt>
<trkpt lat="33.332990" lon="126.667160" sectionIndex="0" pointIndex="298" originalElevation="266.0" isOriginalElevationFromOSM="false" isAnchor="false"><ele>271.5</ele></trkpt>
<trkpt lat="33.333130" lon="126.667400" sectionIndex="0" pointIndex="299" originalElevation="273.0" isOriginalElevationFromOSM="false" isAnchor="false"><ele>271.9</ele></trkpt>
<trkpt lat="33.333220" lon="126.667500" sectionIndex="0" pointIndex="300" originalElevation="273.0" isOriginalElevationFromOSM="false" isAnchor="false"><ele>272.4</ele></trkpt>
<trkpt lat="33.333530" lon="126.667900" sectionIndex="0" pointIndex="301" originalElevation="269.0" isOriginalElevationFromOSM="false" isAnchor="false"><ele>272.9</ele></trkpt>
<trkpt lat="33.333710" lon="126.668100" sectionIndex="0" pointIndex="302" originalElevation="269.0" isOriginalElevationFromOSM="false" isAnchor="false"><ele>273.4</ele></trkpt>
<trkpt lat="33.333810" lon="126.668250" sectionIndex="0" pointIndex="303" originalElevation="269.0" isOriginalElevationFromOSM="false" isAnchor="false"><ele>273.9</ele></trkpt>
<trkpt lat="33.333960" lon="126.668330" sectionIndex="0" pointIndex="304" originalElevation="277.0" isOriginalElevationFromOSM="false" isAnchor="false"><ele>274.5</ele></trkpt>
<trkpt lat="33.334050" lon="126.668350" sectionIndex="0" pointIndex="305" originalElevation="277.0" isOriginalElevationFromOSM="false" isAnchor="false"><ele>275.1</ele></trkpt>
<trkpt lat="33.334130" lon="126.668330" sectionIndex="0" pointIndex="306" originalElevation="277.0" isOriginalElevationFromOSM="false" isAnchor="false"><ele>275.6</ele></trkpt>
<trkpt lat="33.334180" lon="126.668200" sectionIndex="0" pointIndex="307" originalElevation="277.0" isOriginalElevationFromOSM="false" isAnchor="false"><ele>276.2</ele></trkpt>
<trkpt lat="33.334190" lon="126.668100" sectionIndex="0" pointIndex="308" originalElevation="277.0" isOriginalElevationFromOSM="false" isAnchor="false"><ele>276.8</ele></trkpt>
<trkpt lat="33.334150" lon="126.667940" sectionIndex="0" pointIndex="309" originalElevation="277.0" isOriginalElevationFromOSM="false" isAnchor="false"><ele>277.3</ele></trkpt>
<trkpt lat="33.334100" lon="126.667680" sectionIndex="0" pointIndex="310" originalElevation="279.5" isOriginalElevationFromOSM="false" isAnchor="false"><ele>277.9</ele></trkpt>
<trkpt lat="33.334100" lon="126.667680" sectionIndex="0" pointIndex="311" originalElevation="279.5" isOriginalElevationFromOSM="false" isAnchor="false"><ele>278.4</ele></trkpt>
<trkpt lat="33.334090" lon="126.667630" sectionIndex="0" pointIndex="312" originalElevation="282.0" isOriginalElevationFromOSM="false" isAnchor="false"><ele>279.0</ele></trkpt>
<trkpt lat="33.334140" lon="126.667580" sectionIndex="0" pointIndex="313" originalElevation="282.0" isOriginalElevationFromOSM="false" isAnchor="false"><ele>279.5</ele></trkpt>
<trkpt lat="33.334210" lon="126.667540" sectionIndex="0" pointIndex="314" originalElevation="282.0" isOriginalElevationFromOSM="false" isAnchor="false"><ele>280.0</ele></trkpt>
<trkpt lat="33.334340" lon="126.667630" sectionIndex="0" pointIndex="315" originalElevation="282.0" isOriginalElevationFromOSM="false" isAnchor="false"><ele>280.5</ele></trkpt>
<trkpt lat="33.334400" lon="126.667640" sectionIndex="0" pointIndex="316" originalElevation="282.0" isOriginalElevationFromOSM="false" isAnchor="false"><ele>280.9</ele></trkpt>
<trkpt lat="33.334490" lon="126.667770" sectionIndex="0" pointIndex="317" originalElevation="282.0" isOriginalElevationFromOSM="false" isAnchor="false"><ele>281.4</ele></trkpt>
<trkpt lat="33.334560" lon="126.667820" sectionIndex="0" pointIndex="318" originalElevation="277.0" isOriginalElevationFromOSM="false" isAnchor="false"><ele>281.8</ele></trkpt>
<trkpt lat="33.334730" lon="126.667800" sectionIndex="0" pointIndex="319" originalElevation="282.0" isOriginalElevationFromOSM="false" isAnchor="false"><ele>282.3</ele></trkpt>
<trkpt lat="33.334870" lon="126.667880" sectionIndex="0" pointIndex="320" originalElevation="282.0" isOriginalElevationFromOSM="false" isAnchor="false"><ele>282.6</ele></trkpt>
<trkpt lat="33.334980" lon="126.667940" sectionIndex="0" pointIndex="321" originalElevation="282.0" isOriginalElevationFromOSM="false" isAnchor="false"><ele>283.0</ele></trkpt>
<trkpt lat="33.335080" lon="126.667880" sectionIndex="0" pointIndex="322" originalElevation="282.0" isOriginalElevationFromOSM="false" isAnchor="false"><ele>283.4</ele></trkpt>
<trkpt lat="33.335190" lon="126.667840" sectionIndex="0" pointIndex="323" originalElevation="282.0" isOriginalElevationFromOSM="false" isAnchor="false"><ele>283.8</ele></trkpt>
<trkpt lat="33.335290" lon="126.667820" sectionIndex="0" pointIndex="324" originalElevation="282.0" isOriginalElevationFromOSM="false" isAnchor="false"><ele>284.2</ele></trkpt>
<trkpt lat="33.335360" lon="126.667820" sectionIndex="0" pointIndex="325" originalElevation="282.0" isOriginalElevationFromOSM="false" isAnchor="false"><ele>284.6</ele></trkpt>
<trkpt lat="33.335470" lon="126.667750" sectionIndex="0" pointIndex="326" originalElevation="287.0" isOriginalElevationFromOSM="false" isAnchor="false"><ele>285.0</ele></trkpt>
<trkpt lat="33.335500" lon="126.667670" sectionIndex="0" pointIndex="327" originalElevation="287.0" isOriginalElevationFromOSM="false" isAnchor="false"><ele>285.4</ele></trkpt>
<trkpt lat="33.335560" lon="126.667660" sectionIndex="0" pointIndex="328" originalElevation="290.0" isOriginalElevationFromOSM="false" isAnchor="false"><ele>285.7</ele></trkpt>
<trkpt lat="33.335640" lon="126.667600" sectionIndex="0" pointIndex="329" originalElevation="290.0" isOriginalElevationFromOSM="false" isAnchor="false"><ele>286.1</ele></trkpt>
<trkpt lat="33.335650" lon="126.667620" sectionIndex="0" pointIndex="330" originalElevation="290.0" isOriginalElevationFromOSM="false" isAnchor="false"><ele>286.4</ele></trkpt>
<trkpt lat="33.335650" lon="126.667620" sectionIndex="0" pointIndex="331" originalElevation="287.0" isOriginalElevationFromOSM="false" isAnchor="false"><ele>286.7</ele></trkpt>
<trkpt lat="33.335673" lon="126.667666" sectionIndex="0" pointIndex="332" originalElevation="287.0" isOriginalElevationFromOSM="false" isAnchor="false"><ele>287.0</ele></trkpt>
<trkpt lat="33.335697" lon="126.667712" sectionIndex="0" pointIndex="333" originalElevation="287.0" isOriginalElevationFromOSM="false" isAnchor="false"><ele>287.3</ele></trkpt>
<trkpt lat="33.335720" lon="126.667758" sectionIndex="0" pointIndex="334" originalElevation="287.0" isOriginalElevationFromOSM="false" isAnchor="false"><ele>287.6</ele></trkpt>
<trkpt lat="33.335743" lon="126.667804" sectionIndex="0" pointIndex="335" originalElevation="287.0" isOriginalElevationFromOSM="false" isAnchor="false"><ele>287.8</ele></trkpt>
<trkpt lat="33.335767" lon="126.667850" sectionIndex="0" pointIndex="336" originalElevation="287.0" isOriginalElevationFromOSM="false" isAnchor="false"><ele>287.9</ele></trkpt>
<trkpt lat="33.335790" lon="126.667896" sectionIndex="0" pointIndex="337" originalElevation="287.0" isOriginalElevationFromOSM="false" isAnchor="false"><ele>288.1</ele></trkpt>
<trkpt lat="33.335813" lon="126.667942" sectionIndex="0" pointIndex="338" originalElevation="287.0" isOriginalElevationFromOSM="false" isAnchor="false"><ele>288.2</ele></trkpt>
<trkpt lat="33.335837" lon="126.667988" sectionIndex="0" pointIndex="339" originalElevation="290.0" isOriginalElevationFromOSM="false" isAnchor="false"><ele>288.3</ele></trkpt>
<trkpt lat="33.335860" lon="126.668034" sectionIndex="0" pointIndex="340" originalElevation="290.0" isOriginalElevationFromOSM="false" isAnchor="false"><ele>288.3</ele></trkpt>
<trkpt lat="33.335884" lon="126.668080" sectionIndex="0" pointIndex="341" originalElevation="290.0" isOriginalElevationFromOSM="false" isAnchor="false"><ele>288.3</ele></trkpt>
<trkpt lat="33.335886" lon="126.668085" sectionIndex="0" pointIndex="342" originalElevation="290.0" isOriginalElevationFromOSM="false" isAnchor="false"><ele>288.3</ele></trkpt>
<trkpt lat="33.335886" lon="126.668085" sectionIndex="0" pointIndex="343" originalElevation="290.0" isOriginalElevationFromOSM="false" isAnchor="false"><ele>288.2</ele></trkpt>
<trkpt lat="33.335914" lon="126.668128" sectionIndex="0" pointIndex="344" originalElevation="290.0" isOriginalElevationFromOSM="false" isAnchor="false"><ele>288.1</ele></trkpt>
<trkpt lat="33.335941" lon="126.668170" sectionIndex="0" pointIndex="345" originalElevation="290.0" isOriginalElevationFromOSM="false" isAnchor="false"><ele>287.9</ele></trkpt>
<trkpt lat="33.335969" lon="126.668213" sectionIndex="0" pointIndex="346" originalElevation="290.0" isOriginalElevationFromOSM="false" isAnchor="false"><ele>287.7</ele></trkpt>
<trkpt lat="33.335997" lon="126.668255" sectionIndex="0" pointIndex="347" originalElevation="290.0" isOriginalElevationFromOSM="false" isAnchor="false"><ele>287.6</ele></trkpt>
<trkpt lat="33.336024" lon="126.668298" sectionIndex="0" pointIndex="348" originalElevation="290.0" isOriginalElevationFromOSM="false" isAnchor="false"><ele>287.4</ele></trkpt>
<trkpt lat="33.336052" lon="126.668340" sectionIndex="0" pointIndex="349" originalElevation="285.0" isOriginalElevationFromOSM="false" isAnchor="false"><ele>287.2</ele></trkpt>
<trkpt lat="33.336079" lon="126.668383" sectionIndex="0" pointIndex="350" originalElevation="285.0" isOriginalElevationFromOSM="false" isAnchor="false"><ele>287.0</ele></trkpt>
<trkpt lat="33.336107" lon="126.668425" sectionIndex="0" pointIndex="351" originalElevation="285.0" isOriginalElevationFromOSM="false" isAnchor="false"><ele>286.7</ele></trkpt>
<trkpt lat="33.336134" lon="126.668468" sectionIndex="0" pointIndex="352" originalElevation="285.0" isOriginalElevationFromOSM="false" isAnchor="false"><ele>286.5</ele></trkpt>
<trkpt lat="33.336162" lon="126.668511" sectionIndex="0" pointIndex="353" originalElevation="285.0" isOriginalElevationFromOSM="false" isAnchor="false"><ele>286.3</ele></trkpt>
<trkpt lat="33.336189" lon="126.668553" sectionIndex="0" pointIndex="354" originalElevation="285.0" isOriginalElevationFromOSM="false" isAnchor="false"><ele>286.1</ele></trkpt>
<trkpt lat="33.336217" lon="126.668596" sectionIndex="0" pointIndex="355" originalElevation="285.0" isOriginalElevationFromOSM="false" isAnchor="false"><ele>285.9</ele></trkpt>
<trkpt lat="33.336245" lon="126.668638" sectionIndex="0" pointIndex="356" originalElevation="285.0" isOriginalElevationFromOSM="false" isAnchor="false"><ele>285.7</ele></trkpt>
<trkpt lat="33.336272" lon="126.668681" sectionIndex="0" pointIndex="357" originalElevation="285.0" isOriginalElevationFromOSM="false" isAnchor="false"><ele>285.6</ele></trkpt>
<trkpt lat="33.336289" lon="126.668707" sectionIndex="0" pointIndex="358" originalElevation="285.0" isOriginalElevationFromOSM="false" isAnchor="false"><ele>285.5</ele></trkpt>
<trkpt lat="33.336289" lon="126.668707" sectionIndex="0" pointIndex="359" originalElevation="285.0" isOriginalElevationFromOSM="false" isAnchor="false"><ele>285.4</ele></trkpt>
<trkpt lat="33.336315" lon="126.668750" sectionIndex="0" pointIndex="360" originalElevation="285.0" isOriginalElevationFromOSM="false" isAnchor="false"><ele>285.3</ele></trkpt>
<trkpt lat="33.336342" lon="126.668794" sectionIndex="0" pointIndex="361" originalElevation="285.0" isOriginalElevationFromOSM="false" isAnchor="false"><ele>285.3</ele></trkpt>
<trkpt lat="33.336368" lon="126.668838" sectionIndex="0" pointIndex="362" originalElevation="285.0" isOriginalElevationFromOSM="false" isAnchor="false"><ele>285.3</ele></trkpt>
<trkpt lat="33.336394" lon="126.668881" sectionIndex="0" pointIndex="363" originalElevation="285.0" isOriginalElevationFromOSM="false" isAnchor="false"><ele>285.3</ele></trkpt>
<trkpt lat="33.336402" lon="126.668894" sectionIndex="0" pointIndex="364" originalElevation="285.0" isOriginalElevationFromOSM="false" isAnchor="false"><ele>285.3</ele></trkpt>
<trkpt lat="33.336402" lon="126.668894" sectionIndex="0" pointIndex="365" originalElevation="285.0" isOriginalElevationFromOSM="false" isAnchor="false"><ele>285.4</ele></trkpt>
<trkpt lat="33.336438" lon="126.668927" sectionIndex="0" pointIndex="366" originalElevation="285.0" isOriginalElevationFromOSM="false" isAnchor="false"><ele>285.5</ele></trkpt>
<trkpt lat="33.336474" lon="126.668959" sectionIndex="0" pointIndex="367" originalElevation="285.0" isOriginalElevationFromOSM="false" isAnchor="false"><ele>285.6</ele></trkpt>
<trkpt lat="33.336510" lon="126.668992" sectionIndex="0" pointIndex="368" originalElevation="285.0" isOriginalElevationFromOSM="false" isAnchor="false"><ele>285.7</ele></trkpt>
<trkpt lat="33.336546" lon="126.669024" sectionIndex="0" pointIndex="369" originalElevation="285.0" isOriginalElevationFromOSM="false" isAnchor="false"><ele>285.8</ele></trkpt>
<trkpt lat="33.336582" lon="126.669057" sectionIndex="0" pointIndex="370" originalElevation="285.0" isOriginalElevationFromOSM="false" isAnchor="false"><ele>285.9</ele></trkpt>
<trkpt lat="33.336618" lon="126.669089" sectionIndex="0" pointIndex="371" originalElevation="285.0" isOriginalElevationFromOSM="false" isAnchor="false"><ele>286.0</ele></trkpt>
<trkpt lat="33.336653" lon="126.669122" sectionIndex="0" pointIndex="372" originalElevation="285.0" isOriginalElevationFromOSM="false" isAnchor="false"><ele>286.1</ele></trkpt>
<trkpt lat="33.336689" lon="126.669154" sectionIndex="0" pointIndex="373" originalElevation="290.0" isOriginalElevationFromOSM="false" isAnchor="false"><ele>286.2</ele></trkpt>
<trkpt lat="33.336710" lon="126.669172" sectionIndex="0" pointIndex="374" originalElevation="287.0" isOriginalElevationFromOSM="false" isAnchor="false"><ele>286.3</ele></trkpt>
<trkpt lat="33.336710" lon="126.669172" sectionIndex="0" pointIndex="375" originalElevation="287.0" isOriginalElevationFromOSM="false" isAnchor="false"><ele>286.4</ele></trkpt>
<trkpt lat="33.336749" lon="126.669199" sectionIndex="0" pointIndex="376" originalElevation="287.0" isOriginalElevationFromOSM="false" isAnchor="false"><ele>286.5</ele></trkpt>
<trkpt lat="33.336787" lon="126.669227" sectionIndex="0" pointIndex="377" originalElevation="287.0" isOriginalElevationFromOSM="false" isAnchor="false"><ele>286.6</ele></trkpt>
<trkpt lat="33.336826" lon="126.669254" sectionIndex="0" pointIndex="378" originalElevation="287.0" isOriginalElevationFromOSM="false" isAnchor="false"><ele>286.7</ele></trkpt>
<trkpt lat="33.336865" lon="126.669281" sectionIndex="0" pointIndex="379" originalElevation="287.0" isOriginalElevationFromOSM="false" isAnchor="false"><ele>286.8</ele></trkpt>
<trkpt lat="33.336904" lon="126.669308" sectionIndex="0" pointIndex="380" originalElevation="287.0" isOriginalElevationFromOSM="false" isAnchor="false"><ele>286.8</ele></trkpt>
<trkpt lat="33.336943" lon="126.669335" sectionIndex="0" pointIndex="381" originalElevation="287.0" isOriginalElevationFromOSM="false" isAnchor="false"><ele>286.9</ele></trkpt>
<trkpt lat="33.336982" lon="126.669362" sectionIndex="0" pointIndex="382" originalElevation="287.0" isOriginalElevationFromOSM="false" isAnchor="false"><ele>286.9</ele></trkpt>
<trkpt lat="33.337021" lon="126.669389" sectionIndex="0" pointIndex="383" originalElevation="287.0" isOriginalElevationFromOSM="false" isAnchor="false"><ele>287.0</ele></trkpt>
<trkpt lat="33.337060" lon="126.669416" sectionIndex="0" pointIndex="384" originalElevation="287.0" isOriginalElevationFromOSM="false" isAnchor="false"><ele>287.1</ele></trkpt>
<trkpt lat="33.337098" lon="126.669443" sectionIndex="0" pointIndex="385" originalElevation="287.0" isOriginalElevationFromOSM="false" isAnchor="false"><ele>287.2</ele></trkpt>
<trkpt lat="33.337137" lon="126.669470" sectionIndex="0" pointIndex="386" originalElevation="287.0" isOriginalElevationFromOSM="false" isAnchor="false"><ele>287.3</ele></trkpt>
<trkpt lat="33.337176" lon="126.669497" sectionIndex="0" pointIndex="387" originalElevation="287.0" isOriginalElevationFromOSM="false" isAnchor="false"><ele>287.4</ele></trkpt>
<trkpt lat="33.337215" lon="126.669524" sectionIndex="0" pointIndex="388" originalElevation="287.0" isOriginalElevationFromOSM="false" isAnchor="false"><ele>287.6</ele></trkpt>
<trkpt lat="33.337247" lon="126.669546" sectionIndex="0" pointIndex="389" originalElevation="287.0" isOriginalElevationFromOSM="false" isAnchor="false"><ele>287.7</ele></trkpt>
<trkpt lat="33.337247" lon="126.669546" sectionIndex="0" pointIndex="390" originalElevation="287.0" isOriginalElevationFromOSM="false" isAnchor="false"><ele>287.9</ele></trkpt>
<trkpt lat="33.337286" lon="126.669574" sectionIndex="0" pointIndex="391" originalElevation="287.0" isOriginalElevationFromOSM="false" isAnchor="false"><ele>288.1</ele></trkpt>
<trkpt lat="33.337324" lon="126.669602" sectionIndex="0" pointIndex="392" originalElevation="287.0" isOriginalElevationFromOSM="false" isAnchor="false"><ele>288.3</ele></trkpt>
<trkpt lat="33.337363" lon="126.669630" sectionIndex="0" pointIndex="393" originalElevation="287.0" isOriginalElevationFromOSM="false" isAnchor="false"><ele>288.5</ele></trkpt>
<trkpt lat="33.337401" lon="126.669658" sectionIndex="0" pointIndex="394" originalElevation="287.0" isOriginalElevationFromOSM="false" isAnchor="false"><ele>288.7</ele></trkpt>
<trkpt lat="33.337439" lon="126.669686" sectionIndex="0" pointIndex="395" originalElevation="287.0" isOriginalElevationFromOSM="false" isAnchor="false"><ele>288.9</ele></trkpt>
<trkpt lat="33.337478" lon="126.669714" sectionIndex="0" pointIndex="396" originalElevation="287.0" isOriginalElevationFromOSM="false" isAnchor="false"><ele>289.0</ele></trkpt>
<trkpt lat="33.337516" lon="126.669741" sectionIndex="0" pointIndex="397" originalElevation="292.0" isOriginalElevationFromOSM="false" isAnchor="false"><ele>289.2</ele></trkpt>
<trkpt lat="33.337555" lon="126.669769" sectionIndex="0" pointIndex="398" originalElevation="292.0" isOriginalElevationFromOSM="false" isAnchor="false"><ele>289.3</ele></trkpt>
<trkpt lat="33.337593" lon="126.669797" sectionIndex="0" pointIndex="399" originalElevation="292.0" isOriginalElevationFromOSM="false" isAnchor="false"><ele>289.5</ele></trkpt>
<trkpt lat="33.337632" lon="126.669825" sectionIndex="0" pointIndex="400" originalElevation="292.0" isOriginalElevationFromOSM="false" isAnchor="false"><ele>289.5</ele></trkpt>
<trkpt lat="33.337670" lon="126.669853" sectionIndex="0" pointIndex="401" originalElevation="292.0" isOriginalElevationFromOSM="false" isAnchor="false"><ele>289.6</ele></trkpt>
<trkpt lat="33.337690" lon="126.669867" sectionIndex="0" pointIndex="402" originalElevation="292.0" isOriginalElevationFromOSM="false" isAnchor="false"><ele>289.6</ele></trkpt>
<trkpt lat="33.337690" lon="126.669867" sectionIndex="0" pointIndex="403" originalElevation="292.0" isOriginalElevationFromOSM="false" isAnchor="false"><ele>289.5</ele></trkpt>
<trkpt lat="33.337721" lon="126.669905" sectionIndex="0" pointIndex="404" originalElevation="292.0" isOriginalElevationFromOSM="false" isAnchor="false"><ele>289.5</ele></trkpt>
<trkpt lat="33.337753" lon="126.669944" sectionIndex="0" pointIndex="405" originalElevation="292.0" isOriginalElevationFromOSM="false" isAnchor="false"><ele>289.3</ele></trkpt>
<trkpt lat="33.337785" lon="126.669982" sectionIndex="0" pointIndex="406" originalElevation="292.0" isOriginalElevationFromOSM="false" isAnchor="false"><ele>289.2</ele></trkpt>
<trkpt lat="33.337816" lon="126.670020" sectionIndex="0" pointIndex="407" originalElevation="287.0" isOriginalElevationFromOSM="false" isAnchor="false"><ele>289.0</ele></trkpt>
<trkpt lat="33.337848" lon="126.670058" sectionIndex="0" pointIndex="408" originalElevation="287.0" isOriginalElevationFromOSM="false" isAnchor="false"><ele>288.9</ele></trkpt>
<trkpt lat="33.337879" lon="126.670097" sectionIndex="0" pointIndex="409" originalElevation="287.0" isOriginalElevationFromOSM="false" isAnchor="false"><ele>288.7</ele></trkpt>
<trkpt lat="33.337880" lon="126.670097" sectionIndex="0" pointIndex="410" originalElevation="287.0" isOriginalElevationFromOSM="false" isAnchor="false"><ele>288.6</ele></trkpt>
<trkpt lat="33.337880" lon="126.670097" sectionIndex="0" pointIndex="411" originalElevation="287.0" isOriginalElevationFromOSM="false" isAnchor="false"><ele>288.4</ele></trkpt>
<trkpt lat="33.337919" lon="126.670124" sectionIndex="0" pointIndex="412" originalElevation="287.0" isOriginalElevationFromOSM="false" isAnchor="false"><ele>288.3</ele></trkpt>
<trkpt lat="33.337957" lon="126.670152" sectionIndex="0" pointIndex="413" originalElevation="287.0" isOriginalElevationFromOSM="false" isAnchor="false"><ele>288.2</ele></trkpt>
<trkpt lat="33.337996" lon="126.670179" sectionIndex="0" pointIndex="414" originalElevation="287.0" isOriginalElevationFromOSM="false" isAnchor="false"><ele>288.2</ele></trkpt>
<trkpt lat="33.338002" lon="126.670183" sectionIndex="0" pointIndex="415" originalElevation="287.0" isOriginalElevationFromOSM="false" isAnchor="false"><ele>288.1</ele></trkpt>
<trkpt lat="33.338002" lon="126.670183" sectionIndex="0" pointIndex="416" originalElevation="287.0" isOriginalElevationFromOSM="false" isAnchor="false"><ele>288.2</ele></trkpt>
<trkpt lat="33.338047" lon="126.670182" sectionIndex="0" pointIndex="417" originalElevation="287.0" isOriginalElevationFromOSM="false" isAnchor="false"><ele>288.2</ele></trkpt>
<trkpt lat="33.338092" lon="126.670181" sectionIndex="0" pointIndex="418" originalElevation="287.0" isOriginalElevationFromOSM="false" isAnchor="false"><ele>288.3</ele></trkpt>
<trkpt lat="33.338137" lon="126.670181" sectionIndex="0" pointIndex="419" originalElevation="287.0" isOriginalElevationFromOSM="false" isAnchor="false"><ele>288.5</ele></trkpt>
<trkpt lat="33.338181" lon="126.670180" sectionIndex="0" pointIndex="420" originalElevation="287.0" isOriginalElevationFromOSM="false" isAnchor="false"><ele>288.7</ele></trkpt>
<trkpt lat="33.338226" lon="126.670179" sectionIndex="0" pointIndex="421" originalElevation="287.0" isOriginalElevationFromOSM="false" isAnchor="false"><ele>288.9</ele></trkpt>
<trkpt lat="33.338271" lon="126.670178" sectionIndex="0" pointIndex="422" originalElevation="287.0" isOriginalElevationFromOSM="false" isAnchor="false"><ele>289.1</ele></trkpt>
<trkpt lat="33.338316" lon="126.670178" sectionIndex="0" pointIndex="423" originalElevation="287.0" isOriginalElevationFromOSM="false" isAnchor="false"><ele>289.4</ele></trkpt>
<trkpt lat="33.338361" lon="126.670177" sectionIndex="0" pointIndex="424" originalElevation="292.0" isOriginalElevationFromOSM="false" isAnchor="false"><ele>289.6</ele></trkpt>
<trkpt lat="33.338406" lon="126.670176" sectionIndex="0" pointIndex="425" originalElevation="292.0" isOriginalElevationFromOSM="false" isAnchor="false"><ele>289.9</ele></trkpt>
<trkpt lat="33.338451" lon="126.670176" sectionIndex="0" pointIndex="426" originalElevation="292.0" isOriginalElevationFromOSM="false" isAnchor="false"><ele>290.2</ele></trkpt>
<trkpt lat="33.338461" lon="126.670176" sectionIndex="0" pointIndex="427" originalElevation="292.0" isOriginalElevationFromOSM="false" isAnchor="false"><ele>290.4</ele></trkpt>
<trkpt lat="33.338461" lon="126.670176" sectionIndex="0" pointIndex="428" originalElevation="292.0" isOriginalElevationFromOSM="false" isAnchor="false"><ele>290.7</ele></trkpt>
<trkpt lat="33.338506" lon="126.670178" sectionIndex="0" pointIndex="429" originalElevation="292.0" isOriginalElevationFromOSM="false" isAnchor="false"><ele>290.9</ele></trkpt>
<trkpt lat="33.338551" lon="126.670180" sectionIndex="0" pointIndex="430" originalElevation="292.0" isOriginalElevationFromOSM="false" isAnchor="false"><ele>291.1</ele></trkpt>
<trkpt lat="33.338596" lon="126.670182" sectionIndex="0" pointIndex="431" originalElevation="292.0" isOriginalElevationFromOSM="false" isAnchor="false"><ele>291.3</ele></trkpt>
<trkpt lat="33.338641" lon="126.670185" sectionIndex="0" pointIndex="432" originalElevation="292.0" isOriginalElevationFromOSM="false" isAnchor="false"><ele>291.4</ele></trkpt>
<trkpt lat="33.338686" lon="126.670187" sectionIndex="0" pointIndex="433" originalElevation="292.0" isOriginalElevationFromOSM="false" isAnchor="false"><ele>291.6</ele></trkpt>
<trkpt lat="33.338731" lon="126.670189" sectionIndex="0" pointIndex="434" originalElevation="292.0" isOriginalElevationFromOSM="false" isAnchor="false"><ele>291.7</ele></trkpt>
<trkpt lat="33.338737" lon="126.670189" sectionIndex="0" pointIndex="435" originalElevation="292.0" isOriginalElevationFromOSM="false" isAnchor="false"><ele>291.7</ele></trkpt>
<trkpt lat="33.338737" lon="126.670189" sectionIndex="0" pointIndex="436" originalElevation="292.0" isOriginalElevationFromOSM="false" isAnchor="false"><ele>291.7</ele></trkpt>
<trkpt lat="33.338781" lon="126.670197" sectionIndex="0" pointIndex="437" originalElevation="292.0" isOriginalElevationFromOSM="false" isAnchor="false"><ele>291.7</ele></trkpt>
<trkpt lat="33.338826" lon="126.670205" sectionIndex="0" pointIndex="438" originalElevation="292.0" isOriginalElevationFromOSM="false" isAnchor="false"><ele>291.7</ele></trkpt>
<trkpt lat="33.338870" lon="126.670214" sectionIndex="0" pointIndex="439" originalElevation="292.0" isOriginalElevationFromOSM="false" isAnchor="false"><ele>291.6</ele></trkpt>
<trkpt lat="33.338915" lon="126.670222" sectionIndex="0" pointIndex="440" originalElevation="292.0" isOriginalElevationFromOSM="false" isAnchor="false"><ele>291.5</ele></trkpt>
<trkpt lat="33.338959" lon="126.670230" sectionIndex="0" pointIndex="441" originalElevation="292.0" isOriginalElevationFromOSM="false" isAnchor="false"><ele>291.4</ele></trkpt>
<trkpt lat="33.338975" lon="126.670232" sectionIndex="0" pointIndex="442" originalElevation="292.0" isOriginalElevationFromOSM="false" isAnchor="false"><ele>291.2</ele></trkpt>
<trkpt lat="33.338975" lon="126.670232" sectionIndex="0" pointIndex="443" originalElevation="292.0" isOriginalElevationFromOSM="false" isAnchor="false"><ele>291.0</ele></trkpt>
<trkpt lat="33.339014" lon="126.670257" sectionIndex="0" pointIndex="444" originalElevation="292.0" isOriginalElevationFromOSM="false" isAnchor="false"><ele>290.7</ele></trkpt>
<trkpt lat="33.339054" lon="126.670282" sectionIndex="0" pointIndex="445" originalElevation="292.0" isOriginalElevationFromOSM="false" isAnchor="false"><ele>290.4</ele></trkpt>
<trkpt lat="33.339087" lon="126.670302" sectionIndex="0" pointIndex="446" originalElevation="292.0" isOriginalElevationFromOSM="false" isAnchor="false"><ele>290.1</ele></trkpt>
<trkpt lat="33.339080" lon="126.670290" sectionIndex="0" pointIndex="447" originalElevation="294.0" isOriginalElevationFromOSM="false" isAnchor="false"><ele>289.7</ele></trkpt>
<trkpt lat="33.338890" lon="126.670430" sectionIndex="0" pointIndex="448" originalElevation="292.0" isOriginalElevationFromOSM="false" isAnchor="false"><ele>289.3</ele></trkpt>
<trkpt lat="33.338760" lon="126.670480" sectionIndex="0" pointIndex="449" originalElevation="287.0" isOriginalElevationFromOSM="false" isAnchor="false"><ele>288.9</ele></trkpt>
<trkpt lat="33.338680" lon="126.670530" sectionIndex="0" pointIndex="450" originalElevation="287.0" isOriginalElevationFromOSM="false" isAnchor="false"><ele>288.5</ele></trkpt>
<trkpt lat="33.338590" lon="126.670570" sectionIndex="0" pointIndex="451" originalElevation="287.0" isOriginalElevationFromOSM="false" isAnchor="false"><ele>288.0</ele></trkpt>
<trkpt lat="33.338540" lon="126.670610" sectionIndex="0" pointIndex="452" originalElevation="287.0" isOriginalElevationFromOSM="false" isAnchor="false"><ele>287.6</ele></trkpt>
<trkpt lat="33.338470" lon="126.670710" sectionIndex="0" pointIndex="453" originalElevation="287.0" isOriginalElevationFromOSM="false" isAnchor="false"><ele>287.1</ele></trkpt>
<trkpt lat="33.338360" lon="126.670850" sectionIndex="0" pointIndex="454" originalElevation="287.0" isOriginalElevationFromOSM="false" isAnchor="false"><ele>286.6</ele></trkpt>
<trkpt lat="33.338290" lon="126.670890" sectionIndex="0" pointIndex="455" originalElevation="287.0" isOriginalElevationFromOSM="false" isAnchor="false"><ele>286.1</ele></trkpt>
<trkpt lat="33.338180" lon="126.670910" sectionIndex="0" pointIndex="456" originalElevation="287.0" isOriginalElevationFromOSM="false" isAnchor="false"><ele>285.5</ele></trkpt>
<trkpt lat="33.337940" lon="126.670990" sectionIndex="0" pointIndex="457" originalElevation="285.0" isOriginalElevationFromOSM="false" isAnchor="false"><ele>285.0</ele></trkpt>
<trkpt lat="33.337850" lon="126.671040" sectionIndex="0" pointIndex="458" originalElevation="285.0" isOriginalElevationFromOSM="false" isAnchor="false"><ele>284.5</ele></trkpt>
<trkpt lat="33.337730" lon="126.671110" sectionIndex="0" pointIndex="459" originalElevation="282.0" isOriginalElevationFromOSM="false" isAnchor="false"><ele>283.9</ele></trkpt>
<trkpt lat="33.337620" lon="126.671200" sectionIndex="0" pointIndex="460" originalElevation="282.0" isOriginalElevationFromOSM="false" isAnchor="false"><ele>283.4</ele></trkpt>
<trkpt lat="33.337550" lon="126.671290" sectionIndex="0" pointIndex="461" originalElevation="282.0" isOriginalElevationFromOSM="false" isAnchor="false"><ele>282.8</ele></trkpt>
<trkpt lat="33.337490" lon="126.671440" sectionIndex="0" pointIndex="462" originalElevation="282.0" isOriginalElevationFromOSM="false" isAnchor="false"><ele>282.2</ele></trkpt>
<trkpt lat="33.337460" lon="126.671480" sectionIndex="0" pointIndex="463" originalElevation="282.0" isOriginalElevationFromOSM="false" isAnchor="false"><ele>281.6</ele></trkpt>
<trkpt lat="33.337460" lon="126.671480" sectionIndex="0" pointIndex="464" originalElevation="282.0" isOriginalElevationFromOSM="false" isAnchor="false"><ele>281.0</ele></trkpt>
<trkpt lat="33.337190" lon="126.671780" sectionIndex="0" pointIndex="465" originalElevation="281.0" isOriginalElevationFromOSM="false" isAnchor="false"><ele>280.5</ele></trkpt>
<trkpt lat="33.337130" lon="126.671800" sectionIndex="0" pointIndex="466" originalElevation="281.0" isOriginalElevationFromOSM="false" isAnchor="false"><ele>279.9</ele></trkpt>
<trkpt lat="33.337020" lon="126.671830" sectionIndex="0" pointIndex="467" originalElevation="281.0" isOriginalElevationFromOSM="false" isAnchor="false"><ele>279.3</ele></trkpt>
<trkpt lat="33.336940" lon="126.671860" sectionIndex="0" pointIndex="468" originalElevation="281.0" isOriginalElevationFromOSM="false" isAnchor="false"><ele>278.7</ele></trkpt>
<trkpt lat="33.336770" lon="126.671940" sectionIndex="0" pointIndex="469" originalElevation="279.0" isOriginalElevationFromOSM="false" isAnchor="false"><ele>278.0</ele></trkpt>
<trkpt lat="33.336430" lon="126.672050" sectionIndex="0" pointIndex="470" originalElevation="279.0" isOriginalElevationFromOSM="false" isAnchor="false"><ele>277.4</ele></trkpt>
<trkpt lat="33.336120" lon="126.672120" sectionIndex="0" pointIndex="471" originalElevation="276.0" isOriginalElevationFromOSM="false" isAnchor="false"><ele>276.8</ele></trkpt>
<trkpt lat="33.335930" lon="126.672170" sectionIndex="0" pointIndex="472" originalElevation="276.0" isOriginalElevationFromOSM="false" isAnchor="false"><ele>276.2</ele></trkpt>
<trkpt lat="33.335430" lon="126.672460" sectionIndex="0" pointIndex="473" originalElevation="273.0" isOriginalElevationFromOSM="false" isAnchor="false"><ele>275.6</ele></trkpt>
<trkpt lat="33.335320" lon="126.672570" sectionIndex="0" pointIndex="474" originalElevation="273.0" isOriginalElevationFromOSM="false" isAnchor="false"><ele>275.0</ele></trkpt>
<trkpt lat="33.335250" lon="126.672630" sectionIndex="0" pointIndex="475" originalElevation="273.0" isOriginalElevationFromOSM="false" isAnchor="false"><ele>274.4</ele></trkpt>
<trkpt lat="33.335180" lon="126.672740" sectionIndex="0" pointIndex="476" originalElevation="273.0" isOriginalElevationFromOSM="false" isAnchor="false"><ele>273.9</ele></trkpt>
<trkpt lat="33.335180" lon="126.672740" sectionIndex="0" pointIndex="477" originalElevation="273.0" isOriginalElevationFromOSM="false" isAnchor="false"><ele>273.3</ele></trkpt>
<trkpt lat="33.335200" lon="126.672810" sectionIndex="0" pointIndex="478" originalElevation="271.0" isOriginalElevationFromOSM="false" isAnchor="false"><ele>272.8</ele></trkpt>
<trkpt lat="33.335270" lon="126.672930" sectionIndex="0" pointIndex="479" originalElevation="271.0" isOriginalElevationFromOSM="false" isAnchor="false"><ele>272.3</ele></trkpt>
<trkpt lat="33.335310" lon="126.673040" sectionIndex="0" pointIndex="480" originalElevation="271.0" isOriginalElevationFromOSM="false" isAnchor="false"><ele>271.8</ele></trkpt>
<trkpt lat="33.335320" lon="126.673140" sectionIndex="0" pointIndex="481" originalElevation="271.0" isOriginalElevationFromOSM="false" isAnchor="false"><ele>271.3</ele></trkpt>
<trkpt lat="33.335370" lon="126.673410" sectionIndex="0" pointIndex="482" originalElevation="271.0" isOriginalElevationFromOSM="false" isAnchor="false"><ele>270.8</ele></trkpt>
<trkpt lat="33.335360" lon="126.673410" sectionIndex="0" pointIndex="483" originalElevation="271.0" isOriginalElevationFromOSM="false" isAnchor="false"><ele>270.4</ele></trkpt>
<trkpt lat="33.335360" lon="126.673410" sectionIndex="0" pointIndex="484" originalElevation="271.0" isOriginalElevationFromOSM="false" isAnchor="false"><ele>269.9</ele></trkpt>
<trkpt lat="33.335230" lon="126.673480" sectionIndex="0" pointIndex="485" originalElevation="271.0" isOriginalElevationFromOSM="false" isAnchor="false"><ele>269.4</ele></trkpt>
<trkpt lat="33.335120" lon="126.673580" sectionIndex="0" pointIndex="486" originalElevation="271.0" isOriginalElevationFromOSM="false" isAnchor="false"><ele>268.9</ele></trkpt>
<trkpt lat="33.335050" lon="126.673670" sectionIndex="0" pointIndex="487" originalElevation="267.0" isOriginalElevationFromOSM="false" isAnchor="false"><ele>268.5</ele></trkpt>
<trkpt lat="33.334950" lon="126.673780" sectionIndex="0" pointIndex="488" originalElevation="267.0" isOriginalElevationFromOSM="false" isAnchor="false"><ele>268.0</ele></trkpt>
<trkpt lat="33.334860" lon="126.673840" sectionIndex="0" pointIndex="489" originalElevation="267.0" isOriginalElevationFromOSM="false" isAnchor="false"><ele>267.5</ele></trkpt>
<trkpt lat="33.334720" lon="126.673970" sectionIndex="0" pointIndex="490" originalElevation="267.0" isOriginalElevationFromOSM="false" isAnchor="false"><ele>266.9</ele></trkpt>
<trkpt lat="33.334660" lon="126.674070" sectionIndex="0" pointIndex="491" originalElevation="268.0" isOriginalElevationFromOSM="false" isAnchor="false"><ele>266.4</ele></trkpt>
<trkpt lat="33.334610" lon="126.674170" sectionIndex="0" pointIndex="492" originalElevation="268.0" isOriginalElevationFromOSM="false" isAnchor="false"><ele>265.8</ele></trkpt>
<trkpt lat="33.334530" lon="126.674390" sectionIndex="0" pointIndex="493" originalElevation="268.0" isOriginalElevationFromOSM="false" isAnchor="false"><ele>265.3</ele></trkpt>
<trkpt lat="33.334490" lon="126.674440" sectionIndex="0" pointIndex="494" originalElevation="268.0" isOriginalElevationFromOSM="false" isAnchor="false"><ele>264.7</ele></trkpt>
<trkpt lat="33.334420" lon="126.674510" sectionIndex="0" pointIndex="495" originalElevation="262.0" isOriginalElevationFromOSM="false" isAnchor="false"><ele>264.1</ele></trkpt>
<trkpt lat="33.334360" lon="126.674560" sectionIndex="0" pointIndex="496" originalElevation="262.0" isOriginalElevationFromOSM="false" isAnchor="false"><ele>263.5</ele></trkpt>
<trkpt lat="33.334250" lon="126.674620" sectionIndex="0" pointIndex="497" originalElevation="262.0" isOriginalElevationFromOSM="false" isAnchor="false"><ele>262.9</ele></trkpt>
<trkpt lat="33.334190" lon="126.674610" sectionIndex="0" pointIndex="498" originalElevation="262.0" isOriginalElevationFromOSM="false" isAnchor="false"><ele>262.3</ele></trkpt>
<trkpt lat="33.334110" lon="126.674670" sectionIndex="0" pointIndex="499" originalElevation="262.0" isOriginalElevationFromOSM="false" isAnchor="false"><ele>261.6</ele></trkpt>
<trkpt lat="33.334010" lon="126.674750" sectionIndex="0" pointIndex="500" originalElevation="262.0" isOriginalElevationFromOSM="false" isAnchor="false"><ele>261.0</ele></trkpt>
<trkpt lat="33.333870" lon="126.674850" sectionIndex="0" pointIndex="501" originalElevation="258.0" isOriginalElevationFromOSM="false" isAnchor="false"><ele>260.4</ele></trkpt>
<trkpt lat="33.333750" lon="126.674900" sectionIndex="0" pointIndex="502" originalElevation="258.0" isOriginalElevationFromOSM="false" isAnchor="false"><ele>259.8</ele></trkpt>
<trkpt lat="33.333680" lon="126.674890" sectionIndex="0" pointIndex="503" originalElevation="258.0" isOriginalElevationFromOSM="false" isAnchor="false"><ele>259.2</ele></trkpt>
<trkpt lat="33.333620" lon="126.674860" sectionIndex="0" pointIndex="504" originalElevation="258.0" isOriginalElevationFromOSM="false" isAnchor="false"><ele>258.7</ele></trkpt>
<trkpt lat="33.333540" lon="126.674860" sectionIndex="0" pointIndex="505" originalElevation="258.0" isOriginalElevationFromOSM="false" isAnchor="false"><ele>258.2</ele></trkpt>
<trkpt lat="33.333420" lon="126.674900" sectionIndex="0" pointIndex="506" originalElevation="258.0" isOriginalElevationFromOSM="false" isAnchor="false"><ele>257.6</ele></trkpt>
<trkpt lat="33.333280" lon="126.675000" sectionIndex="0" pointIndex="507" originalElevation="258.0" isOriginalElevationFromOSM="false" isAnchor="false"><ele>257.1</ele></trkpt>
<trkpt lat="33.333130" lon="126.675060" sectionIndex="0" pointIndex="508" originalElevation="258.0" isOriginalElevationFromOSM="false" isAnchor="false"><ele>256.5</ele></trkpt>
<trkpt lat="33.332960" lon="126.675190" sectionIndex="0" pointIndex="509" originalElevation="259.0" isOriginalElevationFromOSM="false" isAnchor="false"><ele>256.0</ele></trkpt>
<trkpt lat="33.332840" lon="126.675310" sectionIndex="0" pointIndex="510" originalElevation="253.0" isOriginalElevationFromOSM="false" isAnchor="false"><ele>255.5</ele></trkpt>
<trkpt lat="33.332780" lon="126.675360" sectionIndex="0" pointIndex="511" originalElevation="253.0" isOriginalElevationFromOSM="false" isAnchor="false"><ele>255.0</ele></trkpt>
<trkpt lat="33.332690" lon="126.675530" sectionIndex="0" pointIndex="512" originalElevation="253.0" isOriginalElevationFromOSM="false" isAnchor="false"><ele>254.6</ele></trkpt>
<trkpt lat="33.332680" lon="126.675550" sectionIndex="0" pointIndex="513" originalElevation="253.0" isOriginalElevationFromOSM="false" isAnchor="false"><ele>254.2</ele></trkpt>
<trkpt lat="33.332680" lon="126.675550" sectionIndex="0" pointIndex="514" originalElevation="253.0" isOriginalElevationFromOSM="false" isAnchor="false"><ele>253.7</ele></trkpt>
<trkpt lat="33.332660" lon="126.675620" sectionIndex="0" pointIndex="515" originalElevation="253.0" isOriginalElevationFromOSM="false" isAnchor="false"><ele>253.3</ele></trkpt>
<trkpt lat="33.332570" lon="126.675730" sectionIndex="0" pointIndex="516" originalElevation="253.0" isOriginalElevationFromOSM="false" isAnchor="false"><ele>253.0</ele></trkpt>
<trkpt lat="33.332530" lon="126.675760" sectionIndex="0" pointIndex="517" originalElevation="253.0" isOriginalElevationFromOSM="false" isAnchor="false"><ele>252.6</ele></trkpt>
<trkpt lat="33.332460" lon="126.675900" sectionIndex="0" pointIndex="518" originalElevation="253.0" isOriginalElevationFromOSM="false" isAnchor="false"><ele>252.3</ele></trkpt>
<trkpt lat="33.332400" lon="126.675940" sectionIndex="0" pointIndex="519" originalElevation="253.0" isOriginalElevationFromOSM="false" isAnchor="false"><ele>251.9</ele></trkpt>
<trkpt lat="33.332330" lon="126.675960" sectionIndex="0" pointIndex="520" originalElevation="253.0" isOriginalElevationFromOSM="false" isAnchor="false"><ele>251.5</ele></trkpt>
<trkpt lat="33.332130" lon="126.675910" sectionIndex="0" pointIndex="521" originalElevation="249.0" isOriginalElevationFromOSM="false" isAnchor="false"><ele>251.2</ele></trkpt>
<trkpt lat="33.332050" lon="126.675830" sectionIndex="0" pointIndex="522" originalElevation="249.0" isOriginalElevationFromOSM="false" isAnchor="false"><ele>250.8</ele></trkpt>
<trkpt lat="33.332010" lon="126.675720" sectionIndex="0" pointIndex="523" originalElevation="249.0" isOriginalElevationFromOSM="false" isAnchor="false"><ele>250.4</ele></trkpt>
<trkpt lat="33.331890" lon="126.675530" sectionIndex="0" pointIndex="524" originalElevation="249.0" isOriginalElevationFromOSM="false" isAnchor="false"><ele>250.1</ele></trkpt>
<trkpt lat="33.331820" lon="126.675500" sectionIndex="0" pointIndex="525" originalElevation="249.0" isOriginalElevationFromOSM="false" isAnchor="false"><ele>249.7</ele></trkpt>
<trkpt lat="33.331820" lon="126.675510" sectionIndex="0" pointIndex="526" originalElevation="249.0" isOriginalElevationFromOSM="false" isAnchor="false"><ele>249.4</ele></trkpt>
<trkpt lat="33.331770" lon="126.675490" sectionIndex="0" pointIndex="527" originalElevation="249.0" isOriginalElevationFromOSM="false" isAnchor="false"><ele>249.1</ele></trkpt>
<trkpt lat="33.331690" lon="126.675400" sectionIndex="0" pointIndex="528" originalElevation="249.0" isOriginalElevationFromOSM="false" isAnchor="false"><ele>248.9</ele></trkpt>
<trkpt lat="33.331550" lon="126.675270" sectionIndex="0" pointIndex="529" originalElevation="252.0" isOriginalElevationFromOSM="false" isAnchor="false"><ele>248.6</ele></trkpt>
<trkpt lat="33.331480" lon="126.675220" sectionIndex="0" pointIndex="530" originalElevation="252.0" isOriginalElevationFromOSM="false" isAnchor="false"><ele>248.3</ele></trkpt>
<trkpt lat="33.331430" lon="126.675150" sectionIndex="0" pointIndex="531" originalElevation="252.0" isOriginalElevationFromOSM="false" isAnchor="false"><ele>248.1</ele></trkpt>
<trkpt lat="33.331400" lon="126.675030" sectionIndex="0" pointIndex="532" originalElevation="252.0" isOriginalElevationFromOSM="false" isAnchor="false"><ele>247.8</ele></trkpt>
<trkpt lat="33.331380" lon="126.674930" sectionIndex="0" pointIndex="533" originalElevation="243.0" isOriginalElevationFromOSM="false" isAnchor="false"><ele>247.6</ele></trkpt>
<trkpt lat="33.331380" lon="126.674730" sectionIndex="0" pointIndex="534" originalElevation="243.0" isOriginalElevationFromOSM="false" isAnchor="false"><ele>247.4</ele></trkpt>
<trkpt lat="33.331340" lon="126.674660" sectionIndex="0" pointIndex="535" originalElevation="243.0" isOriginalElevationFromOSM="false" isAnchor="false"><ele>247.2</ele></trkpt>
<trkpt lat="33.331290" lon="126.674610" sectionIndex="0" pointIndex="536" originalElevation="243.0" isOriginalElevationFromOSM="false" isAnchor="false"><ele>247.0</ele></trkpt>
<trkpt lat="33.331270" lon="126.674520" sectionIndex="0" pointIndex="537" originalElevation="243.0" isOriginalElevationFromOSM="false" isAnchor="false"><ele>246.9</ele></trkpt>
<trkpt lat="33.331270" lon="126.674450" sectionIndex="0" pointIndex="538" originalElevation="243.0" isOriginalElevationFromOSM="false" isAnchor="false"><ele>246.9</ele></trkpt>
<trkpt lat="33.331280" lon="126.674350" sectionIndex="0" pointIndex="539" originalElevation="245.0" isOriginalElevationFromOSM="false" isAnchor="false"><ele>246.8</ele></trkpt>
<trkpt lat="33.331290" lon="126.674350" sectionIndex="0" pointIndex="540" originalElevation="245.0" isOriginalElevationFromOSM="false" isAnchor="false"><ele>246.8</ele></trkpt>
<trkpt lat="33.331340" lon="126.674130" sectionIndex="0" pointIndex="541" originalElevation="245.0" isOriginalElevationFromOSM="false" isAnchor="false"><ele>246.7</ele></trkpt>
<trkpt lat="33.331440" lon="126.673960" sectionIndex="0" pointIndex="542" originalElevation="253.0" isOriginalElevationFromOSM="false" isAnchor="false"><ele>246.7</ele></trkpt>
<trkpt lat="33.331470" lon="126.673880" sectionIndex="0" pointIndex="543" originalElevation="253.0" isOriginalElevationFromOSM="false" isAnchor="false"><ele>246.7</ele></trkpt>
<trkpt lat="33.331460" lon="126.673810" sectionIndex="0" pointIndex="544" originalElevation="253.0" isOriginalElevationFromOSM="false" isAnchor="false"><ele>246.7</ele></trkpt>
<trkpt lat="33.331320" lon="126.673650" sectionIndex="0" pointIndex="545" originalElevation="245.0" isOriginalElevationFromOSM="false" isAnchor="false"><ele>246.7</ele></trkpt>
<trkpt lat="33.331150" lon="126.673650" sectionIndex="0" pointIndex="546" originalElevation="245.0" isOriginalElevationFromOSM="false" isAnchor="false"><ele>246.7</ele></trkpt>
<trkpt lat="33.331030" lon="126.673590" sectionIndex="0" pointIndex="547" originalElevation="246.0" isOriginalElevationFromOSM="false" isAnchor="false"><ele>246.7</ele></trkpt>
<trkpt lat="33.330910" lon="126.673490" sectionIndex="0" pointIndex="548" originalElevation="246.0" isOriginalElevationFromOSM="false" isAnchor="false"><ele>246.7</ele></trkpt>
<trkpt lat="33.330870" lon="126.673420" sectionIndex="0" pointIndex="549" originalElevation="246.0" isOriginalElevationFromOSM="false" isAnchor="false"><ele>246.7</ele></trkpt>
<trkpt lat="33.330830" lon="126.673320" sectionIndex="0" pointIndex="550" originalElevation="246.0" isOriginalElevationFromOSM="false" isAnchor="false"><ele>246.8</ele></trkpt>
<trkpt lat="33.330810" lon="126.673280" sectionIndex="0" pointIndex="551" originalElevation="246.0" isOriginalElevationFromOSM="false" isAnchor="false"><ele>246.8</ele></trkpt>
</trkseg>
</trk>
</gpx>