<?xml version="1.0" encoding="UTF-8"?>
<gpx creator="GlobalMotionEditor" version="1.1" xmlns="http://www.topografix.com/GPX/1/1">
<metadata>
<name>김녕 당근런</name>
<desc>Bientus, Inc. - www.ramblr.com - Share your outdoor stories on a map!</desc>
<author>
<name></name>
</author>
<link href="https://www.ramblr.com/web/mymap/trip/1320578/10397001"></link>
<time>2026-04-21T03:24:46Z</time>
</metadata>
<trk>
<name>김녕 당근런</name>
<trkseg>
<trkpt lat="33.553866" lon="126.748065"><ele>8.355741</ele><time>2026-04-21T03:24:45Z</time></trkpt>
<trkpt lat="33.553770" lon="126.748091"><ele>9.393782</ele><time>2026-04-21T03:25:18Z</time></trkpt>
<trkpt lat="33.553688" lon="126.748152"><ele>7.490189</ele><time>2026-04-21T03:25:28Z</time></trkpt>
<trkpt lat="33.553613" lon="126.748218"><ele>9.668683</ele><time>2026-04-21T03:25:36Z</time></trkpt>
<trkpt lat="33.553530" lon="126.748267"><ele>11.629271</ele><time>2026-04-21T03:25:46Z</time></trkpt>
<trkpt lat="33.553450" lon="126.748318"><ele>12.801473</ele><time>2026-04-21T03:26:08Z</time></trkpt>
<trkpt lat="33.553392" lon="126.748404"><ele>9.399067</ele><time>2026-04-21T03:26:16Z</time></trkpt>
<trkpt lat="33.553341" lon="126.748500"><ele>6.942928</ele><time>2026-04-21T03:26:25Z</time></trkpt>
<trkpt lat="33.553270" lon="126.748577"><ele>7.541086</ele><time>2026-04-21T03:26:38Z</time></trkpt>
<trkpt lat="33.553223" lon="126.748678"><ele>8.655807</ele><time>2026-04-21T03:26:48Z</time></trkpt>
<trkpt lat="33.553180" lon="126.748777"><ele>8.26684</ele><time>2026-04-21T03:26:57Z</time></trkpt>
<trkpt lat="33.553129" lon="126.748869"><ele>9.649358</ele><time>2026-04-21T03:27:05Z</time></trkpt>
<trkpt lat="33.553071" lon="126.748952"><ele>10.131733</ele><time>2026-04-21T03:27:14Z</time></trkpt>
<trkpt lat="33.553024" lon="126.749046"><ele>11.242881</ele><time>2026-04-21T03:27:23Z</time></trkpt>
<trkpt lat="33.552938" lon="126.749097"><ele>9.657943</ele><time>2026-04-21T03:27:39Z</time></trkpt>
<trkpt lat="33.552836" lon="126.749149"><ele>11.769642</ele><time>2026-04-21T03:27:48Z</time></trkpt>
<trkpt lat="33.552746" lon="126.749182"><ele>12.719121</ele><time>2026-04-21T03:27:59Z</time></trkpt>
<trkpt lat="33.552647" lon="126.749191"><ele>12.2876</ele><time>2026-04-21T03:28:08Z</time></trkpt>
<trkpt lat="33.552554" lon="126.749217"><ele>13.52994</ele><time>2026-04-21T03:28:17Z</time></trkpt>
<trkpt lat="33.552464" lon="126.749264"><ele>13.770556</ele><time>2026-04-21T03:28:26Z</time></trkpt>
<trkpt lat="33.552370" lon="126.749323"><ele>13.254038</ele><time>2026-04-21T03:28:41Z</time></trkpt>
<trkpt lat="33.552279" lon="126.749372"><ele>12.635899</ele><time>2026-04-21T03:28:51Z</time></trkpt>
<trkpt lat="33.552183" lon="126.749413"><ele>11.779252</ele><time>2026-04-21T03:29:02Z</time></trkpt>
<trkpt lat="33.552101" lon="126.749459"><ele>13.20508</ele><time>2026-04-21T03:29:12Z</time></trkpt>
<trkpt lat="33.552005" lon="126.749484"><ele>13.514624</ele><time>2026-04-21T03:29:22Z</time></trkpt>
<trkpt lat="33.551920" lon="126.749522"><ele>12.773641</ele><time>2026-04-21T03:29:31Z</time></trkpt>
<trkpt lat="33.551832" lon="126.749566"><ele>12.869212</ele><time>2026-04-21T03:29:39Z</time></trkpt>
<trkpt lat="33.551744" lon="126.749598"><ele>12.314165</ele><time>2026-04-21T03:29:48Z</time></trkpt>
<trkpt lat="33.551679" lon="126.749680"><ele>12.075379</ele><time>2026-04-21T03:29:56Z</time></trkpt>
<trkpt lat="33.551617" lon="126.749767"><ele>14.301081</ele><time>2026-04-21T03:30:05Z</time></trkpt>
<trkpt lat="33.551593" lon="126.749873"><ele>13.916768</ele><time>2026-04-21T03:30:13Z</time></trkpt>
<trkpt lat="33.551550" lon="126.749973"><ele>13.613256</ele><time>2026-04-21T03:30:22Z</time></trkpt>
<trkpt lat="33.551488" lon="126.750068"><ele>13.519767</ele><time>2026-04-21T03:30:32Z</time></trkpt>
<trkpt lat="33.551433" lon="126.750158"><ele>14.591289</ele><time>2026-04-21T03:30:41Z</time></trkpt>
<trkpt lat="33.551354" lon="126.750217"><ele>14.425318</ele><time>2026-04-21T03:30:49Z</time></trkpt>
<trkpt lat="33.551240" lon="126.750232"><ele>14.765964</ele><time>2026-04-21T03:30:56Z</time></trkpt>
<trkpt lat="33.551139" lon="126.750215"><ele>15.445187</ele><time>2026-04-21T03:31:01Z</time></trkpt>
<trkpt lat="33.551053" lon="126.750267"><ele>15.815354</ele><time>2026-04-21T03:31:05Z</time></trkpt>
<trkpt lat="33.550954" lon="126.750282"><ele>15.139715</ele><time>2026-04-21T03:31:12Z</time></trkpt>
<trkpt lat="33.550853" lon="126.750288"><ele>18.2068</ele><time>2026-04-21T03:31:20Z</time></trkpt>
<trkpt lat="33.550777" lon="126.750348"><ele>17.762468</ele><time>2026-04-21T03:31:29Z</time></trkpt>
<trkpt lat="33.550691" lon="126.750404"><ele>18.262115</ele><time>2026-04-21T03:31:37Z</time></trkpt>
<trkpt lat="33.550628" lon="126.750497"><ele>19.861172</ele><time>2026-04-21T03:31:47Z</time></trkpt>
<trkpt lat="33.550558" lon="126.750583"><ele>18.804046</ele><time>2026-04-21T03:31:54Z</time></trkpt>
<trkpt lat="33.550533" lon="126.750686"><ele>16.668867</ele><time>2026-04-21T03:32:21Z</time></trkpt>
<trkpt lat="33.550519" lon="126.750810"><ele>15.567718</ele><time>2026-04-21T03:32:30Z</time></trkpt>
<trkpt lat="33.550497" lon="126.750928"><ele>14.983908</ele><time>2026-04-21T03:32:39Z</time></trkpt>
<trkpt lat="33.550474" lon="126.751042"><ele>15.340611</ele><time>2026-04-21T03:32:48Z</time></trkpt>
<trkpt lat="33.550455" lon="126.751154"><ele>16.088218</ele><time>2026-04-21T03:32:56Z</time></trkpt>
<trkpt lat="33.550425" lon="126.751267"><ele>17.345834</ele><time>2026-04-21T03:33:04Z</time></trkpt>
<trkpt lat="33.550402" lon="126.751379"><ele>17.694066</ele><time>2026-04-21T03:33:15Z</time></trkpt>
<trkpt lat="33.550377" lon="126.751485"><ele>19.376459</ele><time>2026-04-21T03:33:23Z</time></trkpt>
<trkpt lat="33.550347" lon="126.751598"><ele>19.335922</ele><time>2026-04-21T03:33:31Z</time></trkpt>
<trkpt lat="33.550308" lon="126.751699"><ele>19.958906</ele><time>2026-04-21T03:33:40Z</time></trkpt>
<trkpt lat="33.550242" lon="126.751775"><ele>21.848487</ele><time>2026-04-21T03:33:49Z</time></trkpt>
<trkpt lat="33.550156" lon="126.751825"><ele>22.932225</ele><time>2026-04-21T03:34:00Z</time></trkpt>
<trkpt lat="33.550071" lon="126.751864"><ele>23.325061</ele><time>2026-04-21T03:34:07Z</time></trkpt>
<trkpt lat="33.549996" lon="126.751929"><ele>23.568924</ele><time>2026-04-21T03:34:16Z</time></trkpt>
<trkpt lat="33.549920" lon="126.752014"><ele>22.854584</ele><time>2026-04-21T03:34:24Z</time></trkpt>
<trkpt lat="33.549845" lon="126.752076"><ele>25.179492</ele><time>2026-04-21T03:34:34Z</time></trkpt>
<trkpt lat="33.549800" lon="126.752172"><ele>25.746073</ele><time>2026-04-21T03:34:43Z</time></trkpt>
<trkpt lat="33.549745" lon="126.752269"><ele>25.845571</ele><time>2026-04-21T03:34:51Z</time></trkpt>
<trkpt lat="33.549690" lon="126.752376"><ele>25.531102</ele><time>2026-04-21T03:35:00Z</time></trkpt>
<trkpt lat="33.549656" lon="126.752478"><ele>26.014006</ele><time>2026-04-21T03:35:10Z</time></trkpt>
<trkpt lat="33.549594" lon="126.752568"><ele>27.162059</ele><time>2026-04-21T03:35:20Z</time></trkpt>
<trkpt lat="33.549539" lon="126.752671"><ele>26.017259</ele><time>2026-04-21T03:35:28Z</time></trkpt>
<trkpt lat="33.549478" lon="126.752751"><ele>26.265895</ele><time>2026-04-21T03:35:36Z</time></trkpt>
<trkpt lat="33.549424" lon="126.752854"><ele>27.914523</ele><time>2026-04-21T03:35:44Z</time></trkpt>
<trkpt lat="33.549377" lon="126.752946"><ele>28.509336</ele><time>2026-04-21T03:35:51Z</time></trkpt>
<trkpt lat="33.549323" lon="126.753042"><ele>27.701843</ele><time>2026-04-21T03:35:59Z</time></trkpt>
<trkpt lat="33.549268" lon="126.753135"><ele>28.482169</ele><time>2026-04-21T03:36:07Z</time></trkpt>
<trkpt lat="33.549362" lon="126.753171"><ele>28.753105</ele><time>2026-04-21T03:36:15Z</time></trkpt>
<trkpt lat="33.549460" lon="126.753161"><ele>28.553689</ele><time>2026-04-21T03:36:22Z</time></trkpt>
<trkpt lat="33.549561" lon="126.753149"><ele>27.275817</ele><time>2026-04-21T03:36:30Z</time></trkpt>
<trkpt lat="33.549655" lon="126.753144"><ele>25.931411</ele><time>2026-04-21T03:36:38Z</time></trkpt>
<trkpt lat="33.549756" lon="126.753118"><ele>24.799616</ele><time>2026-04-21T03:36:46Z</time></trkpt>
<trkpt lat="33.549844" lon="126.753084"><ele>24.846411</ele><time>2026-04-21T03:36:54Z</time></trkpt>
<trkpt lat="33.549946" lon="126.753048"><ele>24.042647</ele><time>2026-04-21T03:37:02Z</time></trkpt>
<trkpt lat="33.550047" lon="126.753022"><ele>23.494358</ele><time>2026-04-21T03:37:10Z</time></trkpt>
<trkpt lat="33.550138" lon="126.753009"><ele>23.65324</ele><time>2026-04-21T03:37:17Z</time></trkpt>
<trkpt lat="33.550234" lon="126.752998"><ele>22.816116</ele><time>2026-04-21T03:37:26Z</time></trkpt>
<trkpt lat="33.550332" lon="126.752992"><ele>22.732794</ele><time>2026-04-21T03:37:34Z</time></trkpt>
<trkpt lat="33.550426" lon="126.752993"><ele>22.063787</ele><time>2026-04-21T03:37:43Z</time></trkpt>
<trkpt lat="33.550521" lon="126.752980"><ele>21.412228</ele><time>2026-04-21T03:37:51Z</time></trkpt>
<trkpt lat="33.550611" lon="126.752953"><ele>20.412311</ele><time>2026-04-21T03:37:59Z</time></trkpt>
<trkpt lat="33.550710" lon="126.752926"><ele>19.900698</ele><time>2026-04-21T03:38:07Z</time></trkpt>
<trkpt lat="33.550807" lon="126.752899"><ele>20.357377</ele><time>2026-04-21T03:38:15Z</time></trkpt>
<trkpt lat="33.550905" lon="126.752881"><ele>20.741952</ele><time>2026-04-21T03:38:24Z</time></trkpt>
<trkpt lat="33.550920" lon="126.752767"><ele>21.018614</ele><time>2026-04-21T03:38:33Z</time></trkpt>
<trkpt lat="33.550994" lon="126.752702"><ele>19.910321</ele><time>2026-04-21T03:39:02Z</time></trkpt>
<trkpt lat="33.551093" lon="126.752720"><ele>20.061197</ele><time>2026-04-21T03:39:10Z</time></trkpt>
<trkpt lat="33.551172" lon="126.752775"><ele>19.817492</ele><time>2026-04-21T03:39:21Z</time></trkpt>
<trkpt lat="33.551248" lon="126.752835"><ele>20.516608</ele><time>2026-04-21T03:39:30Z</time></trkpt>
<trkpt lat="33.551340" lon="126.752824"><ele>20.673918</ele><time>2026-04-21T03:39:38Z</time></trkpt>
<trkpt lat="33.551430" lon="126.752801"><ele>20.422018</ele><time>2026-04-21T03:39:48Z</time></trkpt>
<trkpt lat="33.551528" lon="126.752774"><ele>19.475676</ele><time>2026-04-21T03:39:57Z</time></trkpt>
<trkpt lat="33.551624" lon="126.752752"><ele>19.459908</ele><time>2026-04-21T03:40:06Z</time></trkpt>
<trkpt lat="33.551723" lon="126.752731"><ele>19.275754</ele><time>2026-04-21T03:40:15Z</time></trkpt>
<trkpt lat="33.551820" lon="126.752721"><ele>19.074145</ele><time>2026-04-21T03:40:23Z</time></trkpt>
<trkpt lat="33.551910" lon="126.752705"><ele>18.347008</ele><time>2026-04-21T03:40:30Z</time></trkpt>
<trkpt lat="33.552011" lon="126.752715"><ele>19.718156</ele><time>2026-04-21T03:40:38Z</time></trkpt>
<trkpt lat="33.552101" lon="126.752695"><ele>18.67068</ele><time>2026-04-21T03:40:45Z</time></trkpt>
<trkpt lat="33.552192" lon="126.752651"><ele>19.043189</ele><time>2026-04-21T03:40:53Z</time></trkpt>
<trkpt lat="33.552287" lon="126.752635"><ele>19.711945</ele><time>2026-04-21T03:41:01Z</time></trkpt>
<trkpt lat="33.552373" lon="126.752597"><ele>19.79144</ele><time>2026-04-21T03:41:08Z</time></trkpt>
<trkpt lat="33.552460" lon="126.752548"><ele>18.718446</ele><time>2026-04-21T03:41:15Z</time></trkpt>
<trkpt lat="33.552543" lon="126.752483"><ele>18.021399</ele><time>2026-04-21T03:41:26Z</time></trkpt>
<trkpt lat="33.552631" lon="126.752429"><ele>17.025196</ele><time>2026-04-21T03:41:36Z</time></trkpt>
<trkpt lat="33.552708" lon="126.752358"><ele>16.149645</ele><time>2026-04-21T03:41:44Z</time></trkpt>
<trkpt lat="33.552688" lon="126.752240"><ele>15.635224</ele><time>2026-04-21T03:41:52Z</time></trkpt>
<trkpt lat="33.552629" lon="126.752145"><ele>15.107611</ele><time>2026-04-21T03:42:01Z</time></trkpt>
<trkpt lat="33.552540" lon="126.752112"><ele>15.11721</ele><time>2026-04-21T03:42:09Z</time></trkpt>
<trkpt lat="33.552459" lon="126.752061"><ele>14.514744</ele><time>2026-04-21T03:42:17Z</time></trkpt>
<trkpt lat="33.552395" lon="126.751978"><ele>15.004982</ele><time>2026-04-21T03:42:25Z</time></trkpt>
<trkpt lat="33.552355" lon="126.751878"><ele>15.127475</ele><time>2026-04-21T03:42:32Z</time></trkpt>
<trkpt lat="33.552314" lon="126.751780"><ele>15.405709</ele><time>2026-04-21T03:42:40Z</time></trkpt>
<trkpt lat="33.552352" lon="126.751881"><ele>16.537736</ele><time>2026-04-21T03:43:00Z</time></trkpt>
<trkpt lat="33.552393" lon="126.751977"><ele>15.54301</ele><time>2026-04-21T03:43:08Z</time></trkpt>
<trkpt lat="33.552459" lon="126.752058"><ele>15.425556</ele><time>2026-04-21T03:43:16Z</time></trkpt>
<trkpt lat="33.552542" lon="126.752107"><ele>15.405376</ele><time>2026-04-21T03:43:24Z</time></trkpt>
<trkpt lat="33.552632" lon="126.752150"><ele>15.136354</ele><time>2026-04-21T03:43:32Z</time></trkpt>
<trkpt lat="33.552681" lon="126.752244"><ele>15.603762</ele><time>2026-04-21T03:43:41Z</time></trkpt>
<trkpt lat="33.552708" lon="126.752347"><ele>15.969421</ele><time>2026-04-21T03:43:49Z</time></trkpt>
<trkpt lat="33.552789" lon="126.752291"><ele>15.351933</ele><time>2026-04-21T03:43:58Z</time></trkpt>
<trkpt lat="33.552869" lon="126.752239"><ele>14.360549</ele><time>2026-04-21T03:44:05Z</time></trkpt>
<trkpt lat="33.552948" lon="126.752175"><ele>14.575845</ele><time>2026-04-21T03:44:13Z</time></trkpt>
<trkpt lat="33.553025" lon="126.752105"><ele>14.261775</ele><time>2026-04-21T03:44:21Z</time></trkpt>
<trkpt lat="33.553112" lon="126.752056"><ele>13.965646</ele><time>2026-04-21T03:44:31Z</time></trkpt>
<trkpt lat="33.553205" lon="126.752022"><ele>14.049828</ele><time>2026-04-21T03:44:39Z</time></trkpt>
<trkpt lat="33.553299" lon="126.752002"><ele>13.984853</ele><time>2026-04-21T03:44:47Z</time></trkpt>
<trkpt lat="33.553400" lon="126.751996"><ele>13.98886</ele><time>2026-04-21T03:44:59Z</time></trkpt>
<trkpt lat="33.553495" lon="126.751990"><ele>14.953228</ele><time>2026-04-21T03:45:07Z</time></trkpt>
<trkpt lat="33.553591" lon="126.751983"><ele>14.016337</ele><time>2026-04-21T03:45:15Z</time></trkpt>
<trkpt lat="33.553683" lon="126.751954"><ele>12.731965</ele><time>2026-04-21T03:45:24Z</time></trkpt>
<trkpt lat="33.553778" lon="126.751961"><ele>13.868693</ele><time>2026-04-21T03:45:33Z</time></trkpt>
<trkpt lat="33.553871" lon="126.751921"><ele>12.982053</ele><time>2026-04-21T03:45:41Z</time></trkpt>
<trkpt lat="33.553955" lon="126.751871"><ele>10.554942</ele><time>2026-04-21T03:45:49Z</time></trkpt>
<trkpt lat="33.554041" lon="126.751822"><ele>10.20016</ele><time>2026-04-21T03:45:57Z</time></trkpt>
<trkpt lat="33.554128" lon="126.751768"><ele>11.217028</ele><time>2026-04-21T03:46:05Z</time></trkpt>
<trkpt lat="33.554200" lon="126.751698"><ele>11.088124</ele><time>2026-04-21T03:46:13Z</time></trkpt>
<trkpt lat="33.554163" lon="126.751590"><ele>10.14388</ele><time>2026-04-21T03:46:21Z</time></trkpt>
<trkpt lat="33.554121" lon="126.751477"><ele>10.958832</ele><time>2026-04-21T03:46:29Z</time></trkpt>
<trkpt lat="33.554086" lon="126.751366"><ele>10.8395</ele><time>2026-04-21T03:46:37Z</time></trkpt>
<trkpt lat="33.554123" lon="126.751474"><ele>10.43497</ele><time>2026-04-21T03:46:50Z</time></trkpt>
<trkpt lat="33.554159" lon="126.751576"><ele>10.713233</ele><time>2026-04-21T03:46:58Z</time></trkpt>
<trkpt lat="33.554205" lon="126.751674"><ele>9.95804</ele><time>2026-04-21T03:47:06Z</time></trkpt>
<trkpt lat="33.554302" lon="126.751686"><ele>10.529006</ele><time>2026-04-21T03:47:18Z</time></trkpt>
<trkpt lat="33.554386" lon="126.751643"><ele>11.083105</ele><time>2026-04-21T03:47:26Z</time></trkpt>
<trkpt lat="33.554476" lon="126.751604"><ele>11.790223</ele><time>2026-04-21T03:47:34Z</time></trkpt>
<trkpt lat="33.554571" lon="126.751585"><ele>14.039371</ele><time>2026-04-21T03:47:43Z</time></trkpt>
<trkpt lat="33.554662" lon="126.751536"><ele>12.494722</ele><time>2026-04-21T03:47:52Z</time></trkpt>
<trkpt lat="33.554756" lon="126.751500"><ele>12.822231</ele><time>2026-04-21T03:48:00Z</time></trkpt>
<trkpt lat="33.554853" lon="126.751457"><ele>13.971752</ele><time>2026-04-21T03:48:09Z</time></trkpt>
<trkpt lat="33.554897" lon="126.751360"><ele>12.88033</ele><time>2026-04-21T03:48:20Z</time></trkpt>
<trkpt lat="33.554879" lon="126.751247"><ele>11.959621</ele><time>2026-04-21T03:48:28Z</time></trkpt>
<trkpt lat="33.554851" lon="126.751131"><ele>10.892056</ele><time>2026-04-21T03:48:36Z</time></trkpt>
<trkpt lat="33.554828" lon="126.751021"><ele>10.536285</ele><time>2026-04-21T03:48:44Z</time></trkpt>
<trkpt lat="33.554802" lon="126.750911"><ele>10.122196</ele><time>2026-04-21T03:48:51Z</time></trkpt>
<trkpt lat="33.554771" lon="126.750804"><ele>9.566328</ele><time>2026-04-21T03:48:59Z</time></trkpt>
<trkpt lat="33.554737" lon="126.750704"><ele>8.123181</ele><time>2026-04-21T03:49:06Z</time></trkpt>
<trkpt lat="33.554706" lon="126.750595"><ele>9.277919</ele><time>2026-04-21T03:49:13Z</time></trkpt>
<trkpt lat="33.554672" lon="126.750494"><ele>9.386002</ele><time>2026-04-21T03:49:20Z</time></trkpt>
<trkpt lat="33.554638" lon="126.750381"><ele>9.481818</ele><time>2026-04-21T03:49:28Z</time></trkpt>
<trkpt lat="33.554609" lon="126.750265"><ele>9.631158</ele><time>2026-04-21T03:49:36Z</time></trkpt>
<trkpt lat="33.554601" lon="126.750154"><ele>12.321894</ele><time>2026-04-21T03:50:03Z</time></trkpt>
<trkpt lat="33.554677" lon="126.750081"><ele>11.869903</ele><time>2026-04-21T03:51:03Z</time></trkpt>
<trkpt lat="33.554645" lon="126.749977"><ele>9.93727</ele><time>2026-04-21T03:51:10Z</time></trkpt>
<trkpt lat="33.554614" lon="126.749866"><ele>9.67488</ele><time>2026-04-21T03:51:18Z</time></trkpt>
<trkpt lat="33.554583" lon="126.749762"><ele>10.540406</ele><time>2026-04-21T03:51:25Z</time></trkpt>
<trkpt lat="33.554536" lon="126.749664"><ele>10.389431</ele><time>2026-04-21T03:51:33Z</time></trkpt>
<trkpt lat="33.554617" lon="126.749592"><ele>13.963318</ele><time>2026-04-21T03:51:43Z</time></trkpt>
<trkpt lat="33.554710" lon="126.749566"><ele>15.168256</ele><time>2026-04-21T03:51:50Z</time></trkpt>
<trkpt lat="33.554805" lon="126.749575"><ele>12.744429</ele><time>2026-04-21T03:51:57Z</time></trkpt>
<trkpt lat="33.554897" lon="126.749560"><ele>13.28134</ele><time>2026-04-21T03:52:05Z</time></trkpt>
<trkpt lat="33.554990" lon="126.749546"><ele>11.987987</ele><time>2026-04-21T03:52:13Z</time></trkpt>
<trkpt lat="33.555087" lon="126.749517"><ele>9.617542</ele><time>2026-04-21T03:52:23Z</time></trkpt>
<trkpt lat="33.555186" lon="126.749498"><ele>10.386059</ele><time>2026-04-21T03:52:32Z</time></trkpt>
<trkpt lat="33.555280" lon="126.749485"><ele>10.711297</ele><time>2026-04-21T03:52:42Z</time></trkpt>
<trkpt lat="33.555361" lon="126.749544"><ele>10.883322</ele><time>2026-04-21T03:52:53Z</time></trkpt>
<trkpt lat="33.555408" lon="126.749646"><ele>10.734942</ele><time>2026-04-21T03:53:24Z</time></trkpt>
<trkpt lat="33.555462" lon="126.749738"><ele>12.318371</ele><time>2026-04-21T03:53:49Z</time></trkpt>
<trkpt lat="33.555525" lon="126.749819"><ele>10.222256</ele><time>2026-04-21T03:53:59Z</time></trkpt>
<trkpt lat="33.555625" lon="126.749814"><ele>9.248261</ele><time>2026-04-21T03:54:08Z</time></trkpt>
<trkpt lat="33.555722" lon="126.749793"><ele>9.438422</ele><time>2026-04-21T03:54:17Z</time></trkpt>
<trkpt lat="33.555815" lon="126.749758"><ele>8.999574</ele><time>2026-04-21T03:54:26Z</time></trkpt>
<trkpt lat="33.555901" lon="126.749719"><ele>8.395102</ele><time>2026-04-21T03:54:35Z</time></trkpt>
<trkpt lat="33.556003" lon="126.749723"><ele>9.605277</ele><time>2026-04-21T03:54:45Z</time></trkpt>
<trkpt lat="33.556085" lon="126.749769"><ele>8.320143</ele><time>2026-04-21T03:54:52Z</time></trkpt>
<trkpt lat="33.556181" lon="126.749773"><ele>7.403486</ele><time>2026-04-21T03:55:00Z</time></trkpt>
<trkpt lat="33.556275" lon="126.749778"><ele>7.152516</ele><time>2026-04-21T03:55:08Z</time></trkpt>
<trkpt lat="33.556367" lon="126.749764"><ele>6.678233</ele><time>2026-04-21T03:55:16Z</time></trkpt>
<trkpt lat="33.556461" lon="126.749741"><ele>3.887413</ele><time>2026-04-21T03:55:23Z</time></trkpt>
<trkpt lat="33.556564" lon="126.749741"><ele>5.139404</ele><time>2026-04-21T03:55:32Z</time></trkpt>
<trkpt lat="33.556657" lon="126.749775"><ele>4.565585</ele><time>2026-04-21T03:55:41Z</time></trkpt>
<trkpt lat="33.556704" lon="126.749879"><ele>5.154497</ele><time>2026-04-21T03:55:49Z</time></trkpt>
<trkpt lat="33.556710" lon="126.749993"><ele>4.991894</ele><time>2026-04-21T03:55:57Z</time></trkpt>
<trkpt lat="33.556703" lon="126.750108"><ele>5.93339</ele><time>2026-04-21T03:56:05Z</time></trkpt>
<trkpt lat="33.556700" lon="126.750218"><ele>7.643225</ele><time>2026-04-21T03:56:18Z</time></trkpt>
<trkpt lat="33.556679" lon="126.750338"><ele>7.28401</ele><time>2026-04-21T03:56:33Z</time></trkpt>
<trkpt lat="33.556671" lon="126.750459"><ele>6.68759</ele><time>2026-04-21T03:56:42Z</time></trkpt>
<trkpt lat="33.556690" lon="126.750566"><ele>6.565339</ele><time>2026-04-21T03:56:50Z</time></trkpt>
<trkpt lat="33.556781" lon="126.750564"><ele>5.843858</ele><time>2026-04-21T03:56:58Z</time></trkpt>
<trkpt lat="33.556874" lon="126.750539"><ele>5.822997</ele><time>2026-04-21T03:57:13Z</time></trkpt>
<trkpt lat="33.556966" lon="126.750510"><ele>5.489487</ele><time>2026-04-21T03:57:21Z</time></trkpt>
<trkpt lat="33.557063" lon="126.750477"><ele>3.682489</ele><time>2026-04-21T03:57:29Z</time></trkpt>
<trkpt lat="33.557150" lon="126.750420"><ele>2.884684</ele><time>2026-04-21T03:57:38Z</time></trkpt>
<trkpt lat="33.557204" lon="126.750333"><ele>4.271213</ele><time>2026-04-21T03:57:46Z</time></trkpt>
<trkpt lat="33.557271" lon="126.750249"><ele>5.362091</ele><time>2026-04-21T03:57:54Z</time></trkpt>
<trkpt lat="33.557359" lon="126.750220"><ele>5.138431</ele><time>2026-04-21T03:58:02Z</time></trkpt>
<trkpt lat="33.557452" lon="126.750203"><ele>5.592677</ele><time>2026-04-21T03:58:10Z</time></trkpt>
<trkpt lat="33.557530" lon="126.750140"><ele>4.101725</ele><time>2026-04-21T03:58:18Z</time></trkpt>
<trkpt lat="33.557587" lon="126.750053"><ele>3.765199</ele><time>2026-04-21T03:58:26Z</time></trkpt>
<trkpt lat="33.557647" lon="126.749962"><ele>3.032434</ele><time>2026-04-21T03:58:37Z</time></trkpt>
<trkpt lat="33.557712" lon="126.749887"><ele>2.124029</ele><time>2026-04-21T03:58:46Z</time></trkpt>
<trkpt lat="33.557755" lon="126.749879"><ele>3.466846</ele><time>2026-04-21T04:00:27Z</time></trkpt>
<trkpt lat="33.557770" lon="126.749994"><ele>5.719704</ele><time>2026-04-21T04:00:47Z</time></trkpt>
<trkpt lat="33.557769" lon="126.750117"><ele>3.646831</ele><time>2026-04-21T04:00:57Z</time></trkpt>
<trkpt lat="33.557820" lon="126.750210"><ele>3.066411</ele><time>2026-04-21T04:01:06Z</time></trkpt>
<trkpt lat="33.557911" lon="126.750260"><ele>3.523612</ele><time>2026-04-21T04:01:15Z</time></trkpt>
<trkpt lat="33.557990" lon="126.750314"><ele>4.033557</ele><time>2026-04-21T04:01:23Z</time></trkpt>
<trkpt lat="33.558045" lon="126.750401"><ele>4.231605</ele><time>2026-04-21T04:01:32Z</time></trkpt>
<trkpt lat="33.558041" lon="126.750521"><ele>5.975554</ele><time>2026-04-21T04:01:40Z</time></trkpt>
<trkpt lat="33.558025" lon="126.750634"><ele>4.461329</ele><time>2026-04-21T04:01:49Z</time></trkpt>
<trkpt lat="33.557973" lon="126.750729"><ele>4.366303</ele><time>2026-04-21T04:02:04Z</time></trkpt>
<trkpt lat="33.557932" lon="126.750835"><ele>4.157705</ele><time>2026-04-21T04:02:12Z</time></trkpt>
<trkpt lat="33.557877" lon="126.750931"><ele>2.926547</ele><time>2026-04-21T04:02:23Z</time></trkpt>
<trkpt lat="33.557829" lon="126.751033"><ele>3.531507</ele><time>2026-04-21T04:02:32Z</time></trkpt>
<trkpt lat="33.557766" lon="126.751116"><ele>7.610216</ele><time>2026-04-21T04:02:42Z</time></trkpt>
<trkpt lat="33.557683" lon="126.751165"><ele>4.583436</ele><time>2026-04-21T04:02:51Z</time></trkpt>
<trkpt lat="33.557592" lon="126.751174"><ele>4.905562</ele><time>2026-04-21T04:03:00Z</time></trkpt>
<trkpt lat="33.557494" lon="126.751200"><ele>5.463221</ele><time>2026-04-21T04:03:10Z</time></trkpt>
<trkpt lat="33.557396" lon="126.751228"><ele>5.221215</ele><time>2026-04-21T04:03:19Z</time></trkpt>
<trkpt lat="33.557296" lon="126.751231"><ele>4.854536</ele><time>2026-04-21T04:03:28Z</time></trkpt>
<trkpt lat="33.557189" lon="126.751197"><ele>4.674406</ele><time>2026-04-21T04:03:38Z</time></trkpt>
<trkpt lat="33.557101" lon="126.751150"><ele>5.01587</ele><time>2026-04-21T04:03:52Z</time></trkpt>
<trkpt lat="33.557012" lon="126.751125"><ele>6.533391</ele><time>2026-04-21T04:04:00Z</time></trkpt>
<trkpt lat="33.556920" lon="126.751089"><ele>6.160396</ele><time>2026-04-21T04:04:09Z</time></trkpt>
<trkpt lat="33.556826" lon="126.751066"><ele>7.225424</ele><time>2026-04-21T04:04:17Z</time></trkpt>
<trkpt lat="33.556731" lon="126.751038"><ele>7.921107</ele><time>2026-04-21T04:04:25Z</time></trkpt>
<trkpt lat="33.556675" lon="126.750952"><ele>7.903721</ele><time>2026-04-21T04:04:36Z</time></trkpt>
<trkpt lat="33.556673" lon="126.750837"><ele>7.123099</ele><time>2026-04-21T04:04:44Z</time></trkpt>
<trkpt lat="33.556668" lon="126.750721"><ele>6.560483</ele><time>2026-04-21T04:05:00Z</time></trkpt>
<trkpt lat="33.556673" lon="126.750606"><ele>8.26804</ele><time>2026-04-21T04:05:15Z</time></trkpt>
<trkpt lat="33.556671" lon="126.750498"><ele>6.930352</ele><time>2026-04-21T04:05:22Z</time></trkpt>
<trkpt lat="33.556683" lon="126.750383"><ele>6.569237</ele><time>2026-04-21T04:05:30Z</time></trkpt>
<trkpt lat="33.556693" lon="126.750265"><ele>6.586906</ele><time>2026-04-21T04:05:39Z</time></trkpt>
<trkpt lat="33.556706" lon="126.750146"><ele>7.759791</ele><time>2026-04-21T04:05:48Z</time></trkpt>
<trkpt lat="33.556708" lon="126.750036"><ele>8.164625</ele><time>2026-04-21T04:05:56Z</time></trkpt>
<trkpt lat="33.556697" lon="126.749919"><ele>6.615688</ele><time>2026-04-21T04:06:04Z</time></trkpt>
<trkpt lat="33.556686" lon="126.749807"><ele>5.942778</ele><time>2026-04-21T04:06:12Z</time></trkpt>
<trkpt lat="33.556622" lon="126.749730"><ele>5.858221</ele><time>2026-04-21T04:06:20Z</time></trkpt>
<trkpt lat="33.556528" lon="126.749735"><ele>5.939237</ele><time>2026-04-21T04:06:28Z</time></trkpt>
<trkpt lat="33.556430" lon="126.749749"><ele>6.174724</ele><time>2026-04-21T04:06:37Z</time></trkpt>
<trkpt lat="33.556334" lon="126.749760"><ele>6.942791</ele><time>2026-04-21T04:06:47Z</time></trkpt>
<trkpt lat="33.556240" lon="126.749778"><ele>7.154482</ele><time>2026-04-21T04:06:55Z</time></trkpt>
<trkpt lat="33.556143" lon="126.749790"><ele>7.59863</ele><time>2026-04-21T04:07:10Z</time></trkpt>
<trkpt lat="33.556054" lon="126.749766"><ele>8.404284</ele><time>2026-04-21T04:08:04Z</time></trkpt>
<trkpt lat="33.555963" lon="126.749727"><ele>8.243527</ele><time>2026-04-21T04:08:17Z</time></trkpt>
<trkpt lat="33.555869" lon="126.749738"><ele>9.231865</ele><time>2026-04-21T04:08:28Z</time></trkpt>
<trkpt lat="33.555765" lon="126.749783"><ele>11.255679</ele><time>2026-04-21T04:08:38Z</time></trkpt>
<trkpt lat="33.555680" lon="126.749833"><ele>12.910272</ele><time>2026-04-21T04:08:46Z</time></trkpt>
<trkpt lat="33.555583" lon="126.749841"><ele>11.72356</ele><time>2026-04-21T04:08:56Z</time></trkpt>
<trkpt lat="33.555488" lon="126.749819"><ele>11.550825</ele><time>2026-04-21T04:09:05Z</time></trkpt>
<trkpt lat="33.555457" lon="126.749709"><ele>11.442401</ele><time>2026-04-21T04:09:13Z</time></trkpt>
<trkpt lat="33.555401" lon="126.749616"><ele>9.96341</ele><time>2026-04-21T04:09:21Z</time></trkpt>
<trkpt lat="33.555341" lon="126.749527"><ele>10.66523</ele><time>2026-04-21T04:09:29Z</time></trkpt>
<trkpt lat="33.555249" lon="126.749485"><ele>10.829152</ele><time>2026-04-21T04:09:38Z</time></trkpt>
<trkpt lat="33.555158" lon="126.749503"><ele>11.705585</ele><time>2026-04-21T04:09:46Z</time></trkpt>
<trkpt lat="33.555069" lon="126.749533"><ele>12.168956</ele><time>2026-04-21T04:09:53Z</time></trkpt>
<trkpt lat="33.554975" lon="126.749552"><ele>11.592503</ele><time>2026-04-21T04:10:03Z</time></trkpt>
<trkpt lat="33.554875" lon="126.749574"><ele>11.620123</ele><time>2026-04-21T04:10:11Z</time></trkpt>
<trkpt lat="33.554783" lon="126.749585"><ele>12.576881</ele><time>2026-04-21T04:10:19Z</time></trkpt>
<trkpt lat="33.554693" lon="126.749587"><ele>11.415746</ele><time>2026-04-21T04:10:27Z</time></trkpt>
<trkpt lat="33.554591" lon="126.749594"><ele>11.805671</ele><time>2026-04-21T04:10:36Z</time></trkpt>
<trkpt lat="33.554508" lon="126.749550"><ele>13.435922</ele><time>2026-04-21T04:10:50Z</time></trkpt>
<trkpt lat="33.554476" lon="126.749442"><ele>13.841443</ele><time>2026-04-21T04:10:59Z</time></trkpt>
<trkpt lat="33.554422" lon="126.749350"><ele>12.468086</ele><time>2026-04-21T04:11:10Z</time></trkpt>
<trkpt lat="33.554375" lon="126.749253"><ele>12.651067</ele><time>2026-04-21T04:11:21Z</time></trkpt>
<trkpt lat="33.554324" lon="126.749159"><ele>13.353577</ele><time>2026-04-21T04:11:29Z</time></trkpt>
<trkpt lat="33.554298" lon="126.749053"><ele>12.050796</ele><time>2026-04-21T04:11:40Z</time></trkpt>
<trkpt lat="33.554385" lon="126.749008"><ele>12.139198</ele><time>2026-04-21T04:11:48Z</time></trkpt>
<trkpt lat="33.554481" lon="126.749000"><ele>9.011682</ele><time>2026-04-21T04:11:55Z</time></trkpt>
<trkpt lat="33.554567" lon="126.748948"><ele>8.491935</ele><time>2026-04-21T04:12:05Z</time></trkpt>
<trkpt lat="33.554646" lon="126.748878"><ele>7.977914</ele><time>2026-04-21T04:12:14Z</time></trkpt>
<trkpt lat="33.554692" lon="126.748774"><ele>7.010306</ele><time>2026-04-21T04:12:23Z</time></trkpt>
<trkpt lat="33.554717" lon="126.748667"><ele>7.750242</ele><time>2026-04-21T04:12:31Z</time></trkpt>
<trkpt lat="33.554745" lon="126.748557"><ele>7.306973</ele><time>2026-04-21T04:12:40Z</time></trkpt>
<trkpt lat="33.554829" lon="126.748497"><ele>7.1113</ele><time>2026-04-21T04:12:49Z</time></trkpt>
<trkpt lat="33.554915" lon="126.748454"><ele>6.751368</ele><time>2026-04-21T04:12:57Z</time></trkpt>
<trkpt lat="33.554968" lon="126.748360"><ele>6.398924</ele><time>2026-04-21T04:13:06Z</time></trkpt>
<trkpt lat="33.555017" lon="126.748267"><ele>6.397858</ele><time>2026-04-21T04:13:14Z</time></trkpt>
<trkpt lat="33.555094" lon="126.748208"><ele>7.67713</ele><time>2026-04-21T04:13:22Z</time></trkpt>
<trkpt lat="33.555182" lon="126.748176"><ele>7.009384</ele><time>2026-04-21T04:13:30Z</time></trkpt>
<trkpt lat="33.555274" lon="126.748155"><ele>6.405492</ele><time>2026-04-21T04:13:38Z</time></trkpt>
<trkpt lat="33.555364" lon="126.748138"><ele>6.832349</ele><time>2026-04-21T04:13:46Z</time></trkpt>
<trkpt lat="33.555463" lon="126.748119"><ele>6.90308</ele><time>2026-04-21T04:13:55Z</time></trkpt>
<trkpt lat="33.555554" lon="126.748116"><ele>7.062179</ele><time>2026-04-21T04:14:04Z</time></trkpt>
<trkpt lat="33.555650" lon="126.748152"><ele>6.343783</ele><time>2026-04-21T04:14:11Z</time></trkpt>
<trkpt lat="33.555723" lon="126.748077"><ele>5.892895</ele><time>2026-04-21T04:14:23Z</time></trkpt>
<trkpt lat="33.555749" lon="126.747966"><ele>6.744413</ele><time>2026-04-21T04:14:32Z</time></trkpt>
<trkpt lat="33.555804" lon="126.747868"><ele>7.189553</ele><time>2026-04-21T04:14:41Z</time></trkpt>
<trkpt lat="33.555823" lon="126.747756"><ele>6.863898</ele><time>2026-04-21T04:15:00Z</time></trkpt>
<trkpt lat="33.555762" lon="126.747677"><ele>7.412698</ele><time>2026-04-21T04:15:09Z</time></trkpt>
<trkpt lat="33.555741" lon="126.747559"><ele>8.060756</ele><time>2026-04-21T04:15:17Z</time></trkpt>
<trkpt lat="33.555691" lon="126.747469"><ele>7.985738</ele><time>2026-04-21T04:15:25Z</time></trkpt>
<trkpt lat="33.555657" lon="126.747367"><ele>7.583211</ele><time>2026-04-21T04:15:33Z</time></trkpt>
<trkpt lat="33.555654" lon="126.747250"><ele>8.349517</ele><time>2026-04-21T04:15:42Z</time></trkpt>
<trkpt lat="33.555743" lon="126.747208"><ele>8.246772</ele><time>2026-04-21T04:15:52Z</time></trkpt>
<trkpt lat="33.555843" lon="126.747213"><ele>7.669696</ele><time>2026-04-21T04:16:00Z</time></trkpt>
<trkpt lat="33.555936" lon="126.747208"><ele>7.899901</ele><time>2026-04-21T04:16:08Z</time></trkpt>
<trkpt lat="33.556026" lon="126.747189"><ele>7.437255</ele><time>2026-04-21T04:16:15Z</time></trkpt>
<trkpt lat="33.556113" lon="126.747155"><ele>5.03301</ele><time>2026-04-21T04:16:48Z</time></trkpt>
<trkpt lat="33.556205" lon="126.747130"><ele>4.397976</ele><time>2026-04-21T04:16:59Z</time></trkpt>
<trkpt lat="33.556294" lon="126.747076"><ele>5.147851</ele><time>2026-04-21T04:17:09Z</time></trkpt>
<trkpt lat="33.556378" lon="126.747026"><ele>5.356703</ele><time>2026-04-21T04:17:19Z</time></trkpt>
<trkpt lat="33.556465" lon="126.746998"><ele>5.638099</ele><time>2026-04-21T04:17:28Z</time></trkpt>
<trkpt lat="33.556560" lon="126.747039"><ele>5.959951</ele><time>2026-04-21T04:17:37Z</time></trkpt>
<trkpt lat="33.556656" lon="126.747037"><ele>7.247374</ele><time>2026-04-21T04:17:47Z</time></trkpt>
<trkpt lat="33.556751" lon="126.747070"><ele>6.84577</ele><time>2026-04-21T04:17:56Z</time></trkpt>
<trkpt lat="33.556839" lon="126.747108"><ele>5.910291</ele><time>2026-04-21T04:18:05Z</time></trkpt>
<trkpt lat="33.556902" lon="126.747189"><ele>4.131916</ele><time>2026-04-21T04:18:12Z</time></trkpt>
<trkpt lat="33.556962" lon="126.747273"><ele>3.808618</ele><time>2026-04-21T04:18:21Z</time></trkpt>
<trkpt lat="33.557028" lon="126.747353"><ele>3.688484</ele><time>2026-04-21T04:18:30Z</time></trkpt>
<trkpt lat="33.557090" lon="126.747439"><ele>3.823556</ele><time>2026-04-21T04:18:39Z</time></trkpt>
<trkpt lat="33.557149" lon="126.747532"><ele>2.914651</ele><time>2026-04-21T04:19:36Z</time></trkpt>
<trkpt lat="33.557180" lon="126.747636"><ele>3.141418</ele><time>2026-04-21T04:19:45Z</time></trkpt>
<trkpt lat="33.557242" lon="126.747728"><ele>3.874945</ele><time>2026-04-21T04:20:04Z</time></trkpt>
<trkpt lat="33.557330" lon="126.747785"><ele>3.686764</ele><time>2026-04-21T04:20:13Z</time></trkpt>
<trkpt lat="33.557402" lon="126.747863"><ele>3.015778</ele><time>2026-04-21T04:20:21Z</time></trkpt>
<trkpt lat="33.557462" lon="126.747954"><ele>2.655024</ele><time>2026-04-21T04:20:30Z</time></trkpt>
<trkpt lat="33.557538" lon="126.748014"><ele>2.962794</ele><time>2026-04-21T04:20:41Z</time></trkpt>
<trkpt lat="33.557625" lon="126.748069"><ele>2.4131</ele><time>2026-04-21T04:20:50Z</time></trkpt>
<trkpt lat="33.557710" lon="126.748128"><ele>2.851347</ele><time>2026-04-21T04:20:59Z</time></trkpt>
<trkpt lat="33.557791" lon="126.748196"><ele>3.044034</ele><time>2026-04-21T04:21:08Z</time></trkpt>
<trkpt lat="33.557843" lon="126.748287"><ele>2.983529</ele><time>2026-04-21T04:21:35Z</time></trkpt>
<trkpt lat="33.557879" lon="126.748394"><ele>2.199601</ele><time>2026-04-21T04:21:47Z</time></trkpt>
<trkpt lat="33.557892" lon="126.748504"><ele>1.525207</ele><time>2026-04-21T04:21:56Z</time></trkpt>
<trkpt lat="33.557801" lon="126.748530"><ele>2.890477</ele><time>2026-04-21T04:22:06Z</time></trkpt>
<trkpt lat="33.557704" lon="126.748539"><ele>2.998492</ele><time>2026-04-21T04:22:15Z</time></trkpt>
<trkpt lat="33.557608" lon="126.748523"><ele>3.151634</ele><time>2026-04-21T04:22:23Z</time></trkpt>
<trkpt lat="33.557517" lon="126.748552"><ele>2.857195</ele><time>2026-04-21T04:22:32Z</time></trkpt>
<trkpt lat="33.557427" lon="126.748593"><ele>4.568883</ele><time>2026-04-21T04:22:48Z</time></trkpt>
<trkpt lat="33.557379" lon="126.748686"><ele>2.81574</ele><time>2026-04-21T04:22:59Z</time></trkpt>
<trkpt lat="33.557295" lon="126.748732"><ele>4.347604</ele><time>2026-04-21T04:23:08Z</time></trkpt>
<trkpt lat="33.557196" lon="126.748757"><ele>5.191607</ele><time>2026-04-21T04:23:17Z</time></trkpt>
<trkpt lat="33.557105" lon="126.748737"><ele>4.530917</ele><time>2026-04-21T04:23:25Z</time></trkpt>
<trkpt lat="33.557010" lon="126.748708"><ele>4.896535</ele><time>2026-04-21T04:23:42Z</time></trkpt>
<trkpt lat="33.556911" lon="126.748692"><ele>4.417319</ele><time>2026-04-21T04:23:51Z</time></trkpt>
<trkpt lat="33.556823" lon="126.748667"><ele>4.607766</ele><time>2026-04-21T04:23:59Z</time></trkpt>
<trkpt lat="33.556741" lon="126.748609"><ele>3.42426</ele><time>2026-04-21T04:24:07Z</time></trkpt>
<trkpt lat="33.556659" lon="126.748548"><ele>3.53917</ele><time>2026-04-21T04:24:16Z</time></trkpt>
<trkpt lat="33.556609" lon="126.748448"><ele>3.312795</ele><time>2026-04-21T04:24:24Z</time></trkpt>
<trkpt lat="33.556533" lon="126.748387"><ele>3.667322</ele><time>2026-04-21T04:24:32Z</time></trkpt>
<trkpt lat="33.556435" lon="126.748389"><ele>3.554779</ele><time>2026-04-21T04:24:42Z</time></trkpt>
<trkpt lat="33.556337" lon="126.748378"><ele>3.654741</ele><time>2026-04-21T04:24:51Z</time></trkpt>
<trkpt lat="33.556260" lon="126.748292"><ele>6.182895</ele><time>2026-04-21T04:25:02Z</time></trkpt>
<trkpt lat="33.556201" lon="126.748207"><ele>7.12881</ele><time>2026-04-21T04:25:10Z</time></trkpt>
<trkpt lat="33.556144" lon="126.748120"><ele>5.824114</ele><time>2026-04-21T04:25:23Z</time></trkpt>
<trkpt lat="33.556059" lon="126.748172"><ele>5.942096</ele><time>2026-04-21T04:25:39Z</time></trkpt>
<trkpt lat="33.555962" lon="126.748192"><ele>7.996721</ele><time>2026-04-21T04:25:48Z</time></trkpt>
<trkpt lat="33.555862" lon="126.748192"><ele>7.526953</ele><time>2026-04-21T04:25:57Z</time></trkpt>
<trkpt lat="33.555772" lon="126.748178"><ele>5.762181</ele><time>2026-04-21T04:26:05Z</time></trkpt>
<trkpt lat="33.555681" lon="126.748161"><ele>5.621579</ele><time>2026-04-21T04:26:14Z</time></trkpt>
<trkpt lat="33.555590" lon="126.748128"><ele>5.327574</ele><time>2026-04-21T04:26:23Z</time></trkpt>
<trkpt lat="33.555494" lon="126.748117"><ele>6.976745</ele><time>2026-04-21T04:26:31Z</time></trkpt>
<trkpt lat="33.555406" lon="126.748141"><ele>6.937528</ele><time>2026-04-21T04:26:39Z</time></trkpt>
<trkpt lat="33.555306" lon="126.748160"><ele>5.817091</ele><time>2026-04-21T04:26:48Z</time></trkpt>
<trkpt lat="33.555215" lon="126.748176"><ele>6.089919</ele><time>2026-04-21T04:26:55Z</time></trkpt>
<trkpt lat="33.555123" lon="126.748197"><ele>4.551508</ele><time>2026-04-21T04:27:04Z</time></trkpt>
<trkpt lat="33.555039" lon="126.748252"><ele>6.09036</ele><time>2026-04-21T04:27:12Z</time></trkpt>
<trkpt lat="33.554978" lon="126.748334"><ele>6.337096</ele><time>2026-04-21T04:27:20Z</time></trkpt>
<trkpt lat="33.554928" lon="126.748437"><ele>6.884149</ele><time>2026-04-21T04:27:29Z</time></trkpt>
<trkpt lat="33.554842" lon="126.748495"><ele>6.184585</ele><time>2026-04-21T04:27:39Z</time></trkpt>
<trkpt lat="33.554757" lon="126.748551"><ele>6.855713</ele><time>2026-04-21T04:27:48Z</time></trkpt>
<trkpt lat="33.554735" lon="126.748660"><ele>6.588678</ele><time>2026-04-21T04:27:58Z</time></trkpt>
<trkpt lat="33.554708" lon="126.748767"><ele>7.403715</ele><time>2026-04-21T04:28:05Z</time></trkpt>
<trkpt lat="33.554673" lon="126.748873"><ele>7.279394</ele><time>2026-04-21T04:28:13Z</time></trkpt>
<trkpt lat="33.554593" lon="126.748947"><ele>8.053705</ele><time>2026-04-21T04:28:22Z</time></trkpt>
<trkpt lat="33.554508" lon="126.748997"><ele>10.377953</ele><time>2026-04-21T04:28:31Z</time></trkpt>
<trkpt lat="33.554415" lon="126.749020"><ele>10.941503</ele><time>2026-04-21T04:28:39Z</time></trkpt>
<trkpt lat="33.554329" lon="126.749060"><ele>10.698245</ele><time>2026-04-21T04:28:48Z</time></trkpt>
<trkpt lat="33.554257" lon="126.748989"><ele>13.005028</ele><time>2026-04-21T04:28:56Z</time></trkpt>
<trkpt lat="33.554245" lon="126.748869"><ele>10.95581</ele><time>2026-04-21T04:29:04Z</time></trkpt>
<trkpt lat="33.554225" lon="126.748757"><ele>10.945583</ele><time>2026-04-21T04:29:10Z</time></trkpt>
<trkpt lat="33.554237" lon="126.748635"><ele>9.377726</ele><time>2026-04-21T04:29:18Z</time></trkpt>
<trkpt lat="33.554247" lon="126.748516"><ele>7.85555</ele><time>2026-04-21T04:29:27Z</time></trkpt>
<trkpt lat="33.554252" lon="126.748402"><ele>7.945815</ele><time>2026-04-21T04:29:35Z</time></trkpt>
<trkpt lat="33.554270" lon="126.748294"><ele>6.936214</ele><time>2026-04-21T04:29:43Z</time></trkpt>
<trkpt lat="33.554204" lon="126.748198"><ele>7.667263</ele><time>2026-04-21T04:29:56Z</time></trkpt>
<trkpt lat="33.554122" lon="126.748132"><ele>8.243956</ele><time>2026-04-21T04:30:03Z</time></trkpt>
<trkpt lat="33.554020" lon="126.748100"><ele>7.557393</ele><time>2026-04-21T04:30:11Z</time></trkpt>
<trkpt lat="33.553923" lon="126.748068"><ele>7.158363</ele><time>2026-04-21T04:30:19Z</time></trkpt>
<trkpt lat="33.553830" lon="126.748072"><ele>8.14453</ele><time>2026-04-21T04:30:27Z</time></trkpt>
</trkseg>
</trk>
</gpx>
