<?xml version="1.0" encoding="UTF-8"?>
<gpx creator="GlobalMotionEditor" version="1.1" xmlns="http://www.topografix.com/GPX/1/1">
<metadata>
<name>하르방런</name>
<desc>Bientus, Inc. - www.ramblr.com - Share your outdoor stories on a map!</desc>
<author>
<name></name>
</author>
<link href="https://www.ramblr.com/web/mymap/trip/1320578/10431594"></link>
<time>2026-04-28T01:44:41Z</time>
</metadata>
<trk>
<name>하르방런</name>
<trkseg>
<trkpt lat="33.251090" lon="126.510707"><ele>102.142018</ele><time>2026-04-28T01:44:40Z</time></trkpt>
<trkpt lat="33.251187" lon="126.510707"><ele>106.953716</ele><time>2026-04-28T01:45:17Z</time></trkpt>
<trkpt lat="33.251271" lon="126.510750"><ele>106.776931</ele><time>2026-04-28T01:45:26Z</time></trkpt>
<trkpt lat="33.251363" lon="126.510779"><ele>106.104984</ele><time>2026-04-28T01:45:39Z</time></trkpt>
<trkpt lat="33.251457" lon="126.510811"><ele>105.661376</ele><time>2026-04-28T01:45:52Z</time></trkpt>
<trkpt lat="33.251540" lon="126.510855"><ele>106.954031</ele><time>2026-04-28T01:46:06Z</time></trkpt>
<trkpt lat="33.251636" lon="126.510885"><ele>109.62729</ele><time>2026-04-28T01:46:17Z</time></trkpt>
<trkpt lat="33.251725" lon="126.510908"><ele>110.57218</ele><time>2026-04-28T01:46:32Z</time></trkpt>
<trkpt lat="33.251812" lon="126.510939"><ele>109.678215</ele><time>2026-04-28T01:46:42Z</time></trkpt>
<trkpt lat="33.251900" lon="126.510980"><ele>109.967337</ele><time>2026-04-28T01:46:52Z</time></trkpt>
<trkpt lat="33.251996" lon="126.511005"><ele>110.793861</ele><time>2026-04-28T01:47:01Z</time></trkpt>
<trkpt lat="33.252081" lon="126.511043"><ele>111.980252</ele><time>2026-04-28T01:47:10Z</time></trkpt>
<trkpt lat="33.252171" lon="126.511075"><ele>113.236032</ele><time>2026-04-28T01:47:19Z</time></trkpt>
<trkpt lat="33.252267" lon="126.511100"><ele>114.184481</ele><time>2026-04-28T01:47:28Z</time></trkpt>
<trkpt lat="33.252358" lon="126.511135"><ele>114.297381</ele><time>2026-04-28T01:47:44Z</time></trkpt>
<trkpt lat="33.252450" lon="126.511166"><ele>115.070721</ele><time>2026-04-28T01:47:55Z</time></trkpt>
<trkpt lat="33.252538" lon="126.511199"><ele>115.745482</ele><time>2026-04-28T01:48:04Z</time></trkpt>
<trkpt lat="33.252625" lon="126.511233"><ele>117.131045</ele><time>2026-04-28T01:48:12Z</time></trkpt>
<trkpt lat="33.252716" lon="126.511274"><ele>118.135647</ele><time>2026-04-28T01:48:35Z</time></trkpt>
<trkpt lat="33.252814" lon="126.511299"><ele>118.475729</ele><time>2026-04-28T01:48:43Z</time></trkpt>
<trkpt lat="33.252909" lon="126.511334"><ele>120.685558</ele><time>2026-04-28T01:48:52Z</time></trkpt>
<trkpt lat="33.253004" lon="126.511363"><ele>121.767845</ele><time>2026-04-28T01:49:01Z</time></trkpt>
<trkpt lat="33.253097" lon="126.511390"><ele>122.867626</ele><time>2026-04-28T01:49:09Z</time></trkpt>
<trkpt lat="33.253182" lon="126.511427"><ele>123.3964</ele><time>2026-04-28T01:49:17Z</time></trkpt>
<trkpt lat="33.253276" lon="126.511460"><ele>122.886581</ele><time>2026-04-28T01:49:25Z</time></trkpt>
<trkpt lat="33.253367" lon="126.511507"><ele>124.980193</ele><time>2026-04-28T01:49:34Z</time></trkpt>
<trkpt lat="33.253452" lon="126.511565"><ele>126.524159</ele><time>2026-04-28T01:49:43Z</time></trkpt>
<trkpt lat="33.253544" lon="126.511605"><ele>127.985109</ele><time>2026-04-28T01:49:52Z</time></trkpt>
<trkpt lat="33.253638" lon="126.511630"><ele>128.063341</ele><time>2026-04-28T01:50:02Z</time></trkpt>
<trkpt lat="33.253727" lon="126.511659"><ele>128.565164</ele><time>2026-04-28T01:50:10Z</time></trkpt>
<trkpt lat="33.253817" lon="126.511674"><ele>127.741359</ele><time>2026-04-28T01:50:23Z</time></trkpt>
<trkpt lat="33.253912" lon="126.511704"><ele>130.461752</ele><time>2026-04-28T01:50:33Z</time></trkpt>
<trkpt lat="33.254009" lon="126.511732"><ele>130.525066</ele><time>2026-04-28T01:50:45Z</time></trkpt>
<trkpt lat="33.254096" lon="126.511785"><ele>132.839947</ele><time>2026-04-28T01:50:53Z</time></trkpt>
<trkpt lat="33.254191" lon="126.511788"><ele>132.384135</ele><time>2026-04-28T01:51:11Z</time></trkpt>
<trkpt lat="33.254280" lon="126.511817"><ele>132.937979</ele><time>2026-04-28T01:51:20Z</time></trkpt>
<trkpt lat="33.254338" lon="126.511907"><ele>132.543822</ele><time>2026-04-28T01:51:29Z</time></trkpt>
<trkpt lat="33.254319" lon="126.512015"><ele>134.232333</ele><time>2026-04-28T01:51:39Z</time></trkpt>
<trkpt lat="33.254278" lon="126.512121"><ele>135.356824</ele><time>2026-04-28T01:51:50Z</time></trkpt>
<trkpt lat="33.254251" lon="126.512228"><ele>134.933631</ele><time>2026-04-28T01:51:58Z</time></trkpt>
<trkpt lat="33.254237" lon="126.512335"><ele>135.573228</ele><time>2026-04-28T01:52:07Z</time></trkpt>
<trkpt lat="33.25406769175351" lon="126.5133268111839"><ele>124.3996276855469</ele><time>2026-04-28T01:52:15Z</time></trkpt>
<trkpt lat="33.25412407514431" lon="126.51335012897492"><ele>124.8598327636719</ele><time>2026-04-28T01:52:39Z</time></trkpt>
<trkpt lat="33.25419240249037" lon="126.51336331548309"><ele>125.5132293701172</ele><time>2026-04-28T01:52:48Z</time></trkpt>
<trkpt lat="33.254433" lon="126.512334"><ele>134.618823</ele><time>2026-04-28T01:53:04Z</time></trkpt>
<trkpt lat="33.254454" lon="126.512229"><ele>133.511789</ele><time>2026-04-28T01:53:12Z</time></trkpt>
<trkpt lat="33.254489" lon="126.512122"><ele>133.805115</ele><time>2026-04-28T01:53:20Z</time></trkpt>
<trkpt lat="33.254527" lon="126.512023"><ele>134.316727</ele><time>2026-04-28T01:53:27Z</time></trkpt>
<trkpt lat="33.25458808428622" lon="126.51180706745912"><ele>129.5369110107422</ele><time>2026-04-28T01:53:36Z</time></trkpt>
<trkpt lat="33.2547720462056" lon="126.51186557175829"><ele>130.9876251220703</ele><time>2026-04-28T01:53:45Z</time></trkpt>
<trkpt lat="33.25488798988485" lon="126.51191834722137"><ele>132.0186004638672</ele><time>2026-04-28T01:53:54Z</time></trkpt>
<trkpt lat="33.254986232759975" lon="126.51195871163941"><ele>132.9864501953125</ele><time>2026-04-28T01:54:02Z</time></trkpt>
<trkpt lat="33.255079475635135" lon="126.51198407605746"><ele>133.8747711181641</ele><time>2026-04-28T01:54:11Z</time></trkpt>
<trkpt lat="33.25515253184982" lon="126.51200207605743"><ele>134.5648040771484</ele><time>2026-04-28T01:54:20Z</time></trkpt>
<trkpt lat="33.255235831053376" lon="126.51201239384845"><ele>135.4307556152344</ele><time>2026-04-28T01:54:29Z</time></trkpt>
<trkpt lat="33.2553213732474" lon="126.51197498280331"><ele>136.1666717529297</ele><time>2026-04-28T01:54:38Z</time></trkpt>
<trkpt lat="33.255386700693364" lon="126.51193534722137"><ele>136.8241271972656</ele><time>2026-04-28T01:54:46Z</time></trkpt>
<trkpt lat="33.25544902818288" lon="126.51190634722137"><ele>137.3932342529297</ele><time>2026-04-28T01:54:55Z</time></trkpt>
<trkpt lat="33.25551359866735" lon="126.51184188954925"><ele>137.9610595703125</ele><time>2026-04-28T01:55:11Z</time></trkpt>
<trkpt lat="33.2555778980399" lon="126.51180007605743"><ele>138.6491546630859</ele><time>2026-04-28T01:55:20Z</time></trkpt>
<trkpt lat="33.25565138397562" lon="126.51172812268449"><ele>139.4019622802734</ele><time>2026-04-28T01:55:32Z</time></trkpt>
<trkpt lat="33.255710926326245" lon="126.5116682159386"><ele>140.1306457519531</ele><time>2026-04-28T01:56:04Z</time></trkpt>
<trkpt lat="33.255797898158505" lon="126.51159348710252"><ele>141.2957305908203</ele><time>2026-04-28T01:56:14Z</time></trkpt>
<trkpt lat="33.255874869969475" lon="126.51151144047547"><ele>142.2277984619141</ele><time>2026-04-28T01:56:21Z</time></trkpt>
<trkpt lat="33.25593516941067" lon="126.5114511226845"><ele>143.1307373046875</ele><time>2026-04-28T01:56:29Z</time></trkpt>
<trkpt lat="33.25600744063942" lon="126.51137444047545"><ele>144.0628051757812</ele><time>2026-04-28T01:56:38Z</time></trkpt>
<trkpt lat="33.256066740123075" lon="126.51129707605745"><ele>144.8638153076172</ele><time>2026-04-28T01:56:46Z</time></trkpt>
<trkpt lat="33.25617898315476" lon="126.51113663558199"><ele>146.37841796875</ele><time>2026-04-28T01:57:10Z</time></trkpt>
<trkpt lat="33.25627331628353" lon="126.51103127116392"><ele>147.5871887207031</ele><time>2026-04-28T01:57:16Z</time></trkpt>
<trkpt lat="33.25638884191141" lon="126.51091424173353"><ele>148.6486968994141</ele><time>2026-04-28T01:57:45Z</time></trkpt>
<trkpt lat="33.2565440565916" lon="126.51075278406142"><ele>149.82177734375</ele><time>2026-04-28T01:58:12Z</time></trkpt>
<trkpt lat="33.25662005660719" lon="126.51062813988116"><ele>150.4114685058594</ele><time>2026-04-28T01:58:30Z</time></trkpt>
<trkpt lat="33.256704" lon="126.510527"><ele>158.683774</ele><time>2026-04-28T01:58:38Z</time></trkpt>
<trkpt lat="33.256766" lon="126.510444"><ele>158.494875</ele><time>2026-04-28T01:58:46Z</time></trkpt>
<trkpt lat="33.256812" lon="126.510347"><ele>159.36248</ele><time>2026-04-28T01:58:55Z</time></trkpt>
<trkpt lat="33.256855" lon="126.510252"><ele>159.316288</ele><time>2026-04-28T01:59:02Z</time></trkpt>
<trkpt lat="33.256878" lon="126.510146"><ele>159.635667</ele><time>2026-04-28T01:59:09Z</time></trkpt>
<trkpt lat="33.256879" lon="126.510038"><ele>159.898125</ele><time>2026-04-28T01:59:17Z</time></trkpt>
<trkpt lat="33.256878" lon="126.509916"><ele>159.280021</ele><time>2026-04-28T01:59:24Z</time></trkpt>
<trkpt lat="33.256867" lon="126.509810"><ele>157.790519</ele><time>2026-04-28T01:59:31Z</time></trkpt>
<trkpt lat="33.256842" lon="126.509706"><ele>156.86034</ele><time>2026-04-28T01:59:39Z</time></trkpt>
<trkpt lat="33.256820" lon="126.509593"><ele>155.974723</ele><time>2026-04-28T01:59:47Z</time></trkpt>
<trkpt lat="33.256786" lon="126.509490"><ele>154.955734</ele><time>2026-04-28T01:59:56Z</time></trkpt>
<trkpt lat="33.256760" lon="126.509376"><ele>154.55256</ele><time>2026-04-28T02:00:05Z</time></trkpt>
<trkpt lat="33.256733" lon="126.509266"><ele>153.501284</ele><time>2026-04-28T02:00:14Z</time></trkpt>
<trkpt lat="33.256699" lon="126.509157"><ele>154.159636</ele><time>2026-04-28T02:00:23Z</time></trkpt>
<trkpt lat="33.256675" lon="126.509042"><ele>151.712825</ele><time>2026-04-28T02:00:32Z</time></trkpt>
<trkpt lat="33.256645" lon="126.508927"><ele>151.472326</ele><time>2026-04-28T02:00:40Z</time></trkpt>
<trkpt lat="33.256605" lon="126.508822"><ele>151.127131</ele><time>2026-04-28T02:00:58Z</time></trkpt>
<trkpt lat="33.256586" lon="126.508716"><ele>148.991261</ele><time>2026-04-28T02:01:06Z</time></trkpt>
<trkpt lat="33.256552" lon="126.508611"><ele>148.323709</ele><time>2026-04-28T02:01:14Z</time></trkpt>
<trkpt lat="33.256532" lon="126.508502"><ele>147.331519</ele><time>2026-04-28T02:01:22Z</time></trkpt>
<trkpt lat="33.256502" lon="126.508388"><ele>146.16357</ele><time>2026-04-28T02:01:31Z</time></trkpt>
<trkpt lat="33.256470" lon="126.508275"><ele>145.909568</ele><time>2026-04-28T02:01:39Z</time></trkpt>
<trkpt lat="33.256440" lon="126.508159"><ele>145.12396</ele><time>2026-04-28T02:01:47Z</time></trkpt>
<trkpt lat="33.256413" lon="126.508054"><ele>144.035323</ele><time>2026-04-28T02:01:55Z</time></trkpt>
<trkpt lat="33.256366" lon="126.507945"><ele>143.117468</ele><time>2026-04-28T02:02:03Z</time></trkpt>
<trkpt lat="33.256305" lon="126.507850"><ele>141.477918</ele><time>2026-04-28T02:02:11Z</time></trkpt>
<trkpt lat="33.256249" lon="126.507765"><ele>140.12546</ele><time>2026-04-28T02:02:18Z</time></trkpt>
<trkpt lat="33.256180" lon="126.507690"><ele>140.38807</ele><time>2026-04-28T02:02:25Z</time></trkpt>
<trkpt lat="33.256109" lon="126.507621"><ele>138.660483</ele><time>2026-04-28T02:02:34Z</time></trkpt>
<trkpt lat="33.256033" lon="126.507562"><ele>137.587249</ele><time>2026-04-28T02:02:48Z</time></trkpt>
<trkpt lat="33.255944" lon="126.507528"><ele>136.233785</ele><time>2026-04-28T02:02:56Z</time></trkpt>
<trkpt lat="33.255847" lon="126.507497"><ele>135.477544</ele><time>2026-04-28T02:03:05Z</time></trkpt>
<trkpt lat="33.255761" lon="126.507460"><ele>135.221764</ele><time>2026-04-28T02:03:41Z</time></trkpt>
<trkpt lat="33.255769" lon="126.507346"><ele>136.165974</ele><time>2026-04-28T02:04:11Z</time></trkpt>
<trkpt lat="33.255771" lon="126.507231"><ele>136.097499</ele><time>2026-04-28T02:04:20Z</time></trkpt>
<trkpt lat="33.255762" lon="126.507118"><ele>133.971411</ele><time>2026-04-28T02:04:29Z</time></trkpt>
<trkpt lat="33.255792" lon="126.507010"><ele>133.80388</ele><time>2026-04-28T02:04:38Z</time></trkpt>
<trkpt lat="33.255814" lon="126.506906"><ele>135.858695</ele><time>2026-04-28T02:04:45Z</time></trkpt>
<trkpt lat="33.255833" lon="126.506799"><ele>136.971987</ele><time>2026-04-28T02:04:52Z</time></trkpt>
<trkpt lat="33.255865" lon="126.506690"><ele>138.432727</ele><time>2026-04-28T02:05:01Z</time></trkpt>
<trkpt lat="33.255903" lon="126.506576"><ele>137.662952</ele><time>2026-04-28T02:05:10Z</time></trkpt>
<trkpt lat="33.255914" lon="126.506463"><ele>138.832994</ele><time>2026-04-28T02:05:18Z</time></trkpt>
<trkpt lat="33.255937" lon="126.506358"><ele>138.343559</ele><time>2026-04-28T02:05:25Z</time></trkpt>
<trkpt lat="33.255968" lon="126.506249"><ele>138.577893</ele><time>2026-04-28T02:05:32Z</time></trkpt>
<trkpt lat="33.256003" lon="126.506147"><ele>138.524814</ele><time>2026-04-28T02:05:40Z</time></trkpt>
<trkpt lat="33.256019" lon="126.506033"><ele>138.714249</ele><time>2026-04-28T02:05:49Z</time></trkpt>
<trkpt lat="33.255924" lon="126.505994"><ele>140.239006</ele><time>2026-04-28T02:05:56Z</time></trkpt>
<trkpt lat="33.255834" lon="126.506025"><ele>138.014623</ele><time>2026-04-28T02:06:06Z</time></trkpt>
<trkpt lat="33.255809" lon="126.506130"><ele>137.671595</ele><time>2026-04-28T02:06:14Z</time></trkpt>
<trkpt lat="33.255789" lon="126.506242"><ele>137.594342</ele><time>2026-04-28T02:06:23Z</time></trkpt>
<trkpt lat="33.255763" lon="126.506348"><ele>136.183523</ele><time>2026-04-28T02:06:30Z</time></trkpt>
<trkpt lat="33.255738" lon="126.506454"><ele>137.620927</ele><time>2026-04-28T02:06:37Z</time></trkpt>
<trkpt lat="33.255707" lon="126.506568"><ele>135.216481</ele><time>2026-04-28T02:06:47Z</time></trkpt>
<trkpt lat="33.255673" lon="126.506684"><ele>134.581173</ele><time>2026-04-28T02:06:55Z</time></trkpt>
<trkpt lat="33.255631" lon="126.506801"><ele>134.577523</ele><time>2026-04-28T02:07:02Z</time></trkpt>
<trkpt lat="33.255607" lon="126.506913"><ele>135.53156</ele><time>2026-04-28T02:07:16Z</time></trkpt>
<trkpt lat="33.255580" lon="126.507025"><ele>135.153118</ele><time>2026-04-28T02:07:25Z</time></trkpt>
<trkpt lat="33.255536" lon="126.507122"><ele>133.325294</ele><time>2026-04-28T02:07:33Z</time></trkpt>
<trkpt lat="33.255491" lon="126.507228"><ele>132.203272</ele><time>2026-04-28T02:07:42Z</time></trkpt>
<trkpt lat="33.255461" lon="126.507332"><ele>131.750307</ele><time>2026-04-28T02:07:50Z</time></trkpt>
<trkpt lat="33.255431" lon="126.507440"><ele>133.91393</ele><time>2026-04-28T02:07:58Z</time></trkpt>
<trkpt lat="33.255405" lon="126.507554"><ele>134.556814</ele><time>2026-04-28T02:08:06Z</time></trkpt>
<trkpt lat="33.255379" lon="126.507659"><ele>134.923845</ele><time>2026-04-28T02:08:13Z</time></trkpt>
<trkpt lat="33.255353" lon="126.507771"><ele>135.587034</ele><time>2026-04-28T02:08:21Z</time></trkpt>
<trkpt lat="33.255324" lon="126.507873"><ele>134.378317</ele><time>2026-04-28T02:08:29Z</time></trkpt>
<trkpt lat="33.255291" lon="126.507979"><ele>134.382018</ele><time>2026-04-28T02:08:38Z</time></trkpt>
<trkpt lat="33.255274" lon="126.508096"><ele>135.803811</ele><time>2026-04-28T02:08:45Z</time></trkpt>
<trkpt lat="33.255250" lon="126.508206"><ele>136.60647</ele><time>2026-04-28T02:08:54Z</time></trkpt>
<trkpt lat="33.255212" lon="126.508316"><ele>136.479968</ele><time>2026-04-28T02:09:03Z</time></trkpt>
<trkpt lat="33.255183" lon="126.508427"><ele>136.196566</ele><time>2026-04-28T02:09:10Z</time></trkpt>
<trkpt lat="33.255132" lon="126.508528"><ele>135.997771</ele><time>2026-04-28T02:09:18Z</time></trkpt>
<trkpt lat="33.255102" lon="126.508645"><ele>133.751757</ele><time>2026-04-28T02:09:27Z</time></trkpt>
<trkpt lat="33.255087" lon="126.508760"><ele>136.037181</ele><time>2026-04-28T02:09:34Z</time></trkpt>
<trkpt lat="33.255056" lon="126.508864"><ele>139.332912</ele><time>2026-04-28T02:09:41Z</time></trkpt>
<trkpt lat="33.255025" lon="126.508972"><ele>139.641861</ele><time>2026-04-28T02:09:49Z</time></trkpt>
<trkpt lat="33.254968" lon="126.509056"><ele>136.943991</ele><time>2026-04-28T02:09:57Z</time></trkpt>
<trkpt lat="33.254896" lon="126.509127"><ele>133.879164</ele><time>2026-04-28T02:10:05Z</time></trkpt>
<trkpt lat="33.254815" lon="126.509193"><ele>131.577396</ele><time>2026-04-28T02:10:13Z</time></trkpt>
<trkpt lat="33.254740" lon="126.509279"><ele>131.278146</ele><time>2026-04-28T02:10:21Z</time></trkpt>
<trkpt lat="33.254691" lon="126.509369"><ele>130.983744</ele><time>2026-04-28T02:10:29Z</time></trkpt>
<trkpt lat="33.254682" lon="126.509477"><ele>133.091259</ele><time>2026-04-28T02:10:36Z</time></trkpt>
<trkpt lat="33.254696" lon="126.509598"><ele>132.908813</ele><time>2026-04-28T02:10:45Z</time></trkpt>
<trkpt lat="33.254732" lon="126.509697"><ele>133.244379</ele><time>2026-04-28T02:10:53Z</time></trkpt>
<trkpt lat="33.254780" lon="126.509806"><ele>132.878042</ele><time>2026-04-28T02:11:03Z</time></trkpt>
<trkpt lat="33.254795" lon="126.509913"><ele>132.453529</ele><time>2026-04-28T02:11:11Z</time></trkpt>
<trkpt lat="33.254764" lon="126.510020"><ele>132.178009</ele><time>2026-04-28T02:11:18Z</time></trkpt>
<trkpt lat="33.254722" lon="126.510120"><ele>131.825805</ele><time>2026-04-28T02:11:26Z</time></trkpt>
<trkpt lat="33.254710" lon="126.510232"><ele>132.678101</ele><time>2026-04-28T02:11:33Z</time></trkpt>
<trkpt lat="33.254695" lon="126.510342"><ele>134.859</ele><time>2026-04-28T02:11:40Z</time></trkpt>
<trkpt lat="33.254695" lon="126.510451"><ele>137.030471</ele><time>2026-04-28T02:11:48Z</time></trkpt>
<trkpt lat="33.254661" lon="126.510566"><ele>137.119988</ele><time>2026-04-28T02:11:57Z</time></trkpt>
<trkpt lat="33.254631" lon="126.510668"><ele>137.462762</ele><time>2026-04-28T02:12:05Z</time></trkpt>
<trkpt lat="33.254597" lon="126.510769"><ele>135.752152</ele><time>2026-04-28T02:12:14Z</time></trkpt>
<trkpt lat="33.254570" lon="126.510877"><ele>136.654645</ele><time>2026-04-28T02:12:21Z</time></trkpt>
<trkpt lat="33.254535" lon="126.510983"><ele>137.940505</ele><time>2026-04-28T02:12:30Z</time></trkpt>
<trkpt lat="33.254505" lon="126.511087"><ele>136.726749</ele><time>2026-04-28T02:12:53Z</time></trkpt>
<trkpt lat="33.254484" lon="126.511204"><ele>137.905723</ele><time>2026-04-28T02:13:02Z</time></trkpt>
<trkpt lat="33.254459" lon="126.511313"><ele>137.029218</ele><time>2026-04-28T02:13:11Z</time></trkpt>
<trkpt lat="33.254424" lon="126.511420"><ele>135.361774</ele><time>2026-04-28T02:13:19Z</time></trkpt>
<trkpt lat="33.254353990796524" lon="126.51175732887076"><ele>127.7152252197266</ele><time>2026-04-28T02:13:26Z</time></trkpt>
<trkpt lat="33.254418" lon="126.511425"><ele>132.903182</ele><time>2026-04-28T02:14:00Z</time></trkpt>
<trkpt lat="33.254444" lon="126.511307"><ele>136.326329</ele><time>2026-04-28T02:14:09Z</time></trkpt>
<trkpt lat="33.254467" lon="126.511194"><ele>136.467246</ele><time>2026-04-28T02:14:19Z</time></trkpt>
<trkpt lat="33.254495" lon="126.511086"><ele>137.541828</ele><time>2026-04-28T02:14:27Z</time></trkpt>
<trkpt lat="33.254527" lon="126.510983"><ele>138.402045</ele><time>2026-04-28T02:14:34Z</time></trkpt>
<trkpt lat="33.25456398104293" lon="126.51087499999998"><ele>130.6611785888672</ele><time>2026-04-28T02:14:44Z</time></trkpt>
<trkpt lat="33.254426" lon="126.510833"><ele>139.704923</ele><time>2026-04-28T02:14:54Z</time></trkpt>
<trkpt lat="33.254326" lon="126.510793"><ele>138.052772</ele><time>2026-04-28T02:15:02Z</time></trkpt>
<trkpt lat="33.254242" lon="126.510744"><ele>135.788226</ele><time>2026-04-28T02:15:11Z</time></trkpt>
<trkpt lat="33.254147" lon="126.510710"><ele>133.446769</ele><time>2026-04-28T02:15:19Z</time></trkpt>
<trkpt lat="33.254052" lon="126.510673"><ele>132.282792</ele><time>2026-04-28T02:15:28Z</time></trkpt>
<trkpt lat="33.253952" lon="126.510644"><ele>132.896845</ele><time>2026-04-28T02:15:36Z</time></trkpt>
<trkpt lat="33.253881" lon="126.510571"><ele>130.633101</ele><time>2026-04-28T02:15:44Z</time></trkpt>
<trkpt lat="33.253874" lon="126.510459"><ele>129.739871</ele><time>2026-04-28T02:15:52Z</time></trkpt>
<trkpt lat="33.253906" lon="126.510352"><ele>130.842603</ele><time>2026-04-28T02:16:00Z</time></trkpt>
<trkpt lat="33.253937" lon="126.510248"><ele>130.712152</ele><time>2026-04-28T02:16:07Z</time></trkpt>
<trkpt lat="33.253964" lon="126.510131"><ele>130.854445</ele><time>2026-04-28T02:16:15Z</time></trkpt>
<trkpt lat="33.254007" lon="126.510029"><ele>130.549898</ele><time>2026-04-28T02:16:24Z</time></trkpt>
<trkpt lat="33.254100" lon="126.510047"><ele>132.723569</ele><time>2026-04-28T02:16:32Z</time></trkpt>
<trkpt lat="33.25419933642648" lon="126.51007056564143"><ele>126.5633316040039</ele><time>2026-04-28T02:16:39Z</time></trkpt>
<trkpt lat="33.254280" lon="126.510094"><ele>136.428346</ele><time>2026-04-28T02:16:47Z</time></trkpt>
<trkpt lat="33.254363" lon="126.510154"><ele>137.709227</ele><time>2026-04-28T02:16:54Z</time></trkpt>
<trkpt lat="33.254463" lon="126.510166"><ele>138.621139</ele><time>2026-04-28T02:17:02Z</time></trkpt>
<trkpt lat="33.254554" lon="126.510194"><ele>139.269481</ele><time>2026-04-28T02:17:09Z</time></trkpt>
<trkpt lat="33.254639" lon="126.510229"><ele>142.49097</ele><time>2026-04-28T02:17:17Z</time></trkpt>
<trkpt lat="33.254720" lon="126.510285"><ele>143.017236</ele><time>2026-04-28T02:17:24Z</time></trkpt>
<trkpt lat="33.254630" lon="126.510230"><ele>141.584698</ele><time>2026-04-28T02:17:33Z</time></trkpt>
<trkpt lat="33.254544" lon="126.510190"><ele>140.940531</ele><time>2026-04-28T02:17:40Z</time></trkpt>
<trkpt lat="33.25447027106171" lon="126.51015727976227"><ele>128.7265167236328</ele><time>2026-04-28T02:17:48Z</time></trkpt>
<trkpt lat="33.25436817763557" lon="126.51014769080736"><ele>128.0701446533203</ele><time>2026-04-28T02:17:55Z</time></trkpt>
<trkpt lat="33.254290" lon="126.510098"><ele>135.024806</ele><time>2026-04-28T02:18:01Z</time></trkpt>
<trkpt lat="33.254199" lon="126.510064"><ele>134.636123</ele><time>2026-04-28T02:18:08Z</time></trkpt>
<trkpt lat="33.254107" lon="126.510052"><ele>138.412748</ele><time>2026-04-28T02:18:17Z</time></trkpt>
<trkpt lat="33.254005" lon="126.510042"><ele>138.1935</ele><time>2026-04-28T02:18:26Z</time></trkpt>
<trkpt lat="33.253913" lon="126.509987"><ele>134.927171</ele><time>2026-04-28T02:18:34Z</time></trkpt>
<trkpt lat="33.25382490651821" lon="126.50994891534422"><ele>122.7185516357422</ele><time>2026-04-28T02:18:42Z</time></trkpt>
<trkpt lat="33.25373771952789" lon="126.50992455952455"><ele>121.888427734375</ele><time>2026-04-28T02:18:48Z</time></trkpt>
<trkpt lat="33.25365866349895" lon="126.50988693865776"><ele>121.0583038330078</ele><time>2026-04-28T02:18:53Z</time></trkpt>
<trkpt lat="33.253567270992164" lon="126.50985172883603"><ele>120.0971069335938</ele><time>2026-04-28T02:19:01Z</time></trkpt>
<trkpt lat="33.253476027980305" lon="126.50981406994059"><ele>119.1068954467773</ele><time>2026-04-28T02:19:10Z</time></trkpt>
<trkpt lat="33.253383" lon="126.509777"><ele>123.956995</ele><time>2026-04-28T02:19:18Z</time></trkpt>
<trkpt lat="33.253290" lon="126.509739"><ele>122.182723</ele><time>2026-04-28T02:19:26Z</time></trkpt>
<trkpt lat="33.25319093439703" lon="126.50970413988112"><ele>116.0657043457031</ele><time>2026-04-28T02:19:34Z</time></trkpt>
<trkpt lat="33.253218" lon="126.509562"><ele>120.97223</ele><time>2026-04-28T02:19:43Z</time></trkpt>
<trkpt lat="33.253252" lon="126.509455"><ele>120.329895</ele><time>2026-04-28T02:19:51Z</time></trkpt>
<trkpt lat="33.253282" lon="126.509344"><ele>119.542037</ele><time>2026-04-28T02:19:58Z</time></trkpt>
<trkpt lat="33.253303" lon="126.509229"><ele>119.305211</ele><time>2026-04-28T02:20:06Z</time></trkpt>
<trkpt lat="33.253332" lon="126.509123"><ele>120.25176</ele><time>2026-04-28T02:20:14Z</time></trkpt>
<trkpt lat="33.253366" lon="126.509012"><ele>119.829144</ele><time>2026-04-28T02:20:22Z</time></trkpt>
<trkpt lat="33.253394" lon="126.508904"><ele>120.358609</ele><time>2026-04-28T02:20:29Z</time></trkpt>
<trkpt lat="33.253427" lon="126.508802"><ele>120.168755</ele><time>2026-04-28T02:20:44Z</time></trkpt>
<trkpt lat="33.253447" lon="126.508688"><ele>119.014438</ele><time>2026-04-28T02:20:52Z</time></trkpt>
<trkpt lat="33.253481" lon="126.508584"><ele>118.853592</ele><time>2026-04-28T02:21:01Z</time></trkpt>
<trkpt lat="33.253500" lon="126.508477"><ele>119.249965</ele><time>2026-04-28T02:21:07Z</time></trkpt>
<trkpt lat="33.253509" lon="126.508357"><ele>121.08265</ele><time>2026-04-28T02:21:22Z</time></trkpt>
<trkpt lat="33.253546" lon="126.508259"><ele>123.424755</ele><time>2026-04-28T02:21:33Z</time></trkpt>
<trkpt lat="33.253637" lon="126.508226"><ele>122.402575</ele><time>2026-04-28T02:21:47Z</time></trkpt>
<trkpt lat="33.253730" lon="126.508252"><ele>123.528473</ele><time>2026-04-28T02:21:55Z</time></trkpt>
<trkpt lat="33.253823" lon="126.508278"><ele>123.368532</ele><time>2026-04-28T02:22:03Z</time></trkpt>
<trkpt lat="33.253921" lon="126.508292"><ele>125.135704</ele><time>2026-04-28T02:22:13Z</time></trkpt>
<trkpt lat="33.254010" lon="126.508317"><ele>130.590074</ele><time>2026-04-28T02:22:24Z</time></trkpt>
<trkpt lat="33.254096" lon="126.508357"><ele>129.852024</ele><time>2026-04-28T02:22:31Z</time></trkpt>
<trkpt lat="33.254188" lon="126.508372"><ele>129.151442</ele><time>2026-04-28T02:22:38Z</time></trkpt>
<trkpt lat="33.254279" lon="126.508390"><ele>128.439373</ele><time>2026-04-28T02:22:45Z</time></trkpt>
<trkpt lat="33.254365" lon="126.508424"><ele>128.649153</ele><time>2026-04-28T02:22:51Z</time></trkpt>
<trkpt lat="33.254450" lon="126.508474"><ele>129.538594</ele><time>2026-04-28T02:23:01Z</time></trkpt>
<trkpt lat="33.25453442064505" lon="126.50852850429916"><ele>124.2405776977539</ele><time>2026-04-28T02:23:10Z</time></trkpt>
<trkpt lat="33.25462505619748" lon="126.50855986871723"><ele>125.4726409912109</ele><time>2026-04-28T02:23:17Z</time></trkpt>
<trkpt lat="33.254706205808986" lon="126.50860025644874"><ele>126.4548034667969</ele><time>2026-04-28T02:23:25Z</time></trkpt>
<trkpt lat="33.2548182429706" lon="126.50864286871722"><ele>127.7540435791016</ele><time>2026-04-28T02:23:34Z</time></trkpt>
<trkpt lat="33.25492382226071" lon="126.50869057423971"><ele>128.9032745361328</ele><time>2026-04-28T02:23:44Z</time></trkpt>
<trkpt lat="33.255083232665356" lon="126.50875828836058"><ele>130.3230438232422</ele><time>2026-04-28T02:23:51Z</time></trkpt>
<trkpt lat="33.25503664448117" lon="126.50873986871717"><ele>129.9735260009766</ele><time>2026-04-28T02:24:08Z</time></trkpt>
<trkpt lat="33.254905" lon="126.508683"><ele>137.382664</ele><time>2026-04-28T02:24:16Z</time></trkpt>
<trkpt lat="33.254819" lon="126.508645"><ele>136.740606</ele><time>2026-04-28T02:24:23Z</time></trkpt>
<trkpt lat="33.254728" lon="126.508614"><ele>134.924093</ele><time>2026-04-28T02:24:30Z</time></trkpt>
<trkpt lat="33.254645" lon="126.508569"><ele>134.858929</ele><time>2026-04-28T02:24:38Z</time></trkpt>
<trkpt lat="33.254557" lon="126.508539"><ele>133.209786</ele><time>2026-04-28T02:24:57Z</time></trkpt>
<trkpt lat="33.254468" lon="126.508500"><ele>130.705036</ele><time>2026-04-28T02:25:06Z</time></trkpt>
<trkpt lat="33.254419" lon="126.508409"><ele>134.669997</ele><time>2026-04-28T02:25:17Z</time></trkpt>
<trkpt lat="33.254452" lon="126.508303"><ele>140.925978</ele><time>2026-04-28T02:25:26Z</time></trkpt>
<trkpt lat="33.25446813066105" lon="126.50819972883606"><ele>122.6956558227539</ele><time>2026-04-28T02:25:36Z</time></trkpt>
<trkpt lat="33.254487" lon="126.508096"><ele>137.970647</ele><time>2026-04-28T02:25:42Z</time></trkpt>
<trkpt lat="33.254525" lon="126.507989"><ele>137.389822</ele><time>2026-04-28T02:25:49Z</time></trkpt>
<trkpt lat="33.254587" lon="126.507897"><ele>134.466788</ele><time>2026-04-28T02:25:57Z</time></trkpt>
<trkpt lat="33.25462909339007" lon="126.50791001719664"><ele>123.0110702514648</ele><time>2026-04-28T02:26:06Z</time></trkpt>
<trkpt lat="33.25469196283165" lon="126.50792728836056"><ele>123.8350830078125</ele><time>2026-04-28T02:26:16Z</time></trkpt>
<trkpt lat="33.25477466365649" lon="126.50795491534423"><ele>124.9055480957031</ele><time>2026-04-28T02:26:19Z</time></trkpt>
<trkpt lat="33.254862" lon="126.507984"><ele>134.163318</ele><time>2026-04-28T02:26:35Z</time></trkpt>
<trkpt lat="33.254954" lon="126.508014"><ele>136.992955</ele><time>2026-04-28T02:26:52Z</time></trkpt>
<trkpt lat="33.255043" lon="126.508051"><ele>137.622236</ele><time>2026-04-28T02:26:59Z</time></trkpt>
<trkpt lat="33.2551457288868" lon="126.5081001018524"><ele>129.8060150146484</ele><time>2026-04-28T02:27:11Z</time></trkpt>
<trkpt lat="33.25525879403549" lon="126.50814048958397"><ele>131.0584716796875</ele><time>2026-04-28T02:27:18Z</time></trkpt>
<trkpt lat="33.255303" lon="126.507981"><ele>143.127267</ele><time>2026-04-28T02:27:33Z</time></trkpt>
<trkpt lat="33.255309" lon="126.507871"><ele>141.044597</ele><time>2026-04-28T02:27:41Z</time></trkpt>
<trkpt lat="33.255337" lon="126.507755"><ele>137.726061</ele><time>2026-04-28T02:27:49Z</time></trkpt>
<trkpt lat="33.255368" lon="126.507646"><ele>135.183695</ele><time>2026-04-28T02:28:06Z</time></trkpt>
<trkpt lat="33.255395" lon="126.507532"><ele>134.337825</ele><time>2026-04-28T02:28:14Z</time></trkpt>
<trkpt lat="33.255416" lon="126.507418"><ele>131.128706</ele><time>2026-04-28T02:28:22Z</time></trkpt>
<trkpt lat="33.255367" lon="126.507324"><ele>130.966331</ele><time>2026-04-28T02:28:29Z</time></trkpt>
<trkpt lat="33.255270" lon="126.507283"><ele>129.201221</ele><time>2026-04-28T02:28:38Z</time></trkpt>
<trkpt lat="33.255184" lon="126.507254"><ele>128.133941</ele><time>2026-04-28T02:28:46Z</time></trkpt>
<trkpt lat="33.255096" lon="126.507225"><ele>127.383215</ele><time>2026-04-28T02:28:53Z</time></trkpt>
<trkpt lat="33.255000" lon="126.507194"><ele>128.377865</ele><time>2026-04-28T02:29:01Z</time></trkpt>
<trkpt lat="33.254906" lon="126.507161"><ele>126.871235</ele><time>2026-04-28T02:29:09Z</time></trkpt>
<trkpt lat="33.254812" lon="126.507132"><ele>127.162449</ele><time>2026-04-28T02:29:17Z</time></trkpt>
<trkpt lat="33.254715" lon="126.507098"><ele>125.586112</ele><time>2026-04-28T02:29:35Z</time></trkpt>
<trkpt lat="33.254626" lon="126.507068"><ele>125.966893</ele><time>2026-04-28T02:29:44Z</time></trkpt>
<trkpt lat="33.254534" lon="126.507073"><ele>122.803828</ele><time>2026-04-28T02:29:56Z</time></trkpt>
<trkpt lat="33.254440" lon="126.507036"><ele>123.002766</ele><time>2026-04-28T02:30:05Z</time></trkpt>
<trkpt lat="33.254351" lon="126.506982"><ele>122.767257</ele><time>2026-04-28T02:30:14Z</time></trkpt>
<trkpt lat="33.254260" lon="126.506976"><ele>122.588813</ele><time>2026-04-28T02:30:23Z</time></trkpt>
<trkpt lat="33.254163" lon="126.506934"><ele>121.215832</ele><time>2026-04-28T02:30:30Z</time></trkpt>
<trkpt lat="33.254091" lon="126.506862"><ele>121.671616</ele><time>2026-04-28T02:30:38Z</time></trkpt>
<trkpt lat="33.254003" lon="126.506832"><ele>122.021842</ele><time>2026-04-28T02:30:45Z</time></trkpt>
<trkpt lat="33.253909" lon="126.506823"><ele>118.524243</ele><time>2026-04-28T02:30:56Z</time></trkpt>
<trkpt lat="33.253822" lon="126.506787"><ele>116.928645</ele><time>2026-04-28T02:31:03Z</time></trkpt>
<trkpt lat="33.253735" lon="126.506746"><ele>116.413461</ele><time>2026-04-28T02:31:11Z</time></trkpt>
<trkpt lat="33.253638" lon="126.506709"><ele>115.759192</ele><time>2026-04-28T02:31:19Z</time></trkpt>
<trkpt lat="33.253539" lon="126.506678"><ele>115.130659</ele><time>2026-04-28T02:31:27Z</time></trkpt>
<trkpt lat="33.253445" lon="126.506648"><ele>113.672715</ele><time>2026-04-28T02:31:35Z</time></trkpt>
<trkpt lat="33.253352" lon="126.506610"><ele>112.985576</ele><time>2026-04-28T02:31:58Z</time></trkpt>
<trkpt lat="33.253261" lon="126.506565"><ele>112.675584</ele><time>2026-04-28T02:32:07Z</time></trkpt>
<trkpt lat="33.253170" lon="126.506529"><ele>113.646888</ele><time>2026-04-28T02:32:16Z</time></trkpt>
<trkpt lat="33.253081" lon="126.506490"><ele>111.683357</ele><time>2026-04-28T02:32:26Z</time></trkpt>
<trkpt lat="33.252983" lon="126.506471"><ele>109.325342</ele><time>2026-04-28T02:32:38Z</time></trkpt>
<trkpt lat="33.252898" lon="126.506433"><ele>109.336023</ele><time>2026-04-28T02:32:46Z</time></trkpt>
<trkpt lat="33.252808" lon="126.506401"><ele>109.295744</ele><time>2026-04-28T02:32:54Z</time></trkpt>
<trkpt lat="33.252719" lon="126.506372"><ele>108.753067</ele><time>2026-04-28T02:33:02Z</time></trkpt>
<trkpt lat="33.252627" lon="126.506347"><ele>107.660525</ele><time>2026-04-28T02:33:11Z</time></trkpt>
<trkpt lat="33.252534" lon="126.506340"><ele>107.960439</ele><time>2026-04-28T02:33:32Z</time></trkpt>
<trkpt lat="33.252442" lon="126.506307"><ele>107.31559</ele><time>2026-04-28T02:33:40Z</time></trkpt>
<trkpt lat="33.252349" lon="126.506280"><ele>105.92892</ele><time>2026-04-28T02:33:48Z</time></trkpt>
<trkpt lat="33.252259" lon="126.506244"><ele>103.812454</ele><time>2026-04-28T02:33:57Z</time></trkpt>
<trkpt lat="33.252194" lon="126.506325"><ele>103.563857</ele><time>2026-04-28T02:34:09Z</time></trkpt>
<trkpt lat="33.252172" lon="126.506444"><ele>101.857633</ele><time>2026-04-28T02:34:17Z</time></trkpt>
<trkpt lat="33.252161" lon="126.506564"><ele>103.096261</ele><time>2026-04-28T02:34:24Z</time></trkpt>
<trkpt lat="33.252145" lon="126.506675"><ele>101.915038</ele><time>2026-04-28T02:34:32Z</time></trkpt>
<trkpt lat="33.252115" lon="126.506789"><ele>102.95091</ele><time>2026-04-28T02:34:39Z</time></trkpt>
<trkpt lat="33.252065" lon="126.506893"><ele>103.705381</ele><time>2026-04-28T02:34:47Z</time></trkpt>
<trkpt lat="33.252010" lon="126.506993"><ele>105.332361</ele><time>2026-04-28T02:34:55Z</time></trkpt>
<trkpt lat="33.251974" lon="126.507095"><ele>107.223737</ele><time>2026-04-28T02:35:03Z</time></trkpt>
<trkpt lat="33.251955" lon="126.507209"><ele>107.065635</ele><time>2026-04-28T02:35:11Z</time></trkpt>
<trkpt lat="33.251937" lon="126.507317"><ele>107.129606</ele><time>2026-04-28T02:35:18Z</time></trkpt>
<trkpt lat="33.251930" lon="126.507437"><ele>105.911037</ele><time>2026-04-28T02:35:29Z</time></trkpt>
<trkpt lat="33.251902" lon="126.507551"><ele>106.055475</ele><time>2026-04-28T02:35:36Z</time></trkpt>
<trkpt lat="33.251866" lon="126.507657"><ele>105.124359</ele><time>2026-04-28T02:35:43Z</time></trkpt>
<trkpt lat="33.251838" lon="126.507761"><ele>106.012731</ele><time>2026-04-28T02:35:51Z</time></trkpt>
<trkpt lat="33.251802" lon="126.507872"><ele>104.56954</ele><time>2026-04-28T02:35:59Z</time></trkpt>
<trkpt lat="33.251788" lon="126.507980"><ele>103.810137</ele><time>2026-04-28T02:36:08Z</time></trkpt>
<trkpt lat="33.251764" lon="126.508090"><ele>105.472396</ele><time>2026-04-28T02:36:16Z</time></trkpt>
<trkpt lat="33.251739" lon="126.508202"><ele>107.180283</ele><time>2026-04-28T02:36:23Z</time></trkpt>
<trkpt lat="33.251712" lon="126.508306"><ele>104.530386</ele><time>2026-04-28T02:36:32Z</time></trkpt>
<trkpt lat="33.251681" lon="126.508411"><ele>105.111211</ele><time>2026-04-28T02:36:39Z</time></trkpt>
<trkpt lat="33.251654" lon="126.508524"><ele>105.239432</ele><time>2026-04-28T02:36:47Z</time></trkpt>
<trkpt lat="33.251605" lon="126.508615"><ele>104.307368</ele><time>2026-04-28T02:36:55Z</time></trkpt>
<trkpt lat="33.251579" lon="126.508730"><ele>105.269143</ele><time>2026-04-28T02:37:02Z</time></trkpt>
<trkpt lat="33.251553" lon="126.508836"><ele>105.266323</ele><time>2026-04-28T02:37:09Z</time></trkpt>
<trkpt lat="33.251532" lon="126.508950"><ele>105.542168</ele><time>2026-04-28T02:37:17Z</time></trkpt>
<trkpt lat="33.251504" lon="126.509064"><ele>104.014507</ele><time>2026-04-28T02:37:27Z</time></trkpt>
<trkpt lat="33.251465" lon="126.509176"><ele>103.320554</ele><time>2026-04-28T02:37:35Z</time></trkpt>
<trkpt lat="33.251430" lon="126.509292"><ele>103.618965</ele><time>2026-04-28T02:37:44Z</time></trkpt>
<trkpt lat="33.251394" lon="126.509394"><ele>103.97229</ele><time>2026-04-28T02:37:52Z</time></trkpt>
<trkpt lat="33.251375" lon="126.509505"><ele>104.192924</ele><time>2026-04-28T02:38:00Z</time></trkpt>
<trkpt lat="33.251390" lon="126.509623"><ele>103.199866</ele><time>2026-04-28T02:38:09Z</time></trkpt>
<trkpt lat="33.251373" lon="126.509742"><ele>102.76273</ele><time>2026-04-28T02:38:17Z</time></trkpt>
<trkpt lat="33.251331" lon="126.509852"><ele>103.50591</ele><time>2026-04-28T02:38:24Z</time></trkpt>
<trkpt lat="33.251305" lon="126.509955"><ele>103.103819</ele><time>2026-04-28T02:38:31Z</time></trkpt>
<trkpt lat="33.251272" lon="126.510066"><ele>102.441726</ele><time>2026-04-28T02:38:39Z</time></trkpt>
<trkpt lat="33.251264" lon="126.510174"><ele>102.425328</ele><time>2026-04-28T02:38:47Z</time></trkpt>
<trkpt lat="33.251237" lon="126.510283"><ele>101.9352</ele><time>2026-04-28T02:38:55Z</time></trkpt>
<trkpt lat="33.251202" lon="126.510388"><ele>103.001963</ele><time>2026-04-28T02:39:04Z</time></trkpt>
<trkpt lat="33.251152" lon="126.510494"><ele>104.239222</ele><time>2026-04-28T02:39:12Z</time></trkpt>
<trkpt lat="33.251113" lon="126.510592"><ele>103.309468</ele><time>2026-04-28T02:39:19Z</time></trkpt>
</trkseg>
</trk>
</gpx>
