<?xml version="1.0" encoding="UTF-8"?>
<gpx xmlns="http://www.topografix.com/GPX/1/1" creator="MTK - http://www.toursprung.com" version="1.1" xmlns:xsi="http://www.w3.org/2001/XMLSchema-instance" xsi:schemaLocation="http://www.topografix.com/GPX/1/1 http://www.topografix.com/GPX/1/1/gpx.xsd">
<metadata>
<name>알작지-이호</name>
<extensions><extra>{}</extra></extensions>
</metadata>

<trk>
<name>알작지-이호</name>
<trkseg>
<trkpt lat="33.495410" lon="126.436670" sectionIndex="0" pointIndex="0" originalElevation="2.0" isOriginalElevationFromOSM="false" isAnchor="false"><ele>2.9</ele></trkpt>
<trkpt lat="33.495780" lon="126.437340" sectionIndex="0" pointIndex="1" originalElevation="1.0" isOriginalElevationFromOSM="false" isAnchor="false"><ele>3.0</ele></trkpt>
<trkpt lat="33.495770" lon="126.437580" sectionIndex="0" pointIndex="2" originalElevation="1.0" isOriginalElevationFromOSM="false" isAnchor="false"><ele>3.1</ele></trkpt>
<trkpt lat="33.495580" lon="126.438180" sectionIndex="0" pointIndex="3" originalElevation="2.0" isOriginalElevationFromOSM="false" isAnchor="false"><ele>3.1</ele></trkpt>
<trkpt lat="33.495560" lon="126.438650" sectionIndex="0" pointIndex="4" originalElevation="2.0" isOriginalElevationFromOSM="false" isAnchor="false"><ele>3.1</ele></trkpt>
<trkpt lat="33.495920" lon="126.439800" sectionIndex="0" pointIndex="5" originalElevation="4.0" isOriginalElevationFromOSM="false" isAnchor="false"><ele>3.1</ele></trkpt>
<trkpt lat="33.496080" lon="126.440760" sectionIndex="0" pointIndex="6" originalElevation="7.0" isOriginalElevationFromOSM="false" isAnchor="false"><ele>3.1</ele></trkpt>
<trkpt lat="33.496080" lon="126.440760" sectionIndex="0" pointIndex="7" originalElevation="7.0" isOriginalElevationFromOSM="false" isAnchor="false"><ele>3.1</ele></trkpt>
<trkpt lat="33.496490" lon="126.441280" sectionIndex="0" pointIndex="8" originalElevation="1.0" isOriginalElevationFromOSM="false" isAnchor="false"><ele>3.2</ele></trkpt>
<trkpt lat="33.496490" lon="126.441280" sectionIndex="0" pointIndex="9" originalElevation="1.0" isOriginalElevationFromOSM="false" isAnchor="false"><ele>3.2</ele></trkpt>
<trkpt lat="33.497880" lon="126.444130" sectionIndex="0" pointIndex="10" originalElevation="7.0" isOriginalElevationFromOSM="false" isAnchor="false"><ele>3.2</ele></trkpt>
<trkpt lat="33.498110" lon="126.444970" sectionIndex="0" pointIndex="11" originalElevation="4.0" isOriginalElevationFromOSM="false" isAnchor="false"><ele>3.2</ele></trkpt>
<trkpt lat="33.498240" lon="126.446210" sectionIndex="0" pointIndex="12" originalElevation="5.0" isOriginalElevationFromOSM="false" isAnchor="false"><ele>3.2</ele></trkpt>
<trkpt lat="33.497950" lon="126.448160" sectionIndex="0" pointIndex="13" originalElevation="0.0" isOriginalElevationFromOSM="false" isAnchor="false"><ele>3.2</ele></trkpt>
<trkpt lat="33.497440" lon="126.449300" sectionIndex="0" pointIndex="14" originalElevation="3.0" isOriginalElevationFromOSM="false" isAnchor="false"><ele>3.2</ele></trkpt>
<trkpt lat="33.497050" lon="126.449880" sectionIndex="0" pointIndex="15" originalElevation="4.0" isOriginalElevationFromOSM="false" isAnchor="false"><ele>3.2</ele></trkpt>
<trkpt lat="33.496920" lon="126.450210" sectionIndex="0" pointIndex="16" originalElevation="4.0" isOriginalElevationFromOSM="false" isAnchor="false"><ele>3.2</ele></trkpt>
<trkpt lat="33.496910" lon="126.451000" sectionIndex="0" pointIndex="17" originalElevation="2.0" isOriginalElevationFromOSM="false" isAnchor="false"><ele>3.2</ele></trkpt>
<trkpt lat="33.497180" lon="126.452460" sectionIndex="0" pointIndex="18" originalElevation="0.5" isOriginalElevationFromOSM="false" isAnchor="false"><ele>3.1</ele></trkpt>
<trkpt lat="33.497569" lon="126.453025" sectionIndex="0" pointIndex="19" originalElevation="1.0" isOriginalElevationFromOSM="false" isAnchor="false"><ele>3.1</ele></trkpt>
<trkpt lat="33.497923" lon="126.453218" sectionIndex="0" pointIndex="20" originalElevation="1.0" isOriginalElevationFromOSM="false" isAnchor="false"><ele>3.1</ele></trkpt>
<trkpt lat="33.498392" lon="126.453631" sectionIndex="0" pointIndex="21" originalElevation="3.0" isOriginalElevationFromOSM="false" isAnchor="false"><ele>3.1</ele></trkpt>
<trkpt lat="33.498450" lon="126.454017" sectionIndex="0" pointIndex="22" originalElevation="3.0" isOriginalElevationFromOSM="false" isAnchor="false"><ele>3.1</ele></trkpt>
<trkpt lat="33.499063" lon="126.454387" sectionIndex="0" pointIndex="23" originalElevation="7.0" isOriginalElevationFromOSM="false" isAnchor="false"><ele>3.0</ele></trkpt>
<trkpt lat="33.499372" lon="126.454462" sectionIndex="0" pointIndex="24" originalElevation="5.0" isOriginalElevationFromOSM="false" isAnchor="false"><ele>3.0</ele></trkpt>
<trkpt lat="33.499654" lon="126.454387" sectionIndex="0" pointIndex="25" originalElevation="5.0" isOriginalElevationFromOSM="false" isAnchor="false"><ele>3.1</ele></trkpt>
<trkpt lat="33.499801" lon="126.454495" sectionIndex="0" pointIndex="26" originalElevation="5.0" isOriginalElevationFromOSM="false" isAnchor="false"><ele>3.0</ele></trkpt>
<trkpt lat="33.499842" lon="126.454688" sectionIndex="0" pointIndex="27" originalElevation="5.0" isOriginalElevationFromOSM="false" isAnchor="false"><ele>3.0</ele></trkpt>
<trkpt lat="33.500106" lon="126.454811" sectionIndex="0" pointIndex="28" originalElevation="0.0" isOriginalElevationFromOSM="false" isAnchor="false"><ele>3.0</ele></trkpt>
<trkpt lat="33.500204" lon="126.454629" sectionIndex="0" pointIndex="29" originalElevation="0.0" isOriginalElevationFromOSM="false" isAnchor="false"><ele>3.0</ele></trkpt>
<trkpt lat="33.500520" lon="126.454670" sectionIndex="0" pointIndex="30" originalElevation="3.0" isOriginalElevationFromOSM="false" isAnchor="false"><ele>3.0</ele></trkpt>
<trkpt lat="33.501130" lon="126.455190" sectionIndex="0" pointIndex="31" originalElevation="3.0" isOriginalElevationFromOSM="false" isAnchor="false"><ele>2.9</ele></trkpt>
<trkpt lat="33.501130" lon="126.455190" sectionIndex="0" pointIndex="32" originalElevation="3.0" isOriginalElevationFromOSM="false" isAnchor="false"><ele>2.9</ele></trkpt>
<trkpt lat="33.503170" lon="126.457050" sectionIndex="0" pointIndex="33" originalElevation="1.0" isOriginalElevationFromOSM="false" isAnchor="false"><ele>2.8</ele></trkpt>
<trkpt lat="33.503290" lon="126.457240" sectionIndex="0" pointIndex="34" originalElevation="2.0" isOriginalElevationFromOSM="false" isAnchor="false"><ele>2.8</ele></trkpt>
<trkpt lat="33.503433" lon="126.457098" sectionIndex="0" pointIndex="35" originalElevation="0.0" isOriginalElevationFromOSM="false" isAnchor="false"><ele>2.7</ele></trkpt>
<trkpt lat="33.503600" lon="126.459810" sectionIndex="0" pointIndex="36" originalElevation="5.0" isOriginalElevationFromOSM="false" isAnchor="false"><ele>2.6</ele></trkpt>
<trkpt lat="33.502810" lon="126.462340" sectionIndex="0" pointIndex="37" originalElevation="5.0" isOriginalElevationFromOSM="false" isAnchor="false"><ele>2.5</ele></trkpt>
<trkpt lat="33.502762" lon="126.463128" sectionIndex="0" pointIndex="38" originalElevation="5.0" isOriginalElevationFromOSM="false" isAnchor="false"><ele>2.5</ele></trkpt>
<trkpt lat="33.506282" lon="126.463702" sectionIndex="0" pointIndex="39" originalElevation="0.0" isOriginalElevationFromOSM="false" isAnchor="false"><ele>2.4</ele></trkpt>
<trkpt lat="33.502820" lon="126.463069" sectionIndex="0" pointIndex="40" originalElevation="5.0" isOriginalElevationFromOSM="false" isAnchor="false"><ele>2.3</ele></trkpt>
<trkpt lat="33.502860" lon="126.462356" sectionIndex="0" pointIndex="41" originalElevation="7.0" isOriginalElevationFromOSM="false" isAnchor="false"><ele>2.2</ele></trkpt>
<trkpt lat="33.503652" lon="126.459883" sectionIndex="0" pointIndex="42" originalElevation="4.0" isOriginalElevationFromOSM="false" isAnchor="false"><ele>2.2</ele></trkpt>
<trkpt lat="33.503419" lon="126.456122" sectionIndex="0" pointIndex="43" originalElevation="0.0" isOriginalElevationFromOSM="false" isAnchor="false"><ele>2.1</ele></trkpt>
<trkpt lat="33.503885" lon="126.455645" sectionIndex="0" pointIndex="44" originalElevation="0.0" isOriginalElevationFromOSM="false" isAnchor="false"><ele>2.0</ele></trkpt>
<trkpt lat="33.503885" lon="126.454824" sectionIndex="0" pointIndex="45" originalElevation="0.0" isOriginalElevationFromOSM="false" isAnchor="false"><ele>2.0</ele></trkpt>
<trkpt lat="33.502707" lon="126.453742" sectionIndex="0" pointIndex="46" originalElevation="0.0" isOriginalElevationFromOSM="false" isAnchor="false"><ele>2.0</ele></trkpt>
<trkpt lat="33.502362" lon="126.453709" sectionIndex="0" pointIndex="47" originalElevation="0.0" isOriginalElevationFromOSM="false" isAnchor="false"><ele>2.0</ele></trkpt>
<trkpt lat="33.501754" lon="126.453173" sectionIndex="0" pointIndex="48" originalElevation="0.0" isOriginalElevationFromOSM="false" isAnchor="false"><ele>2.0</ele></trkpt>
<trkpt lat="33.501476" lon="126.453200" sectionIndex="0" pointIndex="49" originalElevation="0.0" isOriginalElevationFromOSM="false" isAnchor="false"><ele>2.0</ele></trkpt>
<trkpt lat="33.500611" lon="126.454796" sectionIndex="0" pointIndex="50" originalElevation="0.0" isOriginalElevationFromOSM="false" isAnchor="false"><ele>2.0</ele></trkpt>
<trkpt lat="33.500266" lon="126.454576" sectionIndex="0" pointIndex="51" originalElevation="0.0" isOriginalElevationFromOSM="false" isAnchor="false"><ele>2.1</ele></trkpt>
<trkpt lat="33.500025" lon="126.454635" sectionIndex="0" pointIndex="52" originalElevation="0.0" isOriginalElevationFromOSM="false" isAnchor="false"><ele>2.1</ele></trkpt>
<trkpt lat="33.499971" lon="126.454769" sectionIndex="0" pointIndex="53" originalElevation="5.0" isOriginalElevationFromOSM="false" isAnchor="false"><ele>2.2</ele></trkpt>
<trkpt lat="33.499846" lon="126.454458" sectionIndex="0" pointIndex="54" originalElevation="5.0" isOriginalElevationFromOSM="false" isAnchor="false"><ele>2.2</ele></trkpt>
<trkpt lat="33.499358" lon="126.454523" sectionIndex="0" pointIndex="55" originalElevation="5.0" isOriginalElevationFromOSM="false" isAnchor="false"><ele>2.4</ele></trkpt>
<trkpt lat="33.499049" lon="126.454437" sectionIndex="0" pointIndex="56" originalElevation="7.0" isOriginalElevationFromOSM="false" isAnchor="false"><ele>2.4</ele></trkpt>
<trkpt lat="33.498438" lon="126.454072" sectionIndex="0" pointIndex="57" originalElevation="3.0" isOriginalElevationFromOSM="false" isAnchor="false"><ele>2.5</ele></trkpt>
<trkpt lat="33.498340" lon="126.453670" sectionIndex="0" pointIndex="58" originalElevation="3.0" isOriginalElevationFromOSM="false" isAnchor="false"><ele>2.6</ele></trkpt>
<trkpt lat="33.497888" lon="126.453257" sectionIndex="0" pointIndex="59" originalElevation="1.0" isOriginalElevationFromOSM="false" isAnchor="false"><ele>2.7</ele></trkpt>
<trkpt lat="33.497556" lon="126.453085" sectionIndex="0" pointIndex="60" originalElevation="1.0" isOriginalElevationFromOSM="false" isAnchor="false"><ele>2.7</ele></trkpt>
<trkpt lat="33.497238" lon="126.452441" sectionIndex="0" pointIndex="61" originalElevation="3.0" isOriginalElevationFromOSM="false" isAnchor="false"><ele>2.8</ele></trkpt>
<trkpt lat="33.496960" lon="126.451000" sectionIndex="0" pointIndex="62" originalElevation="2.0" isOriginalElevationFromOSM="false" isAnchor="false"><ele>2.8</ele></trkpt>
<trkpt lat="33.496960" lon="126.450300" sectionIndex="0" pointIndex="63" originalElevation="4.0" isOriginalElevationFromOSM="false" isAnchor="false"><ele>2.8</ele></trkpt>
<trkpt lat="33.497200" lon="126.449740" sectionIndex="0" pointIndex="64" originalElevation="1.0" isOriginalElevationFromOSM="false" isAnchor="false"><ele>2.9</ele></trkpt>
<trkpt lat="33.497650" lon="126.449140" sectionIndex="0" pointIndex="65" originalElevation="3.0" isOriginalElevationFromOSM="false" isAnchor="false"><ele>2.9</ele></trkpt>
<trkpt lat="33.498030" lon="126.448160" sectionIndex="0" pointIndex="66" originalElevation="0.0" isOriginalElevationFromOSM="false" isAnchor="false"><ele>2.9</ele></trkpt>
<trkpt lat="33.498270" lon="126.446520" sectionIndex="0" pointIndex="67" originalElevation="3.0" isOriginalElevationFromOSM="false" isAnchor="false"><ele>2.9</ele></trkpt>
<trkpt lat="33.498290" lon="126.445640" sectionIndex="0" pointIndex="68" originalElevation="5.0" isOriginalElevationFromOSM="false" isAnchor="false"><ele>2.9</ele></trkpt>
<trkpt lat="33.498130" lon="126.444710" sectionIndex="0" pointIndex="69" originalElevation="4.0" isOriginalElevationFromOSM="false" isAnchor="false"><ele>2.9</ele></trkpt>
<trkpt lat="33.497630" lon="126.443330" sectionIndex="0" pointIndex="70" originalElevation="4.0" isOriginalElevationFromOSM="false" isAnchor="false"><ele>2.9</ele></trkpt>
<trkpt lat="33.496510" lon="126.441220" sectionIndex="0" pointIndex="71" originalElevation="4.0" isOriginalElevationFromOSM="false" isAnchor="false"><ele>2.8</ele></trkpt>
<trkpt lat="33.496140" lon="126.440780" sectionIndex="0" pointIndex="72" originalElevation="7.0" isOriginalElevationFromOSM="false" isAnchor="false"><ele>2.8</ele></trkpt>
<trkpt lat="33.495670" lon="126.438790" sectionIndex="0" pointIndex="73" originalElevation="2.0" isOriginalElevationFromOSM="false" isAnchor="false"><ele>2.8</ele></trkpt>
<trkpt lat="33.495660" lon="126.438380" sectionIndex="0" pointIndex="74" originalElevation="2.0" isOriginalElevationFromOSM="false" isAnchor="false"><ele>2.8</ele></trkpt>
<trkpt lat="33.495860" lon="126.437450" sectionIndex="0" pointIndex="75" originalElevation="1.0" isOriginalElevationFromOSM="false" isAnchor="false"><ele>2.8</ele></trkpt>
<trkpt lat="33.495760" lon="126.437070" sectionIndex="0" pointIndex="76" originalElevation="1.0" isOriginalElevationFromOSM="false" isAnchor="false"><ele>2.7</ele></trkpt>
<trkpt lat="33.495450" lon="126.436630" sectionIndex="0" pointIndex="77" originalElevation="1.0" isOriginalElevationFromOSM="false" isAnchor="false"><ele>2.7</ele></trkpt>
</trkseg>
</trk>
</gpx>