<?xml version="1.0" encoding="UTF-8"?>
<gpx xmlns="http://www.topografix.com/GPX/1/1" creator="MTK - http://www.toursprung.com" version="1.1" xmlns:xsi="http://www.w3.org/2001/XMLSchema-instance" xsi:schemaLocation="http://www.topografix.com/GPX/1/1 http://www.topografix.com/GPX/1/1/gpx.xsd">
<metadata>
<name>어영-도두봉</name>
<extensions><extra>{}</extra></extensions>
</metadata>

<trk>
<name>어영-도두봉</name>
<trkseg>
<trkpt lat="33.518783" lon="126.489065" sectionIndex="0" pointIndex="0" originalElevation="9.0" isOriginalElevationFromOSM="false" isAnchor="false"><ele>9.0</ele></trkpt>
<trkpt lat="33.518761" lon="126.489018" sectionIndex="0" pointIndex="1" originalElevation="9.0" isOriginalElevationFromOSM="false" isAnchor="false"><ele>9.0</ele></trkpt>
<trkpt lat="33.518739" lon="126.488971" sectionIndex="0" pointIndex="2" originalElevation="9.0" isOriginalElevationFromOSM="false" isAnchor="false"><ele>8.9</ele></trkpt>
<trkpt lat="33.518716" lon="126.488924" sectionIndex="0" pointIndex="3" originalElevation="9.0" isOriginalElevationFromOSM="false" isAnchor="false"><ele>8.9</ele></trkpt>
<trkpt lat="33.518694" lon="126.488878" sectionIndex="0" pointIndex="4" originalElevation="9.0" isOriginalElevationFromOSM="false" isAnchor="false"><ele>8.8</ele></trkpt>
<trkpt lat="33.518671" lon="126.488831" sectionIndex="0" pointIndex="5" originalElevation="9.0" isOriginalElevationFromOSM="false" isAnchor="false"><ele>8.8</ele></trkpt>
<trkpt lat="33.518649" lon="126.488784" sectionIndex="0" pointIndex="6" originalElevation="9.0" isOriginalElevationFromOSM="false" isAnchor="false"><ele>8.7</ele></trkpt>
<trkpt lat="33.518627" lon="126.488737" sectionIndex="0" pointIndex="7" originalElevation="9.0" isOriginalElevationFromOSM="false" isAnchor="false"><ele>8.7</ele></trkpt>
<trkpt lat="33.518604" lon="126.488691" sectionIndex="0" pointIndex="8" originalElevation="9.0" isOriginalElevationFromOSM="false" isAnchor="false"><ele>8.6</ele></trkpt>
<trkpt lat="33.518582" lon="126.488644" sectionIndex="0" pointIndex="9" originalElevation="9.0" isOriginalElevationFromOSM="false" isAnchor="false"><ele>8.6</ele></trkpt>
<trkpt lat="33.518560" lon="126.488597" sectionIndex="0" pointIndex="10" originalElevation="9.0" isOriginalElevationFromOSM="false" isAnchor="false"><ele>8.6</ele></trkpt>
<trkpt lat="33.518537" lon="126.488550" sectionIndex="0" pointIndex="11" originalElevation="9.0" isOriginalElevationFromOSM="false" isAnchor="false"><ele>8.5</ele></trkpt>
<trkpt lat="33.518515" lon="126.488504" sectionIndex="0" pointIndex="12" originalElevation="9.0" isOriginalElevationFromOSM="false" isAnchor="false"><ele>8.5</ele></trkpt>
<trkpt lat="33.518492" lon="126.488457" sectionIndex="0" pointIndex="13" originalElevation="9.0" isOriginalElevationFromOSM="false" isAnchor="false"><ele>8.5</ele></trkpt>
<trkpt lat="33.518470" lon="126.488410" sectionIndex="0" pointIndex="14" originalElevation="9.0" isOriginalElevationFromOSM="false" isAnchor="false"><ele>8.5</ele></trkpt>
<trkpt lat="33.518448" lon="126.488363" sectionIndex="0" pointIndex="15" originalElevation="9.0" isOriginalElevationFromOSM="false" isAnchor="false"><ele>8.5</ele></trkpt>
<trkpt lat="33.518425" lon="126.488316" sectionIndex="0" pointIndex="16" originalElevation="6.0" isOriginalElevationFromOSM="false" isAnchor="false"><ele>8.5</ele></trkpt>
<trkpt lat="33.518403" lon="126.488270" sectionIndex="0" pointIndex="17" originalElevation="6.0" isOriginalElevationFromOSM="false" isAnchor="false"><ele>8.5</ele></trkpt>
<trkpt lat="33.518380" lon="126.488223" sectionIndex="0" pointIndex="18" originalElevation="6.0" isOriginalElevationFromOSM="false" isAnchor="false"><ele>8.5</ele></trkpt>
<trkpt lat="33.518358" lon="126.488176" sectionIndex="0" pointIndex="19" originalElevation="6.0" isOriginalElevationFromOSM="false" isAnchor="false"><ele>8.6</ele></trkpt>
<trkpt lat="33.518336" lon="126.488129" sectionIndex="0" pointIndex="20" originalElevation="6.0" isOriginalElevationFromOSM="false" isAnchor="false"><ele>8.7</ele></trkpt>
<trkpt lat="33.518313" lon="126.488083" sectionIndex="0" pointIndex="21" originalElevation="10.0" isOriginalElevationFromOSM="false" isAnchor="false"><ele>8.8</ele></trkpt>
<trkpt lat="33.518291" lon="126.488036" sectionIndex="0" pointIndex="22" originalElevation="10.0" isOriginalElevationFromOSM="false" isAnchor="false"><ele>8.9</ele></trkpt>
<trkpt lat="33.518268" lon="126.487989" sectionIndex="0" pointIndex="23" originalElevation="10.0" isOriginalElevationFromOSM="false" isAnchor="false"><ele>9.0</ele></trkpt>
<trkpt lat="33.518246" lon="126.487942" sectionIndex="0" pointIndex="24" originalElevation="10.0" isOriginalElevationFromOSM="false" isAnchor="false"><ele>9.1</ele></trkpt>
<trkpt lat="33.518224" lon="126.487896" sectionIndex="0" pointIndex="25" originalElevation="10.0" isOriginalElevationFromOSM="false" isAnchor="false"><ele>9.2</ele></trkpt>
<trkpt lat="33.518201" lon="126.487849" sectionIndex="0" pointIndex="26" originalElevation="10.0" isOriginalElevationFromOSM="false" isAnchor="false"><ele>9.3</ele></trkpt>
<trkpt lat="33.518179" lon="126.487802" sectionIndex="0" pointIndex="27" originalElevation="10.0" isOriginalElevationFromOSM="false" isAnchor="false"><ele>9.4</ele></trkpt>
<trkpt lat="33.518156" lon="126.487755" sectionIndex="0" pointIndex="28" originalElevation="10.0" isOriginalElevationFromOSM="false" isAnchor="false"><ele>9.5</ele></trkpt>
<trkpt lat="33.518134" lon="126.487708" sectionIndex="0" pointIndex="29" originalElevation="10.0" isOriginalElevationFromOSM="false" isAnchor="false"><ele>9.6</ele></trkpt>
<trkpt lat="33.518112" lon="126.487662" sectionIndex="0" pointIndex="30" originalElevation="10.0" isOriginalElevationFromOSM="false" isAnchor="false"><ele>9.7</ele></trkpt>
<trkpt lat="33.518089" lon="126.487615" sectionIndex="0" pointIndex="31" originalElevation="10.0" isOriginalElevationFromOSM="false" isAnchor="false"><ele>9.7</ele></trkpt>
<trkpt lat="33.518067" lon="126.487568" sectionIndex="0" pointIndex="32" originalElevation="10.0" isOriginalElevationFromOSM="false" isAnchor="false"><ele>9.8</ele></trkpt>
<trkpt lat="33.518044" lon="126.487521" sectionIndex="0" pointIndex="33" originalElevation="10.0" isOriginalElevationFromOSM="false" isAnchor="false"><ele>9.9</ele></trkpt>
<trkpt lat="33.518041" lon="126.487514" sectionIndex="0" pointIndex="34" originalElevation="10.0" isOriginalElevationFromOSM="false" isAnchor="false"><ele>9.9</ele></trkpt>
<trkpt lat="33.518041" lon="126.487514" sectionIndex="0" pointIndex="35" originalElevation="10.0" isOriginalElevationFromOSM="false" isAnchor="false"><ele>10.0</ele></trkpt>
<trkpt lat="33.518008" lon="126.487478" sectionIndex="0" pointIndex="36" originalElevation="10.0" isOriginalElevationFromOSM="false" isAnchor="false"><ele>10.0</ele></trkpt>
<trkpt lat="33.517975" lon="126.487442" sectionIndex="0" pointIndex="37" originalElevation="10.0" isOriginalElevationFromOSM="false" isAnchor="false"><ele>10.0</ele></trkpt>
<trkpt lat="33.517941" lon="126.487405" sectionIndex="0" pointIndex="38" originalElevation="10.0" isOriginalElevationFromOSM="false" isAnchor="false"><ele>10.1</ele></trkpt>
<trkpt lat="33.517908" lon="126.487369" sectionIndex="0" pointIndex="39" originalElevation="10.0" isOriginalElevationFromOSM="false" isAnchor="false"><ele>10.1</ele></trkpt>
<trkpt lat="33.517875" lon="126.487333" sectionIndex="0" pointIndex="40" originalElevation="10.0" isOriginalElevationFromOSM="false" isAnchor="false"><ele>10.2</ele></trkpt>
<trkpt lat="33.517842" lon="126.487297" sectionIndex="0" pointIndex="41" originalElevation="10.0" isOriginalElevationFromOSM="false" isAnchor="false"><ele>10.3</ele></trkpt>
<trkpt lat="33.517808" lon="126.487260" sectionIndex="0" pointIndex="42" originalElevation="10.0" isOriginalElevationFromOSM="false" isAnchor="false"><ele>10.3</ele></trkpt>
<trkpt lat="33.517775" lon="126.487224" sectionIndex="0" pointIndex="43" originalElevation="10.0" isOriginalElevationFromOSM="false" isAnchor="false"><ele>10.4</ele></trkpt>
<trkpt lat="33.517742" lon="126.487188" sectionIndex="0" pointIndex="44" originalElevation="10.0" isOriginalElevationFromOSM="false" isAnchor="false"><ele>10.5</ele></trkpt>
<trkpt lat="33.517709" lon="126.487151" sectionIndex="0" pointIndex="45" originalElevation="10.0" isOriginalElevationFromOSM="false" isAnchor="false"><ele>10.6</ele></trkpt>
<trkpt lat="33.517675" lon="126.487115" sectionIndex="0" pointIndex="46" originalElevation="10.0" isOriginalElevationFromOSM="false" isAnchor="false"><ele>10.7</ele></trkpt>
<trkpt lat="33.517642" lon="126.487079" sectionIndex="0" pointIndex="47" originalElevation="10.0" isOriginalElevationFromOSM="false" isAnchor="false"><ele>10.8</ele></trkpt>
<trkpt lat="33.517609" lon="126.487042" sectionIndex="0" pointIndex="48" originalElevation="10.0" isOriginalElevationFromOSM="false" isAnchor="false"><ele>10.9</ele></trkpt>
<trkpt lat="33.517576" lon="126.487006" sectionIndex="0" pointIndex="49" originalElevation="10.0" isOriginalElevationFromOSM="false" isAnchor="false"><ele>10.9</ele></trkpt>
<trkpt lat="33.517542" lon="126.486970" sectionIndex="0" pointIndex="50" originalElevation="10.0" isOriginalElevationFromOSM="false" isAnchor="false"><ele>10.9</ele></trkpt>
<trkpt lat="33.517509" lon="126.486933" sectionIndex="0" pointIndex="51" originalElevation="10.0" isOriginalElevationFromOSM="false" isAnchor="false"><ele>10.9</ele></trkpt>
<trkpt lat="33.517476" lon="126.486897" sectionIndex="0" pointIndex="52" originalElevation="15.0" isOriginalElevationFromOSM="false" isAnchor="false"><ele>10.9</ele></trkpt>
<trkpt lat="33.517443" lon="126.486861" sectionIndex="0" pointIndex="53" originalElevation="15.0" isOriginalElevationFromOSM="false" isAnchor="false"><ele>10.9</ele></trkpt>
<trkpt lat="33.517410" lon="126.486824" sectionIndex="0" pointIndex="54" originalElevation="15.0" isOriginalElevationFromOSM="false" isAnchor="false"><ele>10.8</ele></trkpt>
<trkpt lat="33.517380" lon="126.486792" sectionIndex="0" pointIndex="55" originalElevation="15.0" isOriginalElevationFromOSM="false" isAnchor="false"><ele>10.6</ele></trkpt>
<trkpt lat="33.517370" lon="126.486800" sectionIndex="0" pointIndex="56" originalElevation="10.0" isOriginalElevationFromOSM="false" isAnchor="false"><ele>10.4</ele></trkpt>
<trkpt lat="33.517080" lon="126.486430" sectionIndex="0" pointIndex="57" originalElevation="10.0" isOriginalElevationFromOSM="false" isAnchor="false"><ele>10.2</ele></trkpt>
<trkpt lat="33.516900" lon="126.486220" sectionIndex="0" pointIndex="58" originalElevation="11.0" isOriginalElevationFromOSM="false" isAnchor="false"><ele>9.9</ele></trkpt>
<trkpt lat="33.516740" lon="126.486080" sectionIndex="0" pointIndex="59" originalElevation="11.0" isOriginalElevationFromOSM="false" isAnchor="false"><ele>9.6</ele></trkpt>
<trkpt lat="33.516240" lon="126.485680" sectionIndex="0" pointIndex="60" originalElevation="11.0" isOriginalElevationFromOSM="false" isAnchor="false"><ele>9.2</ele></trkpt>
<trkpt lat="33.516060" lon="126.485560" sectionIndex="0" pointIndex="61" originalElevation="13.0" isOriginalElevationFromOSM="false" isAnchor="false"><ele>8.8</ele></trkpt>
<trkpt lat="33.516000" lon="126.485540" sectionIndex="0" pointIndex="62" originalElevation="7.5" isOriginalElevationFromOSM="false" isAnchor="false"><ele>8.4</ele></trkpt>
<trkpt lat="33.516000" lon="126.485540" sectionIndex="0" pointIndex="63" originalElevation="7.5" isOriginalElevationFromOSM="false" isAnchor="false"><ele>8.0</ele></trkpt>
<trkpt lat="33.515450" lon="126.485350" sectionIndex="0" pointIndex="64" originalElevation="2.0" isOriginalElevationFromOSM="false" isAnchor="false"><ele>7.6</ele></trkpt>
<trkpt lat="33.515190" lon="126.485200" sectionIndex="0" pointIndex="65" originalElevation="6.0" isOriginalElevationFromOSM="false" isAnchor="false"><ele>7.1</ele></trkpt>
<trkpt lat="33.514890" lon="126.484990" sectionIndex="0" pointIndex="66" originalElevation="6.0" isOriginalElevationFromOSM="false" isAnchor="false"><ele>6.7</ele></trkpt>
<trkpt lat="33.514630" lon="126.484830" sectionIndex="0" pointIndex="67" originalElevation="7.0" isOriginalElevationFromOSM="false" isAnchor="false"><ele>6.3</ele></trkpt>
<trkpt lat="33.514630" lon="126.484830" sectionIndex="0" pointIndex="68" originalElevation="7.0" isOriginalElevationFromOSM="false" isAnchor="false"><ele>5.9</ele></trkpt>
<trkpt lat="33.514290" lon="126.484660" sectionIndex="0" pointIndex="69" originalElevation="8.0" isOriginalElevationFromOSM="false" isAnchor="false"><ele>5.5</ele></trkpt>
<trkpt lat="33.514070" lon="126.484570" sectionIndex="0" pointIndex="70" originalElevation="2.0" isOriginalElevationFromOSM="false" isAnchor="false"><ele>5.2</ele></trkpt>
<trkpt lat="33.513820" lon="126.484500" sectionIndex="0" pointIndex="71" originalElevation="2.0" isOriginalElevationFromOSM="false" isAnchor="false"><ele>4.8</ele></trkpt>
<trkpt lat="33.512910" lon="126.484250" sectionIndex="0" pointIndex="72" originalElevation="3.0" isOriginalElevationFromOSM="false" isAnchor="false"><ele>4.6</ele></trkpt>
<trkpt lat="33.512500" lon="126.484100" sectionIndex="0" pointIndex="73" originalElevation="3.0" isOriginalElevationFromOSM="false" isAnchor="false"><ele>4.4</ele></trkpt>
<trkpt lat="33.512500" lon="126.484100" sectionIndex="0" pointIndex="74" originalElevation="3.0" isOriginalElevationFromOSM="false" isAnchor="false"><ele>4.1</ele></trkpt>
<trkpt lat="33.512280" lon="126.484020" sectionIndex="0" pointIndex="75" originalElevation="3.0" isOriginalElevationFromOSM="false" isAnchor="false"><ele>4.0</ele></trkpt>
<trkpt lat="33.512220" lon="126.484010" sectionIndex="0" pointIndex="76" originalElevation="3.0" isOriginalElevationFromOSM="false" isAnchor="false"><ele>3.8</ele></trkpt>
<trkpt lat="33.512220" lon="126.484010" sectionIndex="0" pointIndex="77" originalElevation="3.0" isOriginalElevationFromOSM="false" isAnchor="false"><ele>3.7</ele></trkpt>
<trkpt lat="33.511640" lon="126.483910" sectionIndex="0" pointIndex="78" originalElevation="3.0" isOriginalElevationFromOSM="false" isAnchor="false"><ele>3.6</ele></trkpt>
<trkpt lat="33.511520" lon="126.483880" sectionIndex="0" pointIndex="79" originalElevation="3.0" isOriginalElevationFromOSM="false" isAnchor="false"><ele>3.5</ele></trkpt>
<trkpt lat="33.511390" lon="126.483840" sectionIndex="0" pointIndex="80" originalElevation="3.0" isOriginalElevationFromOSM="false" isAnchor="false"><ele>3.5</ele></trkpt>
<trkpt lat="33.511110" lon="126.483730" sectionIndex="0" pointIndex="81" originalElevation="4.0" isOriginalElevationFromOSM="false" isAnchor="false"><ele>3.4</ele></trkpt>
<trkpt lat="33.511060" lon="126.483690" sectionIndex="0" pointIndex="82" originalElevation="4.0" isOriginalElevationFromOSM="false" isAnchor="false"><ele>3.3</ele></trkpt>
<trkpt lat="33.511060" lon="126.483690" sectionIndex="0" pointIndex="83" originalElevation="4.0" isOriginalElevationFromOSM="false" isAnchor="false"><ele>3.3</ele></trkpt>
<trkpt lat="33.510940" lon="126.483620" sectionIndex="0" pointIndex="84" originalElevation="4.0" isOriginalElevationFromOSM="false" isAnchor="false"><ele>3.3</ele></trkpt>
<trkpt lat="33.510840" lon="126.483520" sectionIndex="0" pointIndex="85" originalElevation="4.0" isOriginalElevationFromOSM="false" isAnchor="false"><ele>3.3</ele></trkpt>
<trkpt lat="33.510780" lon="126.483420" sectionIndex="0" pointIndex="86" originalElevation="4.0" isOriginalElevationFromOSM="false" isAnchor="false"><ele>3.4</ele></trkpt>
<trkpt lat="33.510730" lon="126.483290" sectionIndex="0" pointIndex="87" originalElevation="4.0" isOriginalElevationFromOSM="false" isAnchor="false"><ele>3.4</ele></trkpt>
<trkpt lat="33.510610" lon="126.482900" sectionIndex="0" pointIndex="88" originalElevation="2.0" isOriginalElevationFromOSM="false" isAnchor="false"><ele>3.5</ele></trkpt>
<trkpt lat="33.510540" lon="126.482640" sectionIndex="0" pointIndex="89" originalElevation="2.0" isOriginalElevationFromOSM="false" isAnchor="false"><ele>3.5</ele></trkpt>
<trkpt lat="33.510430" lon="126.482110" sectionIndex="0" pointIndex="90" originalElevation="2.0" isOriginalElevationFromOSM="false" isAnchor="false"><ele>3.6</ele></trkpt>
<trkpt lat="33.510260" lon="126.481470" sectionIndex="0" pointIndex="91" originalElevation="5.0" isOriginalElevationFromOSM="false" isAnchor="false"><ele>3.7</ele></trkpt>
<trkpt lat="33.510220" lon="126.481330" sectionIndex="0" pointIndex="92" originalElevation="5.0" isOriginalElevationFromOSM="false" isAnchor="false"><ele>3.8</ele></trkpt>
<trkpt lat="33.510160" lon="126.481170" sectionIndex="0" pointIndex="93" originalElevation="1.0" isOriginalElevationFromOSM="false" isAnchor="false"><ele>3.9</ele></trkpt>
<trkpt lat="33.510160" lon="126.481170" sectionIndex="0" pointIndex="94" originalElevation="1.0" isOriginalElevationFromOSM="false" isAnchor="false"><ele>4.1</ele></trkpt>
<trkpt lat="33.510090" lon="126.481040" sectionIndex="0" pointIndex="95" originalElevation="1.0" isOriginalElevationFromOSM="false" isAnchor="false"><ele>4.2</ele></trkpt>
<trkpt lat="33.509900" lon="126.480740" sectionIndex="0" pointIndex="96" originalElevation="1.0" isOriginalElevationFromOSM="false" isAnchor="false"><ele>4.4</ele></trkpt>
<trkpt lat="33.509590" lon="126.480230" sectionIndex="0" pointIndex="97" originalElevation="1.0" isOriginalElevationFromOSM="false" isAnchor="false"><ele>4.6</ele></trkpt>
<trkpt lat="33.509510" lon="126.480050" sectionIndex="0" pointIndex="98" originalElevation="9.0" isOriginalElevationFromOSM="false" isAnchor="false"><ele>4.8</ele></trkpt>
<trkpt lat="33.509510" lon="126.480050" sectionIndex="0" pointIndex="99" originalElevation="9.0" isOriginalElevationFromOSM="false" isAnchor="false"><ele>5.1</ele></trkpt>
<trkpt lat="33.509450" lon="126.479870" sectionIndex="0" pointIndex="100" originalElevation="9.0" isOriginalElevationFromOSM="false" isAnchor="false"><ele>5.3</ele></trkpt>
<trkpt lat="33.509400" lon="126.479680" sectionIndex="0" pointIndex="101" originalElevation="9.0" isOriginalElevationFromOSM="false" isAnchor="false"><ele>5.5</ele></trkpt>
<trkpt lat="33.509150" lon="126.478360" sectionIndex="0" pointIndex="102" originalElevation="5.0" isOriginalElevationFromOSM="false" isAnchor="false"><ele>5.7</ele></trkpt>
<trkpt lat="33.509110" lon="126.478240" sectionIndex="0" pointIndex="103" originalElevation="5.0" isOriginalElevationFromOSM="false" isAnchor="false"><ele>5.9</ele></trkpt>
<trkpt lat="33.509110" lon="126.478240" sectionIndex="0" pointIndex="104" originalElevation="5.0" isOriginalElevationFromOSM="false" isAnchor="false"><ele>6.1</ele></trkpt>
<trkpt lat="33.508980" lon="126.477930" sectionIndex="0" pointIndex="105" originalElevation="6.0" isOriginalElevationFromOSM="false" isAnchor="false"><ele>6.3</ele></trkpt>
<trkpt lat="33.508890" lon="126.477770" sectionIndex="0" pointIndex="106" originalElevation="6.0" isOriginalElevationFromOSM="false" isAnchor="false"><ele>6.4</ele></trkpt>
<trkpt lat="33.508870" lon="126.477700" sectionIndex="0" pointIndex="107" originalElevation="6.0" isOriginalElevationFromOSM="false" isAnchor="false"><ele>6.6</ele></trkpt>
<trkpt lat="33.508870" lon="126.477700" sectionIndex="0" pointIndex="108" originalElevation="6.0" isOriginalElevationFromOSM="false" isAnchor="false"><ele>6.7</ele></trkpt>
<trkpt lat="33.508840" lon="126.477630" sectionIndex="0" pointIndex="109" originalElevation="6.0" isOriginalElevationFromOSM="false" isAnchor="false"><ele>6.8</ele></trkpt>
<trkpt lat="33.508760" lon="126.477340" sectionIndex="0" pointIndex="110" originalElevation="6.0" isOriginalElevationFromOSM="false" isAnchor="false"><ele>6.9</ele></trkpt>
<trkpt lat="33.508740" lon="126.477160" sectionIndex="0" pointIndex="111" originalElevation="10.0" isOriginalElevationFromOSM="false" isAnchor="false"><ele>7.0</ele></trkpt>
<trkpt lat="33.508740" lon="126.477160" sectionIndex="0" pointIndex="112" originalElevation="10.0" isOriginalElevationFromOSM="false" isAnchor="false"><ele>7.1</ele></trkpt>
<trkpt lat="33.508730" lon="126.476580" sectionIndex="0" pointIndex="113" originalElevation="9.0" isOriginalElevationFromOSM="false" isAnchor="false"><ele>7.2</ele></trkpt>
<trkpt lat="33.508730" lon="126.476580" sectionIndex="0" pointIndex="114" originalElevation="9.0" isOriginalElevationFromOSM="false" isAnchor="false"><ele>7.1</ele></trkpt>
<trkpt lat="33.508730" lon="126.476220" sectionIndex="0" pointIndex="115" originalElevation="8.0" isOriginalElevationFromOSM="false" isAnchor="false"><ele>7.1</ele></trkpt>
<trkpt lat="33.508780" lon="126.476110" sectionIndex="0" pointIndex="116" originalElevation="7.0" isOriginalElevationFromOSM="false" isAnchor="false"><ele>7.0</ele></trkpt>
<trkpt lat="33.508780" lon="126.476110" sectionIndex="0" pointIndex="117" originalElevation="7.0" isOriginalElevationFromOSM="false" isAnchor="false"><ele>7.0</ele></trkpt>
<trkpt lat="33.509280" lon="126.475080" sectionIndex="0" pointIndex="118" originalElevation="6.0" isOriginalElevationFromOSM="false" isAnchor="false"><ele>7.0</ele></trkpt>
<trkpt lat="33.509360" lon="126.474910" sectionIndex="0" pointIndex="119" originalElevation="6.0" isOriginalElevationFromOSM="false" isAnchor="false"><ele>7.0</ele></trkpt>
<trkpt lat="33.509360" lon="126.474910" sectionIndex="0" pointIndex="120" originalElevation="6.0" isOriginalElevationFromOSM="false" isAnchor="false"><ele>7.0</ele></trkpt>
<trkpt lat="33.509380" lon="126.474840" sectionIndex="0" pointIndex="121" originalElevation="6.0" isOriginalElevationFromOSM="false" isAnchor="false"><ele>7.0</ele></trkpt>
<trkpt lat="33.509420" lon="126.474670" sectionIndex="0" pointIndex="122" originalElevation="6.0" isOriginalElevationFromOSM="false" isAnchor="false"><ele>7.0</ele></trkpt>
<trkpt lat="33.509500" lon="126.473960" sectionIndex="0" pointIndex="123" originalElevation="7.0" isOriginalElevationFromOSM="false" isAnchor="false"><ele>7.0</ele></trkpt>
<trkpt lat="33.509500" lon="126.473760" sectionIndex="0" pointIndex="124" originalElevation="7.5" isOriginalElevationFromOSM="false" isAnchor="false"><ele>7.1</ele></trkpt>
<trkpt lat="33.509500" lon="126.473760" sectionIndex="0" pointIndex="125" originalElevation="7.5" isOriginalElevationFromOSM="false" isAnchor="false"><ele>7.1</ele></trkpt>
<trkpt lat="33.509480" lon="126.473540" sectionIndex="0" pointIndex="126" originalElevation="8.0" isOriginalElevationFromOSM="false" isAnchor="false"><ele>7.2</ele></trkpt>
<trkpt lat="33.509200" lon="126.472230" sectionIndex="0" pointIndex="127" originalElevation="7.0" isOriginalElevationFromOSM="false" isAnchor="false"><ele>7.3</ele></trkpt>
<trkpt lat="33.509200" lon="126.472230" sectionIndex="0" pointIndex="128" originalElevation="7.0" isOriginalElevationFromOSM="false" isAnchor="false"><ele>7.5</ele></trkpt>
<trkpt lat="33.509150" lon="126.471990" sectionIndex="0" pointIndex="129" originalElevation="6.0" isOriginalElevationFromOSM="false" isAnchor="false"><ele>7.6</ele></trkpt>
<trkpt lat="33.508920" lon="126.471040" sectionIndex="0" pointIndex="130" originalElevation="3.0" isOriginalElevationFromOSM="false" isAnchor="false"><ele>7.8</ele></trkpt>
<trkpt lat="33.508860" lon="126.470860" sectionIndex="0" pointIndex="131" originalElevation="3.0" isOriginalElevationFromOSM="false" isAnchor="false"><ele>8.0</ele></trkpt>
<trkpt lat="33.508810" lon="126.470740" sectionIndex="0" pointIndex="132" originalElevation="3.0" isOriginalElevationFromOSM="false" isAnchor="false"><ele>8.3</ele></trkpt>
<trkpt lat="33.508810" lon="126.470740" sectionIndex="0" pointIndex="133" originalElevation="12.0" isOriginalElevationFromOSM="false" isAnchor="false"><ele>8.5</ele></trkpt>
<trkpt lat="33.508829" lon="126.470789" sectionIndex="0" pointIndex="134" originalElevation="12.0" isOriginalElevationFromOSM="false" isAnchor="false"><ele>8.8</ele></trkpt>
<trkpt lat="33.508847" lon="126.470838" sectionIndex="0" pointIndex="135" originalElevation="11.0" isOriginalElevationFromOSM="false" isAnchor="false"><ele>9.1</ele></trkpt>
<trkpt lat="33.508866" lon="126.470887" sectionIndex="0" pointIndex="136" originalElevation="11.0" isOriginalElevationFromOSM="false" isAnchor="false"><ele>9.3</ele></trkpt>
<trkpt lat="33.508884" lon="126.470936" sectionIndex="0" pointIndex="137" originalElevation="11.0" isOriginalElevationFromOSM="false" isAnchor="false"><ele>9.6</ele></trkpt>
<trkpt lat="33.508903" lon="126.470985" sectionIndex="0" pointIndex="138" originalElevation="11.0" isOriginalElevationFromOSM="false" isAnchor="false"><ele>9.8</ele></trkpt>
<trkpt lat="33.508922" lon="126.471035" sectionIndex="0" pointIndex="139" originalElevation="11.0" isOriginalElevationFromOSM="false" isAnchor="false"><ele>10.0</ele></trkpt>
<trkpt lat="33.508940" lon="126.471084" sectionIndex="0" pointIndex="140" originalElevation="11.0" isOriginalElevationFromOSM="false" isAnchor="false"><ele>10.2</ele></trkpt>
<trkpt lat="33.508959" lon="126.471133" sectionIndex="0" pointIndex="141" originalElevation="11.0" isOriginalElevationFromOSM="false" isAnchor="false"><ele>10.4</ele></trkpt>
<trkpt lat="33.508978" lon="126.471182" sectionIndex="0" pointIndex="142" originalElevation="11.0" isOriginalElevationFromOSM="false" isAnchor="false"><ele>10.6</ele></trkpt>
<trkpt lat="33.508996" lon="126.471231" sectionIndex="0" pointIndex="143" originalElevation="11.0" isOriginalElevationFromOSM="false" isAnchor="false"><ele>10.7</ele></trkpt>
<trkpt lat="33.509015" lon="126.471280" sectionIndex="0" pointIndex="144" originalElevation="11.0" isOriginalElevationFromOSM="false" isAnchor="false"><ele>10.8</ele></trkpt>
<trkpt lat="33.509033" lon="126.471329" sectionIndex="0" pointIndex="145" originalElevation="11.0" isOriginalElevationFromOSM="false" isAnchor="false"><ele>10.8</ele></trkpt>
<trkpt lat="33.509052" lon="126.471378" sectionIndex="0" pointIndex="146" originalElevation="11.0" isOriginalElevationFromOSM="false" isAnchor="false"><ele>10.9</ele></trkpt>
<trkpt lat="33.509057" lon="126.471391" sectionIndex="0" pointIndex="147" originalElevation="11.0" isOriginalElevationFromOSM="false" isAnchor="false"><ele>10.9</ele></trkpt>
<trkpt lat="33.509057" lon="126.471391" sectionIndex="0" pointIndex="148" originalElevation="11.0" isOriginalElevationFromOSM="false" isAnchor="false"><ele>10.9</ele></trkpt>
<trkpt lat="33.509069" lon="126.471443" sectionIndex="0" pointIndex="149" originalElevation="11.0" isOriginalElevationFromOSM="false" isAnchor="false"><ele>10.7</ele></trkpt>
<trkpt lat="33.509081" lon="126.471495" sectionIndex="0" pointIndex="150" originalElevation="11.0" isOriginalElevationFromOSM="false" isAnchor="false"><ele>10.6</ele></trkpt>
<trkpt lat="33.509093" lon="126.471546" sectionIndex="0" pointIndex="151" originalElevation="11.0" isOriginalElevationFromOSM="false" isAnchor="false"><ele>10.5</ele></trkpt>
<trkpt lat="33.509105" lon="126.471598" sectionIndex="0" pointIndex="152" originalElevation="11.0" isOriginalElevationFromOSM="false" isAnchor="false"><ele>10.3</ele></trkpt>
<trkpt lat="33.509117" lon="126.471650" sectionIndex="0" pointIndex="153" originalElevation="11.0" isOriginalElevationFromOSM="false" isAnchor="false"><ele>10.1</ele></trkpt>
<trkpt lat="33.509129" lon="126.471702" sectionIndex="0" pointIndex="154" originalElevation="13.0" isOriginalElevationFromOSM="false" isAnchor="false"><ele>9.9</ele></trkpt>
<trkpt lat="33.509141" lon="126.471754" sectionIndex="0" pointIndex="155" originalElevation="13.0" isOriginalElevationFromOSM="false" isAnchor="false"><ele>9.6</ele></trkpt>
<trkpt lat="33.509154" lon="126.471806" sectionIndex="0" pointIndex="156" originalElevation="13.0" isOriginalElevationFromOSM="false" isAnchor="false"><ele>9.4</ele></trkpt>
<trkpt lat="33.509166" lon="126.471858" sectionIndex="0" pointIndex="157" originalElevation="13.0" isOriginalElevationFromOSM="false" isAnchor="false"><ele>9.1</ele></trkpt>
<trkpt lat="33.509178" lon="126.471910" sectionIndex="0" pointIndex="158" originalElevation="6.0" isOriginalElevationFromOSM="false" isAnchor="false"><ele>8.9</ele></trkpt>
<trkpt lat="33.509190" lon="126.471962" sectionIndex="0" pointIndex="159" originalElevation="6.0" isOriginalElevationFromOSM="false" isAnchor="false"><ele>8.6</ele></trkpt>
<trkpt lat="33.509202" lon="126.472014" sectionIndex="0" pointIndex="160" originalElevation="6.0" isOriginalElevationFromOSM="false" isAnchor="false"><ele>8.4</ele></trkpt>
<trkpt lat="33.509214" lon="126.472066" sectionIndex="0" pointIndex="161" originalElevation="6.0" isOriginalElevationFromOSM="false" isAnchor="false"><ele>8.1</ele></trkpt>
<trkpt lat="33.509226" lon="126.472118" sectionIndex="0" pointIndex="162" originalElevation="6.0" isOriginalElevationFromOSM="false" isAnchor="false"><ele>7.9</ele></trkpt>
<trkpt lat="33.509238" lon="126.472170" sectionIndex="0" pointIndex="163" originalElevation="6.0" isOriginalElevationFromOSM="false" isAnchor="false"><ele>7.7</ele></trkpt>
<trkpt lat="33.509250" lon="126.472222" sectionIndex="0" pointIndex="164" originalElevation="6.0" isOriginalElevationFromOSM="false" isAnchor="false"><ele>7.5</ele></trkpt>
<trkpt lat="33.509262" lon="126.472274" sectionIndex="0" pointIndex="165" originalElevation="6.0" isOriginalElevationFromOSM="false" isAnchor="false"><ele>7.4</ele></trkpt>
<trkpt lat="33.509275" lon="126.472326" sectionIndex="0" pointIndex="166" originalElevation="6.0" isOriginalElevationFromOSM="false" isAnchor="false"><ele>7.3</ele></trkpt>
<trkpt lat="33.509287" lon="126.472377" sectionIndex="0" pointIndex="167" originalElevation="6.0" isOriginalElevationFromOSM="false" isAnchor="false"><ele>7.2</ele></trkpt>
<trkpt lat="33.509299" lon="126.472429" sectionIndex="0" pointIndex="168" originalElevation="6.0" isOriginalElevationFromOSM="false" isAnchor="false"><ele>7.1</ele></trkpt>
<trkpt lat="33.509311" lon="126.472481" sectionIndex="0" pointIndex="169" originalElevation="6.0" isOriginalElevationFromOSM="false" isAnchor="false"><ele>7.1</ele></trkpt>
<trkpt lat="33.509323" lon="126.472533" sectionIndex="0" pointIndex="170" originalElevation="8.0" isOriginalElevationFromOSM="false" isAnchor="false"><ele>7.0</ele></trkpt>
<trkpt lat="33.509335" lon="126.472585" sectionIndex="0" pointIndex="171" originalElevation="8.0" isOriginalElevationFromOSM="false" isAnchor="false"><ele>7.0</ele></trkpt>
<trkpt lat="33.509347" lon="126.472637" sectionIndex="0" pointIndex="172" originalElevation="8.0" isOriginalElevationFromOSM="false" isAnchor="false"><ele>7.0</ele></trkpt>
<trkpt lat="33.509359" lon="126.472689" sectionIndex="0" pointIndex="173" originalElevation="8.0" isOriginalElevationFromOSM="false" isAnchor="false"><ele>6.9</ele></trkpt>
<trkpt lat="33.509365" lon="126.472716" sectionIndex="0" pointIndex="174" originalElevation="8.0" isOriginalElevationFromOSM="false" isAnchor="false"><ele>6.9</ele></trkpt>
<trkpt lat="33.509360" lon="126.472720" sectionIndex="0" pointIndex="175" originalElevation="7.0" isOriginalElevationFromOSM="false" isAnchor="false"><ele>6.9</ele></trkpt>
<trkpt lat="33.509530" lon="126.473560" sectionIndex="0" pointIndex="176" originalElevation="8.0" isOriginalElevationFromOSM="false" isAnchor="false"><ele>6.9</ele></trkpt>
<trkpt lat="33.509530" lon="126.473560" sectionIndex="0" pointIndex="177" originalElevation="8.0" isOriginalElevationFromOSM="false" isAnchor="false"><ele>6.8</ele></trkpt>
<trkpt lat="33.509560" lon="126.473860" sectionIndex="0" pointIndex="178" originalElevation="7.0" isOriginalElevationFromOSM="false" isAnchor="false"><ele>6.8</ele></trkpt>
<trkpt lat="33.509550" lon="126.474010" sectionIndex="0" pointIndex="179" originalElevation="7.0" isOriginalElevationFromOSM="false" isAnchor="false"><ele>6.7</ele></trkpt>
<trkpt lat="33.509550" lon="126.474010" sectionIndex="0" pointIndex="180" originalElevation="7.0" isOriginalElevationFromOSM="false" isAnchor="false"><ele>6.6</ele></trkpt>
<trkpt lat="33.509480" lon="126.474590" sectionIndex="0" pointIndex="181" originalElevation="7.0" isOriginalElevationFromOSM="false" isAnchor="false"><ele>6.6</ele></trkpt>
<trkpt lat="33.509470" lon="126.474710" sectionIndex="0" pointIndex="182" originalElevation="6.0" isOriginalElevationFromOSM="false" isAnchor="false"><ele>6.5</ele></trkpt>
<trkpt lat="33.509440" lon="126.474810" sectionIndex="0" pointIndex="183" originalElevation="6.0" isOriginalElevationFromOSM="false" isAnchor="false"><ele>6.4</ele></trkpt>
<trkpt lat="33.509440" lon="126.474810" sectionIndex="0" pointIndex="184" originalElevation="6.0" isOriginalElevationFromOSM="false" isAnchor="false"><ele>6.3</ele></trkpt>
<trkpt lat="33.509420" lon="126.474890" sectionIndex="0" pointIndex="185" originalElevation="6.0" isOriginalElevationFromOSM="false" isAnchor="false"><ele>6.2</ele></trkpt>
<trkpt lat="33.509340" lon="126.475090" sectionIndex="0" pointIndex="186" originalElevation="6.0" isOriginalElevationFromOSM="false" isAnchor="false"><ele>6.1</ele></trkpt>
<trkpt lat="33.508840" lon="126.476120" sectionIndex="0" pointIndex="187" originalElevation="5.0" isOriginalElevationFromOSM="false" isAnchor="false"><ele>6.0</ele></trkpt>
<trkpt lat="33.508800" lon="126.476260" sectionIndex="0" pointIndex="188" originalElevation="5.0" isOriginalElevationFromOSM="false" isAnchor="false"><ele>5.9</ele></trkpt>
<trkpt lat="33.508800" lon="126.476260" sectionIndex="0" pointIndex="189" originalElevation="5.0" isOriginalElevationFromOSM="false" isAnchor="false"><ele>5.8</ele></trkpt>
<trkpt lat="33.508780" lon="126.476350" sectionIndex="0" pointIndex="190" originalElevation="5.0" isOriginalElevationFromOSM="false" isAnchor="false"><ele>5.8</ele></trkpt>
<trkpt lat="33.508790" lon="126.476810" sectionIndex="0" pointIndex="191" originalElevation="5.0" isOriginalElevationFromOSM="false" isAnchor="false"><ele>5.7</ele></trkpt>
<trkpt lat="33.508800" lon="126.477230" sectionIndex="0" pointIndex="192" originalElevation="6.0" isOriginalElevationFromOSM="false" isAnchor="false"><ele>5.7</ele></trkpt>
<trkpt lat="33.508820" lon="126.477340" sectionIndex="0" pointIndex="193" originalElevation="6.0" isOriginalElevationFromOSM="false" isAnchor="false"><ele>5.6</ele></trkpt>
<trkpt lat="33.508820" lon="126.477340" sectionIndex="0" pointIndex="194" originalElevation="6.0" isOriginalElevationFromOSM="false" isAnchor="false"><ele>5.5</ele></trkpt>
<trkpt lat="33.508900" lon="126.477600" sectionIndex="0" pointIndex="195" originalElevation="6.0" isOriginalElevationFromOSM="false" isAnchor="false"><ele>5.4</ele></trkpt>
<trkpt lat="33.508950" lon="126.477740" sectionIndex="0" pointIndex="196" originalElevation="6.0" isOriginalElevationFromOSM="false" isAnchor="false"><ele>5.4</ele></trkpt>
<trkpt lat="33.509120" lon="126.478060" sectionIndex="0" pointIndex="197" originalElevation="5.5" isOriginalElevationFromOSM="false" isAnchor="false"><ele>5.3</ele></trkpt>
<trkpt lat="33.509120" lon="126.478060" sectionIndex="0" pointIndex="198" originalElevation="5.5" isOriginalElevationFromOSM="false" isAnchor="false"><ele>5.2</ele></trkpt>
<trkpt lat="33.509180" lon="126.478190" sectionIndex="0" pointIndex="199" originalElevation="5.0" isOriginalElevationFromOSM="false" isAnchor="false"><ele>5.1</ele></trkpt>
<trkpt lat="33.509210" lon="126.478310" sectionIndex="0" pointIndex="200" originalElevation="5.0" isOriginalElevationFromOSM="false" isAnchor="false"><ele>4.9</ele></trkpt>
<trkpt lat="33.509270" lon="126.478680" sectionIndex="0" pointIndex="201" originalElevation="5.5" isOriginalElevationFromOSM="false" isAnchor="false"><ele>4.8</ele></trkpt>
<trkpt lat="33.509270" lon="126.478680" sectionIndex="0" pointIndex="202" originalElevation="5.5" isOriginalElevationFromOSM="false" isAnchor="false"><ele>4.6</ele></trkpt>
<trkpt lat="33.509440" lon="126.479520" sectionIndex="0" pointIndex="203" originalElevation="6.0" isOriginalElevationFromOSM="false" isAnchor="false"><ele>4.5</ele></trkpt>
<trkpt lat="33.509520" lon="126.479870" sectionIndex="0" pointIndex="204" originalElevation="9.0" isOriginalElevationFromOSM="false" isAnchor="false"><ele>4.3</ele></trkpt>
<trkpt lat="33.509570" lon="126.480010" sectionIndex="0" pointIndex="205" originalElevation="5.0" isOriginalElevationFromOSM="false" isAnchor="false"><ele>4.1</ele></trkpt>
<trkpt lat="33.509570" lon="126.480010" sectionIndex="0" pointIndex="206" originalElevation="5.0" isOriginalElevationFromOSM="false" isAnchor="false"><ele>4.0</ele></trkpt>
<trkpt lat="33.509600" lon="126.480100" sectionIndex="0" pointIndex="207" originalElevation="1.0" isOriginalElevationFromOSM="false" isAnchor="false"><ele>3.8</ele></trkpt>
<trkpt lat="33.509720" lon="126.480330" sectionIndex="0" pointIndex="208" originalElevation="1.0" isOriginalElevationFromOSM="false" isAnchor="false"><ele>3.6</ele></trkpt>
<trkpt lat="33.510160" lon="126.481050" sectionIndex="0" pointIndex="209" originalElevation="1.0" isOriginalElevationFromOSM="false" isAnchor="false"><ele>3.5</ele></trkpt>
<trkpt lat="33.510160" lon="126.481050" sectionIndex="0" pointIndex="210" originalElevation="1.0" isOriginalElevationFromOSM="false" isAnchor="false"><ele>3.3</ele></trkpt>
<trkpt lat="33.510220" lon="126.481170" sectionIndex="0" pointIndex="211" originalElevation="1.0" isOriginalElevationFromOSM="false" isAnchor="false"><ele>3.2</ele></trkpt>
<trkpt lat="33.510270" lon="126.481290" sectionIndex="0" pointIndex="212" originalElevation="5.0" isOriginalElevationFromOSM="false" isAnchor="false"><ele>3.1</ele></trkpt>
<trkpt lat="33.510380" lon="126.481700" sectionIndex="0" pointIndex="213" originalElevation="5.0" isOriginalElevationFromOSM="false" isAnchor="false"><ele>3.1</ele></trkpt>
<trkpt lat="33.510450" lon="126.481960" sectionIndex="0" pointIndex="214" originalElevation="0.0" isOriginalElevationFromOSM="false" isAnchor="false"><ele>3.0</ele></trkpt>
<trkpt lat="33.510550" lon="126.482460" sectionIndex="0" pointIndex="215" originalElevation="1.0" isOriginalElevationFromOSM="false" isAnchor="false"><ele>3.0</ele></trkpt>
<trkpt lat="33.510550" lon="126.482460" sectionIndex="0" pointIndex="216" originalElevation="1.0" isOriginalElevationFromOSM="false" isAnchor="false"><ele>3.0</ele></trkpt>
<trkpt lat="33.510590" lon="126.482660" sectionIndex="0" pointIndex="217" originalElevation="2.0" isOriginalElevationFromOSM="false" isAnchor="false"><ele>3.0</ele></trkpt>
<trkpt lat="33.510730" lon="126.483170" sectionIndex="0" pointIndex="218" originalElevation="4.0" isOriginalElevationFromOSM="false" isAnchor="false"><ele>3.0</ele></trkpt>
<trkpt lat="33.510820" lon="126.483390" sectionIndex="0" pointIndex="219" originalElevation="4.0" isOriginalElevationFromOSM="false" isAnchor="false"><ele>3.0</ele></trkpt>
<trkpt lat="33.510820" lon="126.483390" sectionIndex="0" pointIndex="220" originalElevation="4.0" isOriginalElevationFromOSM="false" isAnchor="false"><ele>3.1</ele></trkpt>
<trkpt lat="33.510850" lon="126.483440" sectionIndex="0" pointIndex="221" originalElevation="4.0" isOriginalElevationFromOSM="false" isAnchor="false"><ele>3.1</ele></trkpt>
<trkpt lat="33.510940" lon="126.483550" sectionIndex="0" pointIndex="222" originalElevation="4.0" isOriginalElevationFromOSM="false" isAnchor="false"><ele>3.2</ele></trkpt>
<trkpt lat="33.511050" lon="126.483620" sectionIndex="0" pointIndex="223" originalElevation="4.0" isOriginalElevationFromOSM="false" isAnchor="false"><ele>3.3</ele></trkpt>
<trkpt lat="33.511190" lon="126.483690" sectionIndex="0" pointIndex="224" originalElevation="4.0" isOriginalElevationFromOSM="false" isAnchor="false"><ele>3.4</ele></trkpt>
<trkpt lat="33.511420" lon="126.483780" sectionIndex="0" pointIndex="225" originalElevation="3.0" isOriginalElevationFromOSM="false" isAnchor="false"><ele>3.6</ele></trkpt>
<trkpt lat="33.511540" lon="126.483820" sectionIndex="0" pointIndex="226" originalElevation="3.0" isOriginalElevationFromOSM="false" isAnchor="false"><ele>3.8</ele></trkpt>
<trkpt lat="33.512140" lon="126.483940" sectionIndex="0" pointIndex="227" originalElevation="3.0" isOriginalElevationFromOSM="false" isAnchor="false"><ele>4.0</ele></trkpt>
<trkpt lat="33.512140" lon="126.483940" sectionIndex="0" pointIndex="228" originalElevation="3.0" isOriginalElevationFromOSM="false" isAnchor="false"><ele>4.2</ele></trkpt>
<trkpt lat="33.512350" lon="126.483990" sectionIndex="0" pointIndex="229" originalElevation="3.0" isOriginalElevationFromOSM="false" isAnchor="false"><ele>4.4</ele></trkpt>
<trkpt lat="33.513360" lon="126.484300" sectionIndex="0" pointIndex="230" originalElevation="3.0" isOriginalElevationFromOSM="false" isAnchor="false"><ele>4.7</ele></trkpt>
<trkpt lat="33.513360" lon="126.484300" sectionIndex="0" pointIndex="231" originalElevation="3.0" isOriginalElevationFromOSM="false" isAnchor="false"><ele>5.0</ele></trkpt>
<trkpt lat="33.514450" lon="126.484630" sectionIndex="0" pointIndex="232" originalElevation="4.5" isOriginalElevationFromOSM="false" isAnchor="false"><ele>5.3</ele></trkpt>
<trkpt lat="33.514450" lon="126.484630" sectionIndex="0" pointIndex="233" originalElevation="4.5" isOriginalElevationFromOSM="false" isAnchor="false"><ele>5.6</ele></trkpt>
<trkpt lat="33.514580" lon="126.484670" sectionIndex="0" pointIndex="234" originalElevation="6.0" isOriginalElevationFromOSM="false" isAnchor="false"><ele>5.9</ele></trkpt>
<trkpt lat="33.514800" lon="126.484830" sectionIndex="0" pointIndex="235" originalElevation="6.0" isOriginalElevationFromOSM="false" isAnchor="false"><ele>6.2</ele></trkpt>
<trkpt lat="33.515400" lon="126.485220" sectionIndex="0" pointIndex="236" originalElevation="4.0" isOriginalElevationFromOSM="false" isAnchor="false"><ele>6.5</ele></trkpt>
<trkpt lat="33.515400" lon="126.485220" sectionIndex="0" pointIndex="237" originalElevation="4.0" isOriginalElevationFromOSM="false" isAnchor="false"><ele>6.9</ele></trkpt>
<trkpt lat="33.515730" lon="126.485370" sectionIndex="0" pointIndex="238" originalElevation="2.0" isOriginalElevationFromOSM="false" isAnchor="false"><ele>7.2</ele></trkpt>
<trkpt lat="33.516080" lon="126.485520" sectionIndex="0" pointIndex="239" originalElevation="13.0" isOriginalElevationFromOSM="false" isAnchor="false"><ele>7.5</ele></trkpt>
<trkpt lat="33.516160" lon="126.485560" sectionIndex="0" pointIndex="240" originalElevation="13.0" isOriginalElevationFromOSM="false" isAnchor="false"><ele>7.8</ele></trkpt>
<trkpt lat="33.516240" lon="126.485610" sectionIndex="0" pointIndex="241" originalElevation="12.0" isOriginalElevationFromOSM="false" isAnchor="false"><ele>8.1</ele></trkpt>
<trkpt lat="33.516240" lon="126.485610" sectionIndex="0" pointIndex="242" originalElevation="12.0" isOriginalElevationFromOSM="false" isAnchor="false"><ele>8.4</ele></trkpt>
<trkpt lat="33.516860" lon="126.486120" sectionIndex="0" pointIndex="243" originalElevation="11.0" isOriginalElevationFromOSM="false" isAnchor="false"><ele>8.6</ele></trkpt>
<trkpt lat="33.516960" lon="126.486220" sectionIndex="0" pointIndex="244" originalElevation="11.0" isOriginalElevationFromOSM="false" isAnchor="false"><ele>8.8</ele></trkpt>
<trkpt lat="33.517340" lon="126.486680" sectionIndex="0" pointIndex="245" originalElevation="10.5" isOriginalElevationFromOSM="false" isAnchor="false"><ele>9.0</ele></trkpt>
<trkpt lat="33.517340" lon="126.486680" sectionIndex="0" pointIndex="246" originalElevation="10.5" isOriginalElevationFromOSM="false" isAnchor="false"><ele>9.1</ele></trkpt>
<trkpt lat="33.517710" lon="126.487120" sectionIndex="0" pointIndex="247" originalElevation="10.0" isOriginalElevationFromOSM="false" isAnchor="false"><ele>9.2</ele></trkpt>
<trkpt lat="33.518030" lon="126.487440" sectionIndex="0" pointIndex="248" originalElevation="6.0" isOriginalElevationFromOSM="false" isAnchor="false"><ele>9.3</ele></trkpt>
<trkpt lat="33.518050" lon="126.487470" sectionIndex="0" pointIndex="249" originalElevation="6.0" isOriginalElevationFromOSM="false" isAnchor="false"><ele>9.4</ele></trkpt>
<trkpt lat="33.518050" lon="126.487440" sectionIndex="0" pointIndex="250" originalElevation="6.0" isOriginalElevationFromOSM="false" isAnchor="false"><ele>9.4</ele></trkpt>
<trkpt lat="33.518050" lon="126.487440" sectionIndex="0" pointIndex="251" originalElevation="10.0" isOriginalElevationFromOSM="false" isAnchor="false"><ele>9.4</ele></trkpt>
<trkpt lat="33.518073" lon="126.487486" sectionIndex="0" pointIndex="252" originalElevation="10.0" isOriginalElevationFromOSM="false" isAnchor="false"><ele>9.4</ele></trkpt>
<trkpt lat="33.518096" lon="126.487532" sectionIndex="0" pointIndex="253" originalElevation="10.0" isOriginalElevationFromOSM="false" isAnchor="false"><ele>9.4</ele></trkpt>
<trkpt lat="33.518119" lon="126.487579" sectionIndex="0" pointIndex="254" originalElevation="10.0" isOriginalElevationFromOSM="false" isAnchor="false"><ele>9.4</ele></trkpt>
<trkpt lat="33.518143" lon="126.487625" sectionIndex="0" pointIndex="255" originalElevation="10.0" isOriginalElevationFromOSM="false" isAnchor="false"><ele>9.3</ele></trkpt>
<trkpt lat="33.518166" lon="126.487671" sectionIndex="0" pointIndex="256" originalElevation="10.0" isOriginalElevationFromOSM="false" isAnchor="false"><ele>9.2</ele></trkpt>
<trkpt lat="33.518189" lon="126.487717" sectionIndex="0" pointIndex="257" originalElevation="10.0" isOriginalElevationFromOSM="false" isAnchor="false"><ele>9.1</ele></trkpt>
<trkpt lat="33.518212" lon="126.487764" sectionIndex="0" pointIndex="258" originalElevation="10.0" isOriginalElevationFromOSM="false" isAnchor="false"><ele>9.0</ele></trkpt>
<trkpt lat="33.518235" lon="126.487810" sectionIndex="0" pointIndex="259" originalElevation="10.0" isOriginalElevationFromOSM="false" isAnchor="false"><ele>8.9</ele></trkpt>
<trkpt lat="33.518258" lon="126.487856" sectionIndex="0" pointIndex="260" originalElevation="10.0" isOriginalElevationFromOSM="false" isAnchor="false"><ele>8.9</ele></trkpt>
<trkpt lat="33.518281" lon="126.487902" sectionIndex="0" pointIndex="261" originalElevation="10.0" isOriginalElevationFromOSM="false" isAnchor="false"><ele>8.8</ele></trkpt>
<trkpt lat="33.518292" lon="126.487925" sectionIndex="0" pointIndex="262" originalElevation="10.0" isOriginalElevationFromOSM="false" isAnchor="false"><ele>8.7</ele></trkpt>
<trkpt lat="33.518292" lon="126.487925" sectionIndex="0" pointIndex="263" originalElevation="10.0" isOriginalElevationFromOSM="false" isAnchor="false"><ele>8.6</ele></trkpt>
<trkpt lat="33.518316" lon="126.487971" sectionIndex="0" pointIndex="264" originalElevation="10.0" isOriginalElevationFromOSM="false" isAnchor="false"><ele>8.5</ele></trkpt>
<trkpt lat="33.518339" lon="126.488017" sectionIndex="0" pointIndex="265" originalElevation="6.0" isOriginalElevationFromOSM="false" isAnchor="false"><ele>8.4</ele></trkpt>
<trkpt lat="33.518362" lon="126.488063" sectionIndex="0" pointIndex="266" originalElevation="6.0" isOriginalElevationFromOSM="false" isAnchor="false"><ele>8.3</ele></trkpt>
<trkpt lat="33.518385" lon="126.488110" sectionIndex="0" pointIndex="267" originalElevation="6.0" isOriginalElevationFromOSM="false" isAnchor="false"><ele>8.3</ele></trkpt>
<trkpt lat="33.518408" lon="126.488156" sectionIndex="0" pointIndex="268" originalElevation="6.0" isOriginalElevationFromOSM="false" isAnchor="false"><ele>8.2</ele></trkpt>
<trkpt lat="33.518431" lon="126.488202" sectionIndex="0" pointIndex="269" originalElevation="6.0" isOriginalElevationFromOSM="false" isAnchor="false"><ele>8.2</ele></trkpt>
<trkpt lat="33.518455" lon="126.488248" sectionIndex="0" pointIndex="270" originalElevation="6.0" isOriginalElevationFromOSM="false" isAnchor="false"><ele>8.1</ele></trkpt>
<trkpt lat="33.518478" lon="126.488294" sectionIndex="0" pointIndex="271" originalElevation="6.0" isOriginalElevationFromOSM="false" isAnchor="false"><ele>8.1</ele></trkpt>
<trkpt lat="33.518501" lon="126.488341" sectionIndex="0" pointIndex="272" originalElevation="9.0" isOriginalElevationFromOSM="false" isAnchor="false"><ele>8.2</ele></trkpt>
<trkpt lat="33.518524" lon="126.488387" sectionIndex="0" pointIndex="273" originalElevation="9.0" isOriginalElevationFromOSM="false" isAnchor="false"><ele>8.2</ele></trkpt>
<trkpt lat="33.518547" lon="126.488433" sectionIndex="0" pointIndex="274" originalElevation="9.0" isOriginalElevationFromOSM="false" isAnchor="false"><ele>8.2</ele></trkpt>
<trkpt lat="33.518570" lon="126.488479" sectionIndex="0" pointIndex="275" originalElevation="9.0" isOriginalElevationFromOSM="false" isAnchor="false"><ele>8.3</ele></trkpt>
<trkpt lat="33.518594" lon="126.488526" sectionIndex="0" pointIndex="276" originalElevation="9.0" isOriginalElevationFromOSM="false" isAnchor="false"><ele>8.3</ele></trkpt>
<trkpt lat="33.518617" lon="126.488572" sectionIndex="0" pointIndex="277" originalElevation="9.0" isOriginalElevationFromOSM="false" isAnchor="false"><ele>8.4</ele></trkpt>
<trkpt lat="33.518640" lon="126.488618" sectionIndex="0" pointIndex="278" originalElevation="9.0" isOriginalElevationFromOSM="false" isAnchor="false"><ele>8.5</ele></trkpt>
<trkpt lat="33.518663" lon="126.488664" sectionIndex="0" pointIndex="279" originalElevation="9.0" isOriginalElevationFromOSM="false" isAnchor="false"><ele>8.5</ele></trkpt>
<trkpt lat="33.518686" lon="126.488710" sectionIndex="0" pointIndex="280" originalElevation="9.0" isOriginalElevationFromOSM="false" isAnchor="false"><ele>8.6</ele></trkpt>
<trkpt lat="33.518709" lon="126.488757" sectionIndex="0" pointIndex="281" originalElevation="9.0" isOriginalElevationFromOSM="false" isAnchor="false"><ele>8.7</ele></trkpt>
<trkpt lat="33.518733" lon="126.488803" sectionIndex="0" pointIndex="282" originalElevation="9.0" isOriginalElevationFromOSM="false" isAnchor="false"><ele>8.7</ele></trkpt>
<trkpt lat="33.518756" lon="126.488849" sectionIndex="0" pointIndex="283" originalElevation="9.0" isOriginalElevationFromOSM="false" isAnchor="false"><ele>8.8</ele></trkpt>
<trkpt lat="33.518779" lon="126.488895" sectionIndex="0" pointIndex="284" originalElevation="9.0" isOriginalElevationFromOSM="false" isAnchor="false"><ele>8.9</ele></trkpt>
<trkpt lat="33.518802" lon="126.488942" sectionIndex="0" pointIndex="285" originalElevation="9.0" isOriginalElevationFromOSM="false" isAnchor="false"><ele>8.9</ele></trkpt>
<trkpt lat="33.518811" lon="126.488960" sectionIndex="0" pointIndex="286" originalElevation="9.0" isOriginalElevationFromOSM="false" isAnchor="false"><ele>9.0</ele></trkpt>
</trkseg>
</trk>
</gpx>