<?xml version="1.0" encoding="UTF-8"?>
<gpx xmlns="http://www.topografix.com/GPX/1/1" creator="MTK - http://www.toursprung.com" version="1.1" xmlns:xsi="http://www.w3.org/2001/XMLSchema-instance" xsi:schemaLocation="http://www.topografix.com/GPX/1/1 http://www.topografix.com/GPX/1/1/gpx.xsd">
<metadata>
<name>오름트레일 쉐이크아웃 런 (탑동-용담포구) 5.6km</name>
<extensions><extra>{}</extra></extensions>
</metadata>

<trk>
<name>오름트레일 쉐이크아웃 런 (탑동-용담포구) 5.6km</name>
<trkseg>
<trkpt lat="33.518590" lon="126.524070" sectionIndex="0" pointIndex="0" originalElevation="1.5" isOriginalElevationFromOSM="false" isAnchor="true"><ele>0.3</ele></trkpt>
<trkpt lat="33.518590" lon="126.524070" sectionIndex="0" pointIndex="1" originalElevation="1.5" isOriginalElevationFromOSM="false" isAnchor="false"><ele>0.2</ele></trkpt>
<trkpt lat="33.519110" lon="126.520000" sectionIndex="0" pointIndex="2" originalElevation="1.0" isOriginalElevationFromOSM="false" isAnchor="false"><ele>0.2</ele></trkpt>
<trkpt lat="33.519360" lon="126.518150" sectionIndex="0" pointIndex="3" originalElevation="-1.0" isOriginalElevationFromOSM="false" isAnchor="false"><ele>0.2</ele></trkpt>
<trkpt lat="33.519380" lon="126.517950" sectionIndex="0" pointIndex="4" originalElevation="-1.0" isOriginalElevationFromOSM="false" isAnchor="false"><ele>0.2</ele></trkpt>
<trkpt lat="33.519380" lon="126.517810" sectionIndex="0" pointIndex="5" originalElevation="0.0" isOriginalElevationFromOSM="false" isAnchor="false"><ele>0.3</ele></trkpt>
<trkpt lat="33.519370" lon="126.517670" sectionIndex="0" pointIndex="6" originalElevation="0.0" isOriginalElevationFromOSM="false" isAnchor="false"><ele>0.3</ele></trkpt>
<trkpt lat="33.519340" lon="126.517500" sectionIndex="0" pointIndex="7" originalElevation="0.0" isOriginalElevationFromOSM="false" isAnchor="false"><ele>0.4</ele></trkpt>
<trkpt lat="33.519270" lon="126.517270" sectionIndex="0" pointIndex="8" originalElevation="0.0" isOriginalElevationFromOSM="false" isAnchor="false"><ele>0.5</ele></trkpt>
<trkpt lat="33.519210" lon="126.517120" sectionIndex="0" pointIndex="9" originalElevation="0.0" isOriginalElevationFromOSM="false" isAnchor="false"><ele>0.5</ele></trkpt>
<trkpt lat="33.519120" lon="126.516950" sectionIndex="0" pointIndex="10" originalElevation="0.0" isOriginalElevationFromOSM="false" isAnchor="false"><ele>0.6</ele></trkpt>
<trkpt lat="33.519010" lon="126.516790" sectionIndex="0" pointIndex="11" originalElevation="0.0" isOriginalElevationFromOSM="false" isAnchor="false"><ele>0.7</ele></trkpt>
<trkpt lat="33.518910" lon="126.516680" sectionIndex="0" pointIndex="12" originalElevation="0.0" isOriginalElevationFromOSM="false" isAnchor="false"><ele>0.8</ele></trkpt>
<trkpt lat="33.518800" lon="126.516570" sectionIndex="0" pointIndex="13" originalElevation="0.0" isOriginalElevationFromOSM="false" isAnchor="false"><ele>1.0</ele></trkpt>
<trkpt lat="33.518620" lon="126.516450" sectionIndex="0" pointIndex="14" originalElevation="1.0" isOriginalElevationFromOSM="false" isAnchor="false"><ele>1.1</ele></trkpt>
<trkpt lat="33.518480" lon="126.516370" sectionIndex="0" pointIndex="15" originalElevation="1.0" isOriginalElevationFromOSM="false" isAnchor="false"><ele>1.3</ele></trkpt>
<trkpt lat="33.518340" lon="126.516320" sectionIndex="0" pointIndex="16" originalElevation="1.0" isOriginalElevationFromOSM="false" isAnchor="false"><ele>1.4</ele></trkpt>
<trkpt lat="33.518220" lon="126.516300" sectionIndex="0" pointIndex="17" originalElevation="1.0" isOriginalElevationFromOSM="false" isAnchor="false"><ele>1.6</ele></trkpt>
<trkpt lat="33.518090" lon="126.516280" sectionIndex="0" pointIndex="18" originalElevation="1.0" isOriginalElevationFromOSM="false" isAnchor="false"><ele>1.8</ele></trkpt>
<trkpt lat="33.517960" lon="126.516280" sectionIndex="0" pointIndex="19" originalElevation="1.0" isOriginalElevationFromOSM="false" isAnchor="false"><ele>2.0</ele></trkpt>
<trkpt lat="33.517790" lon="126.516290" sectionIndex="0" pointIndex="20" originalElevation="4.0" isOriginalElevationFromOSM="false" isAnchor="false"><ele>2.2</ele></trkpt>
<trkpt lat="33.517500" lon="126.516340" sectionIndex="0" pointIndex="21" originalElevation="4.0" isOriginalElevationFromOSM="false" isAnchor="false"><ele>2.4</ele></trkpt>
<trkpt lat="33.517340" lon="126.516300" sectionIndex="0" pointIndex="22" originalElevation="4.0" isOriginalElevationFromOSM="false" isAnchor="false"><ele>2.6</ele></trkpt>
<trkpt lat="33.517270" lon="126.516300" sectionIndex="0" pointIndex="23" originalElevation="4.0" isOriginalElevationFromOSM="false" isAnchor="false"><ele>2.8</ele></trkpt>
<trkpt lat="33.517170" lon="126.516310" sectionIndex="0" pointIndex="24" originalElevation="4.0" isOriginalElevationFromOSM="false" isAnchor="false"><ele>3.0</ele></trkpt>
<trkpt lat="33.516500" lon="126.516460" sectionIndex="0" pointIndex="25" originalElevation="2.0" isOriginalElevationFromOSM="false" isAnchor="false"><ele>3.2</ele></trkpt>
<trkpt lat="33.516430" lon="126.516470" sectionIndex="0" pointIndex="26" originalElevation="2.0" isOriginalElevationFromOSM="false" isAnchor="true"><ele>3.4</ele></trkpt>
<trkpt lat="33.516220" lon="126.516480" sectionIndex="0" pointIndex="27" originalElevation="3.0" isOriginalElevationFromOSM="false" isAnchor="false"><ele>3.6</ele></trkpt>
<trkpt lat="33.515880" lon="126.516480" sectionIndex="0" pointIndex="28" originalElevation="3.0" isOriginalElevationFromOSM="false" isAnchor="false"><ele>3.8</ele></trkpt>
<trkpt lat="33.515850" lon="126.516320" sectionIndex="0" pointIndex="29" originalElevation="4.0" isOriginalElevationFromOSM="false" isAnchor="false"><ele>4.0</ele></trkpt>
<trkpt lat="33.515850" lon="126.516320" sectionIndex="0" pointIndex="30" originalElevation="4.0" isOriginalElevationFromOSM="false" isAnchor="true"><ele>4.2</ele></trkpt>
<trkpt lat="33.515800" lon="126.516110" sectionIndex="0" pointIndex="31" originalElevation="5.0" isOriginalElevationFromOSM="false" isAnchor="false"><ele>4.4</ele></trkpt>
<trkpt lat="33.515910" lon="126.515620" sectionIndex="0" pointIndex="32" originalElevation="5.0" isOriginalElevationFromOSM="false" isAnchor="false"><ele>4.6</ele></trkpt>
<trkpt lat="33.515970" lon="126.515280" sectionIndex="0" pointIndex="33" originalElevation="5.0" isOriginalElevationFromOSM="false" isAnchor="false"><ele>4.9</ele></trkpt>
<trkpt lat="33.515990" lon="126.515080" sectionIndex="0" pointIndex="34" originalElevation="5.0" isOriginalElevationFromOSM="false" isAnchor="false"><ele>5.1</ele></trkpt>
<trkpt lat="33.515990" lon="126.514980" sectionIndex="0" pointIndex="35" originalElevation="5.0" isOriginalElevationFromOSM="false" isAnchor="false"><ele>5.4</ele></trkpt>
<trkpt lat="33.515990" lon="126.514980" sectionIndex="0" pointIndex="36" originalElevation="5.0" isOriginalElevationFromOSM="false" isAnchor="true"><ele>5.7</ele></trkpt>
<trkpt lat="33.515990" lon="126.514970" sectionIndex="0" pointIndex="37" originalElevation="5.0" isOriginalElevationFromOSM="false" isAnchor="false"><ele>6.0</ele></trkpt>
<trkpt lat="33.515890" lon="126.514940" sectionIndex="0" pointIndex="38" originalElevation="5.0" isOriginalElevationFromOSM="false" isAnchor="false"><ele>6.3</ele></trkpt>
<trkpt lat="33.515790" lon="126.514890" sectionIndex="0" pointIndex="39" originalElevation="5.0" isOriginalElevationFromOSM="false" isAnchor="false"><ele>6.6</ele></trkpt>
<trkpt lat="33.515680" lon="126.514820" sectionIndex="0" pointIndex="40" originalElevation="5.0" isOriginalElevationFromOSM="false" isAnchor="false"><ele>6.9</ele></trkpt>
<trkpt lat="33.515480" lon="126.514790" sectionIndex="0" pointIndex="41" originalElevation="5.0" isOriginalElevationFromOSM="false" isAnchor="false"><ele>7.2</ele></trkpt>
<trkpt lat="33.515310" lon="126.514750" sectionIndex="0" pointIndex="42" originalElevation="9.0" isOriginalElevationFromOSM="false" isAnchor="false"><ele>7.5</ele></trkpt>
<trkpt lat="33.514840" lon="126.514660" sectionIndex="0" pointIndex="43" originalElevation="9.0" isOriginalElevationFromOSM="false" isAnchor="false"><ele>7.8</ele></trkpt>
<trkpt lat="33.514900" lon="126.514190" sectionIndex="0" pointIndex="44" originalElevation="9.0" isOriginalElevationFromOSM="false" isAnchor="false"><ele>8.0</ele></trkpt>
<trkpt lat="33.514970" lon="126.513910" sectionIndex="0" pointIndex="45" originalElevation="9.0" isOriginalElevationFromOSM="false" isAnchor="false"><ele>8.2</ele></trkpt>
<trkpt lat="33.515120" lon="126.513800" sectionIndex="0" pointIndex="46" originalElevation="9.0" isOriginalElevationFromOSM="false" isAnchor="false"><ele>8.4</ele></trkpt>
<trkpt lat="33.515150" lon="126.513670" sectionIndex="0" pointIndex="47" originalElevation="12.0" isOriginalElevationFromOSM="false" isAnchor="false"><ele>8.4</ele></trkpt>
<trkpt lat="33.515240" lon="126.513130" sectionIndex="0" pointIndex="48" originalElevation="12.0" isOriginalElevationFromOSM="false" isAnchor="false"><ele>8.4</ele></trkpt>
<trkpt lat="33.515270" lon="126.513030" sectionIndex="0" pointIndex="49" originalElevation="12.0" isOriginalElevationFromOSM="false" isAnchor="false"><ele>8.4</ele></trkpt>
<trkpt lat="33.515310" lon="126.512980" sectionIndex="0" pointIndex="50" originalElevation="12.0" isOriginalElevationFromOSM="false" isAnchor="false"><ele>8.2</ele></trkpt>
<trkpt lat="33.515560" lon="126.512800" sectionIndex="0" pointIndex="51" originalElevation="10.0" isOriginalElevationFromOSM="false" isAnchor="false"><ele>8.1</ele></trkpt>
<trkpt lat="33.515610" lon="126.512730" sectionIndex="0" pointIndex="52" originalElevation="10.0" isOriginalElevationFromOSM="false" isAnchor="false"><ele>7.9</ele></trkpt>
<trkpt lat="33.515650" lon="126.512640" sectionIndex="0" pointIndex="53" originalElevation="10.0" isOriginalElevationFromOSM="false" isAnchor="false"><ele>7.7</ele></trkpt>
<trkpt lat="33.515670" lon="126.512580" sectionIndex="0" pointIndex="54" originalElevation="10.0" isOriginalElevationFromOSM="false" isAnchor="false"><ele>7.5</ele></trkpt>
<trkpt lat="33.515680" lon="126.512450" sectionIndex="0" pointIndex="55" originalElevation="10.0" isOriginalElevationFromOSM="false" isAnchor="false"><ele>7.3</ele></trkpt>
<trkpt lat="33.515680" lon="126.511970" sectionIndex="0" pointIndex="56" originalElevation="5.0" isOriginalElevationFromOSM="false" isAnchor="false"><ele>7.1</ele></trkpt>
<trkpt lat="33.515670" lon="126.511790" sectionIndex="0" pointIndex="57" originalElevation="5.0" isOriginalElevationFromOSM="false" isAnchor="false"><ele>6.9</ele></trkpt>
<trkpt lat="33.515640" lon="126.511680" sectionIndex="0" pointIndex="58" originalElevation="5.0" isOriginalElevationFromOSM="false" isAnchor="false"><ele>6.7</ele></trkpt>
<trkpt lat="33.515530" lon="126.511420" sectionIndex="0" pointIndex="59" originalElevation="5.0" isOriginalElevationFromOSM="false" isAnchor="false"><ele>6.5</ele></trkpt>
<trkpt lat="33.515480" lon="126.511290" sectionIndex="0" pointIndex="60" originalElevation="5.0" isOriginalElevationFromOSM="false" isAnchor="false"><ele>6.3</ele></trkpt>
<trkpt lat="33.515470" lon="126.511220" sectionIndex="0" pointIndex="61" originalElevation="0.0" isOriginalElevationFromOSM="false" isAnchor="false"><ele>6.2</ele></trkpt>
<trkpt lat="33.515480" lon="126.511150" sectionIndex="0" pointIndex="62" originalElevation="0.0" isOriginalElevationFromOSM="false" isAnchor="false"><ele>6.1</ele></trkpt>
<trkpt lat="33.515500" lon="126.511050" sectionIndex="0" pointIndex="63" originalElevation="0.0" isOriginalElevationFromOSM="false" isAnchor="false"><ele>6.1</ele></trkpt>
<trkpt lat="33.515620" lon="126.510550" sectionIndex="0" pointIndex="64" originalElevation="0.0" isOriginalElevationFromOSM="false" isAnchor="false"><ele>6.1</ele></trkpt>
<trkpt lat="33.515660" lon="126.510500" sectionIndex="0" pointIndex="65" originalElevation="0.0" isOriginalElevationFromOSM="false" isAnchor="false"><ele>6.1</ele></trkpt>
<trkpt lat="33.515690" lon="126.510340" sectionIndex="0" pointIndex="66" originalElevation="7.0" isOriginalElevationFromOSM="false" isAnchor="false"><ele>6.2</ele></trkpt>
<trkpt lat="33.515880" lon="126.509520" sectionIndex="0" pointIndex="67" originalElevation="11.0" isOriginalElevationFromOSM="false" isAnchor="false"><ele>6.3</ele></trkpt>
<trkpt lat="33.515930" lon="126.509280" sectionIndex="0" pointIndex="68" originalElevation="11.0" isOriginalElevationFromOSM="false" isAnchor="false"><ele>6.4</ele></trkpt>
<trkpt lat="33.516040" lon="126.508700" sectionIndex="0" pointIndex="69" originalElevation="12.0" isOriginalElevationFromOSM="false" isAnchor="false"><ele>6.5</ele></trkpt>
<trkpt lat="33.516070" lon="126.508600" sectionIndex="0" pointIndex="70" originalElevation="12.0" isOriginalElevationFromOSM="false" isAnchor="false"><ele>6.5</ele></trkpt>
<trkpt lat="33.516110" lon="126.508510" sectionIndex="0" pointIndex="71" originalElevation="12.0" isOriginalElevationFromOSM="false" isAnchor="false"><ele>6.5</ele></trkpt>
<trkpt lat="33.516170" lon="126.508470" sectionIndex="0" pointIndex="72" originalElevation="12.0" isOriginalElevationFromOSM="false" isAnchor="false"><ele>6.6</ele></trkpt>
<trkpt lat="33.516180" lon="126.508450" sectionIndex="0" pointIndex="73" originalElevation="12.0" isOriginalElevationFromOSM="false" isAnchor="false"><ele>6.6</ele></trkpt>
<trkpt lat="33.516320" lon="126.508090" sectionIndex="0" pointIndex="74" originalElevation="3.0" isOriginalElevationFromOSM="false" isAnchor="false"><ele>6.5</ele></trkpt>
<trkpt lat="33.516360" lon="126.507970" sectionIndex="0" pointIndex="75" originalElevation="3.0" isOriginalElevationFromOSM="false" isAnchor="false"><ele>6.4</ele></trkpt>
<trkpt lat="33.516400" lon="126.507750" sectionIndex="0" pointIndex="76" originalElevation="4.0" isOriginalElevationFromOSM="false" isAnchor="false"><ele>6.3</ele></trkpt>
<trkpt lat="33.516410" lon="126.507490" sectionIndex="0" pointIndex="77" originalElevation="4.0" isOriginalElevationFromOSM="false" isAnchor="false"><ele>6.2</ele></trkpt>
<trkpt lat="33.516420" lon="126.506960" sectionIndex="0" pointIndex="78" originalElevation="5.0" isOriginalElevationFromOSM="false" isAnchor="false"><ele>6.1</ele></trkpt>
<trkpt lat="33.516390" lon="126.506670" sectionIndex="0" pointIndex="79" originalElevation="5.0" isOriginalElevationFromOSM="false" isAnchor="false"><ele>5.9</ele></trkpt>
<trkpt lat="33.516390" lon="126.506510" sectionIndex="0" pointIndex="80" originalElevation="5.0" isOriginalElevationFromOSM="false" isAnchor="false"><ele>5.7</ele></trkpt>
<trkpt lat="33.516410" lon="126.506430" sectionIndex="0" pointIndex="81" originalElevation="5.0" isOriginalElevationFromOSM="false" isAnchor="false"><ele>5.6</ele></trkpt>
<trkpt lat="33.516470" lon="126.506250" sectionIndex="0" pointIndex="82" originalElevation="5.0" isOriginalElevationFromOSM="false" isAnchor="false"><ele>5.3</ele></trkpt>
<trkpt lat="33.516530" lon="126.506090" sectionIndex="0" pointIndex="83" originalElevation="6.0" isOriginalElevationFromOSM="false" isAnchor="false"><ele>5.1</ele></trkpt>
<trkpt lat="33.516790" lon="126.505520" sectionIndex="0" pointIndex="84" originalElevation="6.0" isOriginalElevationFromOSM="false" isAnchor="false"><ele>4.9</ele></trkpt>
<trkpt lat="33.516840" lon="126.505400" sectionIndex="0" pointIndex="85" originalElevation="5.0" isOriginalElevationFromOSM="false" isAnchor="false"><ele>4.7</ele></trkpt>
<trkpt lat="33.516850" lon="126.505340" sectionIndex="0" pointIndex="86" originalElevation="5.0" isOriginalElevationFromOSM="false" isAnchor="false"><ele>4.5</ele></trkpt>
<trkpt lat="33.516860" lon="126.505220" sectionIndex="0" pointIndex="87" originalElevation="5.0" isOriginalElevationFromOSM="false" isAnchor="false"><ele>4.3</ele></trkpt>
<trkpt lat="33.516860" lon="126.505010" sectionIndex="0" pointIndex="88" originalElevation="5.0" isOriginalElevationFromOSM="false" isAnchor="false"><ele>4.1</ele></trkpt>
<trkpt lat="33.516840" lon="126.504850" sectionIndex="0" pointIndex="89" originalElevation="5.0" isOriginalElevationFromOSM="false" isAnchor="false"><ele>4.0</ele></trkpt>
<trkpt lat="33.516790" lon="126.504460" sectionIndex="0" pointIndex="90" originalElevation="3.0" isOriginalElevationFromOSM="false" isAnchor="false"><ele>3.9</ele></trkpt>
<trkpt lat="33.516790" lon="126.504320" sectionIndex="0" pointIndex="91" originalElevation="3.0" isOriginalElevationFromOSM="false" isAnchor="false"><ele>3.8</ele></trkpt>
<trkpt lat="33.516790" lon="126.504220" sectionIndex="0" pointIndex="92" originalElevation="3.0" isOriginalElevationFromOSM="false" isAnchor="false"><ele>3.7</ele></trkpt>
<trkpt lat="33.516820" lon="126.504110" sectionIndex="0" pointIndex="93" originalElevation="3.0" isOriginalElevationFromOSM="false" isAnchor="false"><ele>3.6</ele></trkpt>
<trkpt lat="33.516850" lon="126.504000" sectionIndex="0" pointIndex="94" originalElevation="3.0" isOriginalElevationFromOSM="false" isAnchor="false"><ele>3.5</ele></trkpt>
<trkpt lat="33.517260" lon="126.502800" sectionIndex="0" pointIndex="95" originalElevation="2.0" isOriginalElevationFromOSM="false" isAnchor="false"><ele>3.4</ele></trkpt>
<trkpt lat="33.517280" lon="126.502710" sectionIndex="0" pointIndex="96" originalElevation="2.0" isOriginalElevationFromOSM="false" isAnchor="false"><ele>3.3</ele></trkpt>
<trkpt lat="33.517310" lon="126.501650" sectionIndex="0" pointIndex="97" originalElevation="2.0" isOriginalElevationFromOSM="false" isAnchor="false"><ele>3.3</ele></trkpt>
<trkpt lat="33.517420" lon="126.500860" sectionIndex="0" pointIndex="98" originalElevation="2.0" isOriginalElevationFromOSM="false" isAnchor="false"><ele>3.2</ele></trkpt>
<trkpt lat="33.517440" lon="126.500720" sectionIndex="0" pointIndex="99" originalElevation="2.0" isOriginalElevationFromOSM="false" isAnchor="false"><ele>3.2</ele></trkpt>
<trkpt lat="33.517490" lon="126.500510" sectionIndex="0" pointIndex="100" originalElevation="2.0" isOriginalElevationFromOSM="false" isAnchor="false"><ele>3.1</ele></trkpt>
<trkpt lat="33.517550" lon="126.500400" sectionIndex="0" pointIndex="101" originalElevation="5.0" isOriginalElevationFromOSM="false" isAnchor="false"><ele>3.1</ele></trkpt>
<trkpt lat="33.517660" lon="126.500240" sectionIndex="0" pointIndex="102" originalElevation="5.0" isOriginalElevationFromOSM="false" isAnchor="false"><ele>3.1</ele></trkpt>
<trkpt lat="33.517660" lon="126.500240" sectionIndex="0" pointIndex="103" originalElevation="5.0" isOriginalElevationFromOSM="false" isAnchor="true"><ele>3.1</ele></trkpt>
<trkpt lat="33.517660" lon="126.500240" sectionIndex="0" pointIndex="104" originalElevation="5.0" isOriginalElevationFromOSM="false" isAnchor="false"><ele>3.1</ele></trkpt>
<trkpt lat="33.517550" lon="126.500400" sectionIndex="0" pointIndex="105" originalElevation="5.0" isOriginalElevationFromOSM="false" isAnchor="false"><ele>3.0</ele></trkpt>
<trkpt lat="33.517490" lon="126.500510" sectionIndex="0" pointIndex="106" originalElevation="2.0" isOriginalElevationFromOSM="false" isAnchor="false"><ele>3.0</ele></trkpt>
<trkpt lat="33.517440" lon="126.500720" sectionIndex="0" pointIndex="107" originalElevation="2.0" isOriginalElevationFromOSM="false" isAnchor="false"><ele>3.0</ele></trkpt>
<trkpt lat="33.517420" lon="126.500860" sectionIndex="0" pointIndex="108" originalElevation="2.0" isOriginalElevationFromOSM="false" isAnchor="false"><ele>3.0</ele></trkpt>
<trkpt lat="33.517310" lon="126.501650" sectionIndex="0" pointIndex="109" originalElevation="2.0" isOriginalElevationFromOSM="false" isAnchor="false"><ele>3.0</ele></trkpt>
<trkpt lat="33.517280" lon="126.502710" sectionIndex="0" pointIndex="110" originalElevation="2.0" isOriginalElevationFromOSM="false" isAnchor="false"><ele>3.0</ele></trkpt>
<trkpt lat="33.517260" lon="126.502800" sectionIndex="0" pointIndex="111" originalElevation="2.0" isOriginalElevationFromOSM="false" isAnchor="false"><ele>3.1</ele></trkpt>
<trkpt lat="33.516850" lon="126.504000" sectionIndex="0" pointIndex="112" originalElevation="3.0" isOriginalElevationFromOSM="false" isAnchor="false"><ele>3.1</ele></trkpt>
<trkpt lat="33.516820" lon="126.504110" sectionIndex="0" pointIndex="113" originalElevation="3.0" isOriginalElevationFromOSM="false" isAnchor="false"><ele>3.2</ele></trkpt>
<trkpt lat="33.516790" lon="126.504220" sectionIndex="0" pointIndex="114" originalElevation="3.0" isOriginalElevationFromOSM="false" isAnchor="false"><ele>3.2</ele></trkpt>
<trkpt lat="33.516740" lon="126.504210" sectionIndex="0" pointIndex="115" originalElevation="3.0" isOriginalElevationFromOSM="false" isAnchor="false"><ele>3.3</ele></trkpt>
<trkpt lat="33.516750" lon="126.504190" sectionIndex="0" pointIndex="116" originalElevation="3.0" isOriginalElevationFromOSM="false" isAnchor="false"><ele>3.4</ele></trkpt>
<trkpt lat="33.516750" lon="126.504190" sectionIndex="0" pointIndex="117" originalElevation="3.0" isOriginalElevationFromOSM="false" isAnchor="false"><ele>3.5</ele></trkpt>
<trkpt lat="33.516740" lon="126.504210" sectionIndex="0" pointIndex="118" originalElevation="3.0" isOriginalElevationFromOSM="false" isAnchor="false"><ele>3.6</ele></trkpt>
<trkpt lat="33.516790" lon="126.504220" sectionIndex="0" pointIndex="119" originalElevation="3.0" isOriginalElevationFromOSM="false" isAnchor="false"><ele>3.7</ele></trkpt>
<trkpt lat="33.516790" lon="126.504320" sectionIndex="0" pointIndex="120" originalElevation="3.0" isOriginalElevationFromOSM="false" isAnchor="false"><ele>3.8</ele></trkpt>
<trkpt lat="33.516790" lon="126.504460" sectionIndex="0" pointIndex="121" originalElevation="3.0" isOriginalElevationFromOSM="false" isAnchor="false"><ele>3.9</ele></trkpt>
<trkpt lat="33.516840" lon="126.504850" sectionIndex="0" pointIndex="122" originalElevation="5.0" isOriginalElevationFromOSM="false" isAnchor="false"><ele>4.1</ele></trkpt>
<trkpt lat="33.516860" lon="126.505010" sectionIndex="0" pointIndex="123" originalElevation="5.0" isOriginalElevationFromOSM="false" isAnchor="false"><ele>4.2</ele></trkpt>
<trkpt lat="33.516860" lon="126.505220" sectionIndex="0" pointIndex="124" originalElevation="5.0" isOriginalElevationFromOSM="false" isAnchor="false"><ele>4.3</ele></trkpt>
<trkpt lat="33.516850" lon="126.505340" sectionIndex="0" pointIndex="125" originalElevation="5.0" isOriginalElevationFromOSM="false" isAnchor="false"><ele>4.5</ele></trkpt>
<trkpt lat="33.516840" lon="126.505400" sectionIndex="0" pointIndex="126" originalElevation="5.0" isOriginalElevationFromOSM="false" isAnchor="false"><ele>4.6</ele></trkpt>
<trkpt lat="33.516790" lon="126.505520" sectionIndex="0" pointIndex="127" originalElevation="6.0" isOriginalElevationFromOSM="false" isAnchor="false"><ele>4.6</ele></trkpt>
<trkpt lat="33.516530" lon="126.506090" sectionIndex="0" pointIndex="128" originalElevation="6.0" isOriginalElevationFromOSM="false" isAnchor="false"><ele>4.7</ele></trkpt>
<trkpt lat="33.516470" lon="126.506250" sectionIndex="0" pointIndex="129" originalElevation="5.0" isOriginalElevationFromOSM="false" isAnchor="false"><ele>4.8</ele></trkpt>
<trkpt lat="33.516410" lon="126.506430" sectionIndex="0" pointIndex="130" originalElevation="5.0" isOriginalElevationFromOSM="false" isAnchor="false"><ele>4.9</ele></trkpt>
<trkpt lat="33.516390" lon="126.506510" sectionIndex="0" pointIndex="131" originalElevation="5.0" isOriginalElevationFromOSM="false" isAnchor="false"><ele>5.0</ele></trkpt>
<trkpt lat="33.516350" lon="126.506500" sectionIndex="0" pointIndex="132" originalElevation="5.0" isOriginalElevationFromOSM="false" isAnchor="false"><ele>5.1</ele></trkpt>
<trkpt lat="33.516350" lon="126.506530" sectionIndex="0" pointIndex="133" originalElevation="5.0" isOriginalElevationFromOSM="false" isAnchor="false"><ele>5.3</ele></trkpt>
<trkpt lat="33.516350" lon="126.506530" sectionIndex="0" pointIndex="134" originalElevation="5.0" isOriginalElevationFromOSM="false" isAnchor="false"><ele>5.4</ele></trkpt>
<trkpt lat="33.516350" lon="126.506500" sectionIndex="0" pointIndex="135" originalElevation="5.0" isOriginalElevationFromOSM="false" isAnchor="false"><ele>5.6</ele></trkpt>
<trkpt lat="33.516390" lon="126.506510" sectionIndex="0" pointIndex="136" originalElevation="5.0" isOriginalElevationFromOSM="false" isAnchor="false"><ele>5.7</ele></trkpt>
<trkpt lat="33.516390" lon="126.506670" sectionIndex="0" pointIndex="137" originalElevation="5.0" isOriginalElevationFromOSM="false" isAnchor="false"><ele>5.8</ele></trkpt>
<trkpt lat="33.516420" lon="126.506960" sectionIndex="0" pointIndex="138" originalElevation="5.0" isOriginalElevationFromOSM="false" isAnchor="false"><ele>5.8</ele></trkpt>
<trkpt lat="33.516420" lon="126.507060" sectionIndex="0" pointIndex="139" originalElevation="5.0" isOriginalElevationFromOSM="false" isAnchor="false"><ele>5.9</ele></trkpt>
<trkpt lat="33.516410" lon="126.507490" sectionIndex="0" pointIndex="140" originalElevation="4.0" isOriginalElevationFromOSM="false" isAnchor="false"><ele>6.0</ele></trkpt>
<trkpt lat="33.516400" lon="126.507750" sectionIndex="0" pointIndex="141" originalElevation="4.0" isOriginalElevationFromOSM="false" isAnchor="false"><ele>6.0</ele></trkpt>
<trkpt lat="33.516360" lon="126.507970" sectionIndex="0" pointIndex="142" originalElevation="3.0" isOriginalElevationFromOSM="false" isAnchor="false"><ele>6.1</ele></trkpt>
<trkpt lat="33.516320" lon="126.508090" sectionIndex="0" pointIndex="143" originalElevation="3.0" isOriginalElevationFromOSM="false" isAnchor="false"><ele>6.1</ele></trkpt>
<trkpt lat="33.516180" lon="126.508450" sectionIndex="0" pointIndex="144" originalElevation="12.0" isOriginalElevationFromOSM="false" isAnchor="false"><ele>6.1</ele></trkpt>
<trkpt lat="33.516170" lon="126.508470" sectionIndex="0" pointIndex="145" originalElevation="12.0" isOriginalElevationFromOSM="false" isAnchor="false"><ele>6.1</ele></trkpt>
<trkpt lat="33.516110" lon="126.508510" sectionIndex="0" pointIndex="146" originalElevation="12.0" isOriginalElevationFromOSM="false" isAnchor="false"><ele>6.0</ele></trkpt>
<trkpt lat="33.516070" lon="126.508600" sectionIndex="0" pointIndex="147" originalElevation="12.0" isOriginalElevationFromOSM="false" isAnchor="false"><ele>6.0</ele></trkpt>
<trkpt lat="33.516040" lon="126.508700" sectionIndex="0" pointIndex="148" originalElevation="12.0" isOriginalElevationFromOSM="false" isAnchor="false"><ele>5.9</ele></trkpt>
<trkpt lat="33.515930" lon="126.509280" sectionIndex="0" pointIndex="149" originalElevation="11.0" isOriginalElevationFromOSM="false" isAnchor="false"><ele>5.8</ele></trkpt>
<trkpt lat="33.515690" lon="126.510340" sectionIndex="0" pointIndex="150" originalElevation="7.0" isOriginalElevationFromOSM="false" isAnchor="false"><ele>5.7</ele></trkpt>
<trkpt lat="33.515660" lon="126.510500" sectionIndex="0" pointIndex="151" originalElevation="0.0" isOriginalElevationFromOSM="false" isAnchor="false"><ele>5.6</ele></trkpt>
<trkpt lat="33.515620" lon="126.510550" sectionIndex="0" pointIndex="152" originalElevation="0.0" isOriginalElevationFromOSM="false" isAnchor="false"><ele>5.5</ele></trkpt>
<trkpt lat="33.515530" lon="126.510940" sectionIndex="0" pointIndex="153" originalElevation="0.0" isOriginalElevationFromOSM="false" isAnchor="false"><ele>5.5</ele></trkpt>
<trkpt lat="33.515530" lon="126.510940" sectionIndex="0" pointIndex="154" originalElevation="0.0" isOriginalElevationFromOSM="false" isAnchor="false"><ele>5.5</ele></trkpt>
<trkpt lat="33.515480" lon="126.511150" sectionIndex="0" pointIndex="155" originalElevation="0.0" isOriginalElevationFromOSM="false" isAnchor="false"><ele>5.6</ele></trkpt>
<trkpt lat="33.515470" lon="126.511220" sectionIndex="0" pointIndex="156" originalElevation="0.0" isOriginalElevationFromOSM="false" isAnchor="false"><ele>5.7</ele></trkpt>
<trkpt lat="33.515480" lon="126.511290" sectionIndex="0" pointIndex="157" originalElevation="5.0" isOriginalElevationFromOSM="false" isAnchor="false"><ele>5.9</ele></trkpt>
<trkpt lat="33.515530" lon="126.511420" sectionIndex="0" pointIndex="158" originalElevation="5.0" isOriginalElevationFromOSM="false" isAnchor="false"><ele>6.1</ele></trkpt>
<trkpt lat="33.515640" lon="126.511680" sectionIndex="0" pointIndex="159" originalElevation="5.0" isOriginalElevationFromOSM="false" isAnchor="false"><ele>6.4</ele></trkpt>
<trkpt lat="33.515670" lon="126.511790" sectionIndex="0" pointIndex="160" originalElevation="5.0" isOriginalElevationFromOSM="false" isAnchor="false"><ele>6.6</ele></trkpt>
<trkpt lat="33.515680" lon="126.511970" sectionIndex="0" pointIndex="161" originalElevation="5.0" isOriginalElevationFromOSM="false" isAnchor="false"><ele>6.9</ele></trkpt>
<trkpt lat="33.515680" lon="126.512450" sectionIndex="0" pointIndex="162" originalElevation="10.0" isOriginalElevationFromOSM="false" isAnchor="false"><ele>7.2</ele></trkpt>
<trkpt lat="33.515670" lon="126.512580" sectionIndex="0" pointIndex="163" originalElevation="10.0" isOriginalElevationFromOSM="false" isAnchor="false"><ele>7.5</ele></trkpt>
<trkpt lat="33.515650" lon="126.512640" sectionIndex="0" pointIndex="164" originalElevation="10.0" isOriginalElevationFromOSM="false" isAnchor="false"><ele>7.8</ele></trkpt>
<trkpt lat="33.515610" lon="126.512730" sectionIndex="0" pointIndex="165" originalElevation="10.0" isOriginalElevationFromOSM="false" isAnchor="false"><ele>8.1</ele></trkpt>
<trkpt lat="33.515560" lon="126.512800" sectionIndex="0" pointIndex="166" originalElevation="10.0" isOriginalElevationFromOSM="false" isAnchor="false"><ele>8.4</ele></trkpt>
<trkpt lat="33.515310" lon="126.512980" sectionIndex="0" pointIndex="167" originalElevation="12.0" isOriginalElevationFromOSM="false" isAnchor="false"><ele>8.6</ele></trkpt>
<trkpt lat="33.515270" lon="126.513030" sectionIndex="0" pointIndex="168" originalElevation="12.0" isOriginalElevationFromOSM="false" isAnchor="false"><ele>8.8</ele></trkpt>
<trkpt lat="33.515240" lon="126.513130" sectionIndex="0" pointIndex="169" originalElevation="12.0" isOriginalElevationFromOSM="false" isAnchor="false"><ele>8.9</ele></trkpt>
<trkpt lat="33.515150" lon="126.513670" sectionIndex="0" pointIndex="170" originalElevation="12.0" isOriginalElevationFromOSM="false" isAnchor="false"><ele>9.0</ele></trkpt>
<trkpt lat="33.515120" lon="126.513800" sectionIndex="0" pointIndex="171" originalElevation="9.0" isOriginalElevationFromOSM="false" isAnchor="false"><ele>9.0</ele></trkpt>
<trkpt lat="33.514970" lon="126.513910" sectionIndex="0" pointIndex="172" originalElevation="9.0" isOriginalElevationFromOSM="false" isAnchor="false"><ele>8.9</ele></trkpt>
<trkpt lat="33.514920" lon="126.513880" sectionIndex="0" pointIndex="173" originalElevation="10.5" isOriginalElevationFromOSM="false" isAnchor="false"><ele>8.8</ele></trkpt>
<trkpt lat="33.514920" lon="126.513880" sectionIndex="0" pointIndex="174" originalElevation="10.5" isOriginalElevationFromOSM="false" isAnchor="false"><ele>8.6</ele></trkpt>
<trkpt lat="33.514970" lon="126.513910" sectionIndex="0" pointIndex="175" originalElevation="9.0" isOriginalElevationFromOSM="false" isAnchor="false"><ele>8.4</ele></trkpt>
<trkpt lat="33.514900" lon="126.514190" sectionIndex="0" pointIndex="176" originalElevation="9.0" isOriginalElevationFromOSM="false" isAnchor="false"><ele>8.1</ele></trkpt>
<trkpt lat="33.514840" lon="126.514660" sectionIndex="0" pointIndex="177" originalElevation="9.0" isOriginalElevationFromOSM="false" isAnchor="false"><ele>7.9</ele></trkpt>
<trkpt lat="33.515310" lon="126.514750" sectionIndex="0" pointIndex="178" originalElevation="9.0" isOriginalElevationFromOSM="false" isAnchor="false"><ele>7.5</ele></trkpt>
<trkpt lat="33.515480" lon="126.514790" sectionIndex="0" pointIndex="179" originalElevation="5.0" isOriginalElevationFromOSM="false" isAnchor="false"><ele>7.2</ele></trkpt>
<trkpt lat="33.515680" lon="126.514820" sectionIndex="0" pointIndex="180" originalElevation="5.0" isOriginalElevationFromOSM="false" isAnchor="false"><ele>6.9</ele></trkpt>
<trkpt lat="33.515790" lon="126.514890" sectionIndex="0" pointIndex="181" originalElevation="5.0" isOriginalElevationFromOSM="false" isAnchor="false"><ele>6.5</ele></trkpt>
<trkpt lat="33.515890" lon="126.514940" sectionIndex="0" pointIndex="182" originalElevation="5.0" isOriginalElevationFromOSM="false" isAnchor="false"><ele>6.2</ele></trkpt>
<trkpt lat="33.515990" lon="126.514970" sectionIndex="0" pointIndex="183" originalElevation="5.0" isOriginalElevationFromOSM="false" isAnchor="false"><ele>5.9</ele></trkpt>
<trkpt lat="33.515990" lon="126.515080" sectionIndex="0" pointIndex="184" originalElevation="5.0" isOriginalElevationFromOSM="false" isAnchor="false"><ele>5.6</ele></trkpt>
<trkpt lat="33.515970" lon="126.515280" sectionIndex="0" pointIndex="185" originalElevation="5.0" isOriginalElevationFromOSM="false" isAnchor="false"><ele>5.3</ele></trkpt>
<trkpt lat="33.515910" lon="126.515620" sectionIndex="0" pointIndex="186" originalElevation="5.0" isOriginalElevationFromOSM="false" isAnchor="false"><ele>5.0</ele></trkpt>
<trkpt lat="33.515800" lon="126.516110" sectionIndex="0" pointIndex="187" originalElevation="5.0" isOriginalElevationFromOSM="false" isAnchor="false"><ele>4.8</ele></trkpt>
<trkpt lat="33.515850" lon="126.516100" sectionIndex="0" pointIndex="188" originalElevation="5.0" isOriginalElevationFromOSM="false" isAnchor="false"><ele>4.6</ele></trkpt>
<trkpt lat="33.515850" lon="126.516100" sectionIndex="0" pointIndex="189" originalElevation="5.0" isOriginalElevationFromOSM="false" isAnchor="false"><ele>4.4</ele></trkpt>
<trkpt lat="33.515800" lon="126.516110" sectionIndex="0" pointIndex="190" originalElevation="5.0" isOriginalElevationFromOSM="false" isAnchor="false"><ele>4.2</ele></trkpt>
<trkpt lat="33.515880" lon="126.516480" sectionIndex="0" pointIndex="191" originalElevation="3.0" isOriginalElevationFromOSM="false" isAnchor="false"><ele>4.0</ele></trkpt>
<trkpt lat="33.516100" lon="126.516480" sectionIndex="0" pointIndex="192" originalElevation="3.0" isOriginalElevationFromOSM="false" isAnchor="false"><ele>3.9</ele></trkpt>
<trkpt lat="33.516100" lon="126.516480" sectionIndex="0" pointIndex="193" originalElevation="3.0" isOriginalElevationFromOSM="false" isAnchor="false"><ele>3.8</ele></trkpt>
<trkpt lat="33.516350" lon="126.516480" sectionIndex="0" pointIndex="194" originalElevation="2.0" isOriginalElevationFromOSM="false" isAnchor="false"><ele>3.6</ele></trkpt>
<trkpt lat="33.516500" lon="126.516460" sectionIndex="0" pointIndex="195" originalElevation="2.0" isOriginalElevationFromOSM="false" isAnchor="false"><ele>3.5</ele></trkpt>
<trkpt lat="33.516820" lon="126.516390" sectionIndex="0" pointIndex="196" originalElevation="3.0" isOriginalElevationFromOSM="false" isAnchor="false"><ele>3.5</ele></trkpt>
<trkpt lat="33.516820" lon="126.516390" sectionIndex="0" pointIndex="197" originalElevation="3.0" isOriginalElevationFromOSM="false" isAnchor="false"><ele>3.4</ele></trkpt>
<trkpt lat="33.516910" lon="126.516370" sectionIndex="0" pointIndex="198" originalElevation="3.0" isOriginalElevationFromOSM="false" isAnchor="false"><ele>3.3</ele></trkpt>
<trkpt lat="33.516910" lon="126.516370" sectionIndex="0" pointIndex="199" originalElevation="3.0" isOriginalElevationFromOSM="false" isAnchor="false"><ele>3.2</ele></trkpt>
<trkpt lat="33.517030" lon="126.516340" sectionIndex="0" pointIndex="200" originalElevation="3.0" isOriginalElevationFromOSM="false" isAnchor="false"><ele>3.2</ele></trkpt>
<trkpt lat="33.517030" lon="126.516340" sectionIndex="0" pointIndex="201" originalElevation="3.0" isOriginalElevationFromOSM="false" isAnchor="false"><ele>3.1</ele></trkpt>
<trkpt lat="33.517170" lon="126.516310" sectionIndex="0" pointIndex="202" originalElevation="4.0" isOriginalElevationFromOSM="false" isAnchor="false"><ele>3.0</ele></trkpt>
<trkpt lat="33.517270" lon="126.516300" sectionIndex="0" pointIndex="203" originalElevation="4.0" isOriginalElevationFromOSM="false" isAnchor="false"><ele>2.9</ele></trkpt>
<trkpt lat="33.517340" lon="126.516300" sectionIndex="0" pointIndex="204" originalElevation="4.0" isOriginalElevationFromOSM="false" isAnchor="false"><ele>2.8</ele></trkpt>
<trkpt lat="33.517390" lon="126.516310" sectionIndex="0" pointIndex="205" originalElevation="4.0" isOriginalElevationFromOSM="false" isAnchor="false"><ele>2.6</ele></trkpt>
<trkpt lat="33.517390" lon="126.516310" sectionIndex="0" pointIndex="206" originalElevation="4.0" isOriginalElevationFromOSM="false" isAnchor="false"><ele>2.5</ele></trkpt>
<trkpt lat="33.517500" lon="126.516340" sectionIndex="0" pointIndex="207" originalElevation="4.0" isOriginalElevationFromOSM="false" isAnchor="false"><ele>2.4</ele></trkpt>
<trkpt lat="33.517790" lon="126.516290" sectionIndex="0" pointIndex="208" originalElevation="4.0" isOriginalElevationFromOSM="false" isAnchor="false"><ele>2.2</ele></trkpt>
<trkpt lat="33.518010" lon="126.516280" sectionIndex="0" pointIndex="209" originalElevation="1.0" isOriginalElevationFromOSM="false" isAnchor="false"><ele>2.0</ele></trkpt>
<trkpt lat="33.518010" lon="126.516280" sectionIndex="0" pointIndex="210" originalElevation="1.0" isOriginalElevationFromOSM="false" isAnchor="false"><ele>1.9</ele></trkpt>
<trkpt lat="33.518220" lon="126.516300" sectionIndex="0" pointIndex="211" originalElevation="1.0" isOriginalElevationFromOSM="false" isAnchor="false"><ele>1.7</ele></trkpt>
<trkpt lat="33.518340" lon="126.516320" sectionIndex="0" pointIndex="212" originalElevation="1.0" isOriginalElevationFromOSM="false" isAnchor="false"><ele>1.5</ele></trkpt>
<trkpt lat="33.518480" lon="126.516370" sectionIndex="0" pointIndex="213" originalElevation="1.0" isOriginalElevationFromOSM="false" isAnchor="false"><ele>1.3</ele></trkpt>
<trkpt lat="33.518620" lon="126.516450" sectionIndex="0" pointIndex="214" originalElevation="1.0" isOriginalElevationFromOSM="false" isAnchor="false"><ele>1.1</ele></trkpt>
<trkpt lat="33.518800" lon="126.516570" sectionIndex="0" pointIndex="215" originalElevation="0.0" isOriginalElevationFromOSM="false" isAnchor="false"><ele>1.0</ele></trkpt>
<trkpt lat="33.518910" lon="126.516680" sectionIndex="0" pointIndex="216" originalElevation="0.0" isOriginalElevationFromOSM="false" isAnchor="false"><ele>0.8</ele></trkpt>
<trkpt lat="33.519010" lon="126.516790" sectionIndex="0" pointIndex="217" originalElevation="0.0" isOriginalElevationFromOSM="false" isAnchor="false"><ele>0.7</ele></trkpt>
<trkpt lat="33.519050" lon="126.516850" sectionIndex="0" pointIndex="218" originalElevation="0.0" isOriginalElevationFromOSM="false" isAnchor="false"><ele>0.6</ele></trkpt>
<trkpt lat="33.519050" lon="126.516850" sectionIndex="0" pointIndex="219" originalElevation="0.0" isOriginalElevationFromOSM="false" isAnchor="false"><ele>0.5</ele></trkpt>
<trkpt lat="33.519120" lon="126.516950" sectionIndex="0" pointIndex="220" originalElevation="0.0" isOriginalElevationFromOSM="false" isAnchor="false"><ele>0.4</ele></trkpt>
<trkpt lat="33.519210" lon="126.517120" sectionIndex="0" pointIndex="221" originalElevation="0.0" isOriginalElevationFromOSM="false" isAnchor="false"><ele>0.3</ele></trkpt>
<trkpt lat="33.519270" lon="126.517270" sectionIndex="0" pointIndex="222" originalElevation="0.0" isOriginalElevationFromOSM="false" isAnchor="false"><ele>0.2</ele></trkpt>
<trkpt lat="33.519340" lon="126.517500" sectionIndex="0" pointIndex="223" originalElevation="0.0" isOriginalElevationFromOSM="false" isAnchor="false"><ele>0.2</ele></trkpt>
<trkpt lat="33.519370" lon="126.517670" sectionIndex="0" pointIndex="224" originalElevation="0.0" isOriginalElevationFromOSM="false" isAnchor="false"><ele>0.2</ele></trkpt>
<trkpt lat="33.519380" lon="126.517810" sectionIndex="0" pointIndex="225" originalElevation="0.0" isOriginalElevationFromOSM="false" isAnchor="false"><ele>0.2</ele></trkpt>
<trkpt lat="33.519380" lon="126.517950" sectionIndex="0" pointIndex="226" originalElevation="-1.0" isOriginalElevationFromOSM="false" isAnchor="false"><ele>0.2</ele></trkpt>
<trkpt lat="33.519360" lon="126.518150" sectionIndex="0" pointIndex="227" originalElevation="-1.0" isOriginalElevationFromOSM="false" isAnchor="false"><ele>0.2</ele></trkpt>
<trkpt lat="33.519290" lon="126.518660" sectionIndex="0" pointIndex="228" originalElevation="0.0" isOriginalElevationFromOSM="false" isAnchor="false"><ele>0.2</ele></trkpt>
<trkpt lat="33.519290" lon="126.518660" sectionIndex="0" pointIndex="229" originalElevation="0.0" isOriginalElevationFromOSM="false" isAnchor="false"><ele>0.2</ele></trkpt>
<trkpt lat="33.518880" lon="126.521750" sectionIndex="0" pointIndex="230" originalElevation="1.5" isOriginalElevationFromOSM="false" isAnchor="false"><ele>0.2</ele></trkpt>
<trkpt lat="33.518880" lon="126.521750" sectionIndex="0" pointIndex="231" originalElevation="1.5" isOriginalElevationFromOSM="false" isAnchor="false"><ele>0.3</ele></trkpt>
<trkpt lat="33.518590" lon="126.524060" sectionIndex="0" pointIndex="232" originalElevation="1.5" isOriginalElevationFromOSM="false" isAnchor="false"><ele>0.3</ele></trkpt>
</trkseg>
</trk>
</gpx>