<?xml version="1.0" encoding="UTF-8"?>
<gpx creator="GlobalMotionEditor" version="1.1" xmlns="http://www.topografix.com/GPX/1/1">
<metadata>
<name>중문로드</name>
<desc>Bientus, Inc. - www.ramblr.com - Share your outdoor stories on a map!</desc>
<author>
<name></name>
</author>
<link href="https://www.ramblr.com/web/mymap/trip/1320578/10519267"></link>
<time></time>
</metadata>
<trk>
<name>중문로드</name>
<trkseg>
<trkpt lat="33.244120" lon="126.415920"><ele>6.6</ele><time></time></trkpt>
<trkpt lat="33.243740" lon="126.415930"><ele>6.9</ele><time></time></trkpt>
<trkpt lat="33.243930" lon="126.416330"><ele>7.1</ele><time></time></trkpt>
<trkpt lat="33.243870" lon="126.416490"><ele>7.3</ele><time></time></trkpt>
<trkpt lat="33.243810" lon="126.416440"><ele>7.6</ele><time></time></trkpt>
<trkpt lat="33.243770" lon="126.416510"><ele>8.0</ele><time></time></trkpt>
<trkpt lat="33.243740" lon="126.416430"><ele>8.4</ele><time></time></trkpt>
<trkpt lat="33.243460" lon="126.416600"><ele>8.9</ele><time></time></trkpt>
<trkpt lat="33.243620" lon="126.417910"><ele>9.3</ele><time></time></trkpt>
<trkpt lat="33.243670" lon="126.418030"><ele>9.8</ele><time></time></trkpt>
<trkpt lat="33.243840" lon="126.418060"><ele>10.3</ele><time></time></trkpt>
<trkpt lat="33.244570" lon="126.417750"><ele>10.8</ele><time></time></trkpt>
<trkpt lat="33.244730" lon="126.417540"><ele>11.2</ele><time></time></trkpt>
<trkpt lat="33.245210" lon="126.417630"><ele>11.8</ele><time></time></trkpt>
<trkpt lat="33.245570" lon="126.417570"><ele>12.3</ele><time></time></trkpt>
<trkpt lat="33.246010" lon="126.417060"><ele>12.7</ele><time></time></trkpt>
<trkpt lat="33.246110" lon="126.417130"><ele>13.1</ele><time></time></trkpt>
<trkpt lat="33.244620" lon="126.419370"><ele>13.4</ele><time></time></trkpt>
<trkpt lat="33.244257" lon="126.419751"><ele>13.7</ele><time></time></trkpt>
<trkpt lat="33.243702" lon="126.420340"><ele>14.0</ele><time></time></trkpt>
<trkpt lat="33.243568" lon="126.420581"><ele>14.2</ele><time></time></trkpt>
<trkpt lat="33.243325" lon="126.422426"><ele>14.3</ele><time></time></trkpt>
<trkpt lat="33.242949" lon="126.422346"><ele>14.3</ele><time></time></trkpt>
<trkpt lat="33.241833" lon="126.420794"><ele>14.3</ele><time></time></trkpt>
<trkpt lat="33.241676" lon="126.420729"><ele>14.2</ele><time></time></trkpt>
<trkpt lat="33.241551" lon="126.420799"><ele>14.1</ele><time></time></trkpt>
<trkpt lat="33.241510" lon="126.420933"><ele>14.0</ele><time></time></trkpt>
<trkpt lat="33.240002" lon="126.422414"><ele>13.7</ele><time></time></trkpt>
<trkpt lat="33.239652" lon="126.423379"><ele>13.4</ele><time></time></trkpt>
<trkpt lat="33.239244" lon="126.423728"><ele>13.2</ele><time></time></trkpt>
<trkpt lat="33.238867" lon="126.423744"><ele>12.8</ele><time></time></trkpt>
<trkpt lat="33.238687" lon="126.423883"><ele>12.4</ele><time></time></trkpt>
<trkpt lat="33.237857" lon="126.424828"><ele>12.0</ele><time></time></trkpt>
<trkpt lat="33.237818" lon="126.425889"><ele>11.7</ele><time></time></trkpt>
<trkpt lat="33.237724" lon="126.426191"><ele>11.3</ele><time></time></trkpt>
<trkpt lat="33.237706" lon="126.426640"><ele>11.0</ele><time></time></trkpt>
<trkpt lat="33.237177" lon="126.427337"><ele>10.6</ele><time></time></trkpt>
<trkpt lat="33.236387" lon="126.427895"><ele>10.3</ele><time></time></trkpt>
<trkpt lat="33.236194" lon="126.428345"><ele>9.9</ele><time></time></trkpt>
<trkpt lat="33.236176" lon="126.428635"><ele>9.5</ele><time></time></trkpt>
<trkpt lat="33.236378" lon="126.429338"><ele>9.2</ele><time></time></trkpt>
<trkpt lat="33.236405" lon="126.430057"><ele>8.9</ele><time></time></trkpt>
<trkpt lat="33.235862" lon="126.431205"><ele>8.6</ele><time></time></trkpt>
<trkpt lat="33.235252" lon="126.432181"><ele>8.4</ele><time></time></trkpt>
<trkpt lat="33.235463" lon="126.433957"><ele>8.1</ele><time></time></trkpt>
<trkpt lat="33.236059" lon="126.434536"><ele>7.8</ele><time></time></trkpt>
<trkpt lat="33.236773" lon="126.435062"><ele>7.7</ele><time></time></trkpt>
<trkpt lat="33.236849" lon="126.435544"><ele>7.7</ele><time></time></trkpt>
<trkpt lat="33.23691896684251" lon="126.4358587754631"><ele>8.865457534790039</ele><time></time></trkpt>
<trkpt lat="33.237002" lon="126.436156"><ele>7.6</ele><time></time></trkpt>
<trkpt lat="33.238128" lon="126.436762"><ele>7.6</ele><time></time></trkpt>
<trkpt lat="33.238888" lon="126.436692"><ele>7.5</ele><time></time></trkpt>
<trkpt lat="33.239094" lon="126.437680"><ele>7.6</ele><time></time></trkpt>
<trkpt lat="33.239094" lon="126.438822"><ele>7.7</ele><time></time></trkpt>
<trkpt lat="33.238852" lon="126.439289"><ele>7.7</ele><time></time></trkpt>
<trkpt lat="33.238583" lon="126.439273"><ele>7.8</ele><time></time></trkpt>
<trkpt lat="33.238479" lon="126.438629"><ele>7.8</ele><time></time></trkpt>
<trkpt lat="33.23862348677257" lon="126.43930506382367"><ele>7.419705867767334</ele><time></time></trkpt>
<trkpt lat="33.23892634932963" lon="126.43926096197126"><ele>8.320265769958496</ele><time></time></trkpt>
<trkpt lat="33.239100" lon="126.438850"><ele>8.0</ele><time></time></trkpt>
<trkpt lat="33.239090" lon="126.437670"><ele>8.0</ele><time></time></trkpt>
<trkpt lat="33.238870" lon="126.436890"><ele>8.1</ele><time></time></trkpt>
<trkpt lat="33.238890" lon="126.436690"><ele>8.2</ele><time></time></trkpt>
<trkpt lat="33.238160" lon="126.436750"><ele>8.3</ele><time></time></trkpt>
<trkpt lat="33.23704183545632" lon="126.43611609325406"><ele>9.73927116394043</ele><time></time></trkpt>
<trkpt lat="33.236820" lon="126.435038"><ele>8.4</ele><time></time></trkpt>
<trkpt lat="33.235490" lon="126.433990"><ele>8.6</ele><time></time></trkpt>
<trkpt lat="33.235321" lon="126.432200"><ele>8.7</ele><time></time></trkpt>
<trkpt lat="33.235936" lon="126.431218"><ele>8.9</ele><time></time></trkpt>
<trkpt lat="33.23644702623216" lon="126.430065364418"><ele>11.11987113952637</ele><time></time></trkpt>
<trkpt lat="33.236417809016935" lon="126.42933804662705"><ele>11.33574962615967</ele><time></time></trkpt>
<trkpt lat="33.23621183517946" lon="126.42863558895495"><ele>9.956315994262695</ele><time></time></trkpt>
<trkpt lat="33.23623029586797" lon="126.42837527116394"><ele>9.746417999267578</ele><time></time></trkpt>
<trkpt lat="33.23642326967221" lon="126.427935"><ele>10.17342948913574</ele><time></time></trkpt>
<trkpt lat="33.237197" lon="126.427404"><ele>10.6</ele><time></time></trkpt>
<trkpt lat="33.237753" lon="126.426686"><ele>11.0</ele><time></time></trkpt>
<trkpt lat="33.237796" lon="126.426176"><ele>11.4</ele><time></time></trkpt>
<trkpt lat="33.237874" lon="126.425908"><ele>11.8</ele><time></time></trkpt>
<trkpt lat="33.237915" lon="126.424856"><ele>12.3</ele><time></time></trkpt>
<trkpt lat="33.238736" lon="126.423928"><ele>12.8</ele><time></time></trkpt>
<trkpt lat="33.238879" lon="126.423821"><ele>13.3</ele><time></time></trkpt>
<trkpt lat="33.239265" lon="126.423799"><ele>13.9</ele><time></time></trkpt>
<trkpt lat="33.239696" lon="126.423419"><ele>14.4</ele><time></time></trkpt>
<trkpt lat="33.240041" lon="126.422448"><ele>14.9</ele><time></time></trkpt>
<trkpt lat="33.241526" lon="126.421005"><ele>15.4</ele><time></time></trkpt>
<trkpt lat="33.241582" lon="126.420865"><ele>15.9</ele><time></time></trkpt>
<trkpt lat="33.241780" lon="126.420844"><ele>16.3</ele><time></time></trkpt>
<trkpt lat="33.242960" lon="126.422464"><ele>16.8</ele><time></time></trkpt>
<trkpt lat="33.24331597225951" lon="126.42250731779097"><ele>21.78044509887695</ele><time></time></trkpt>
<trkpt lat="33.243570" lon="126.420550"><ele>17.7</ele><time></time></trkpt>
<trkpt lat="33.243750" lon="126.420270"><ele>18.1</ele><time></time></trkpt>
<trkpt lat="33.244620" lon="126.419370"><ele>18.5</ele><time></time></trkpt>
<trkpt lat="33.246110" lon="126.417130"><ele>18.8</ele><time></time></trkpt>
<trkpt lat="33.245700" lon="126.416770"><ele>19.1</ele><time></time></trkpt>
<trkpt lat="33.245540" lon="126.416510"><ele>19.5</ele><time></time></trkpt>
<trkpt lat="33.245400" lon="126.415840"><ele>19.9</ele><time></time></trkpt>
<trkpt lat="33.244950" lon="126.415900"><ele>20.2</ele><time></time></trkpt>
<trkpt lat="33.244950" lon="126.415900"><ele>20.4</ele><time></time></trkpt>
</trkseg>
</trk>
</gpx>
