<?xml version="1.0" encoding="UTF-8"?>
<gpx xmlns="http://www.topografix.com/GPX/1/1" creator="MTK - http://www.toursprung.com" version="1.1" xmlns:xsi="http://www.w3.org/2001/XMLSchema-instance" xsi:schemaLocation="http://www.topografix.com/GPX/1/1 http://www.topografix.com/GPX/1/1/gpx.xsd">
<metadata>
<name>위미-태웃개7km</name>
<extensions><extra>{}</extra></extensions>
</metadata>

<trk>
<name>위미-태웃개7km</name>
<trkseg>
<trkpt lat="33.271360" lon="126.662140" sectionIndex="0" pointIndex="0" originalElevation="1.3" isOriginalElevationFromOSM="false" isAnchor="false"><ele>3.0</ele></trkpt>
<trkpt lat="33.271860" lon="126.662630" sectionIndex="0" pointIndex="1" originalElevation="2.5" isOriginalElevationFromOSM="false" isAnchor="false"><ele>3.0</ele></trkpt>
<trkpt lat="33.272000" lon="126.662710" sectionIndex="0" pointIndex="2" originalElevation="4.0" isOriginalElevationFromOSM="false" isAnchor="false"><ele>3.0</ele></trkpt>
<trkpt lat="33.272350" lon="126.662890" sectionIndex="0" pointIndex="3" originalElevation="4.0" isOriginalElevationFromOSM="false" isAnchor="false"><ele>3.0</ele></trkpt>
<trkpt lat="33.272300" lon="126.662920" sectionIndex="0" pointIndex="4" originalElevation="3.8" isOriginalElevationFromOSM="false" isAnchor="false"><ele>3.0</ele></trkpt>
<trkpt lat="33.272300" lon="126.662920" sectionIndex="0" pointIndex="5" originalElevation="3.8" isOriginalElevationFromOSM="false" isAnchor="false"><ele>3.0</ele></trkpt>
<trkpt lat="33.272070" lon="126.663070" sectionIndex="0" pointIndex="6" originalElevation="3.5" isOriginalElevationFromOSM="false" isAnchor="false"><ele>3.0</ele></trkpt>
<trkpt lat="33.271980" lon="126.663140" sectionIndex="0" pointIndex="7" originalElevation="3.4" isOriginalElevationFromOSM="false" isAnchor="false"><ele>3.0</ele></trkpt>
<trkpt lat="33.271920" lon="126.663220" sectionIndex="0" pointIndex="8" originalElevation="3.4" isOriginalElevationFromOSM="false" isAnchor="false"><ele>3.0</ele></trkpt>
<trkpt lat="33.271660" lon="126.663680" sectionIndex="0" pointIndex="9" originalElevation="1.0" isOriginalElevationFromOSM="false" isAnchor="false"><ele>3.0</ele></trkpt>
<trkpt lat="33.271640" lon="126.663940" sectionIndex="0" pointIndex="10" originalElevation="1.0" isOriginalElevationFromOSM="false" isAnchor="false"><ele>3.1</ele></trkpt>
<trkpt lat="33.271670" lon="126.664160" sectionIndex="0" pointIndex="11" originalElevation="4.0" isOriginalElevationFromOSM="false" isAnchor="false"><ele>3.1</ele></trkpt>
<trkpt lat="33.271520" lon="126.664740" sectionIndex="0" pointIndex="12" originalElevation="3.0" isOriginalElevationFromOSM="false" isAnchor="false"><ele>3.1</ele></trkpt>
<trkpt lat="33.271480" lon="126.664860" sectionIndex="0" pointIndex="13" originalElevation="3.0" isOriginalElevationFromOSM="false" isAnchor="false"><ele>3.2</ele></trkpt>
<trkpt lat="33.271440" lon="126.664920" sectionIndex="0" pointIndex="14" originalElevation="3.0" isOriginalElevationFromOSM="false" isAnchor="false"><ele>3.2</ele></trkpt>
<trkpt lat="33.271400" lon="126.664930" sectionIndex="0" pointIndex="15" originalElevation="3.0" isOriginalElevationFromOSM="false" isAnchor="false"><ele>3.3</ele></trkpt>
<trkpt lat="33.271070" lon="126.665000" sectionIndex="0" pointIndex="16" originalElevation="3.3" isOriginalElevationFromOSM="false" isAnchor="false"><ele>3.4</ele></trkpt>
<trkpt lat="33.271000" lon="126.665050" sectionIndex="0" pointIndex="17" originalElevation="3.2" isOriginalElevationFromOSM="false" isAnchor="false"><ele>3.4</ele></trkpt>
<trkpt lat="33.271000" lon="126.665050" sectionIndex="0" pointIndex="18" originalElevation="3.2" isOriginalElevationFromOSM="false" isAnchor="false"><ele>3.5</ele></trkpt>
<trkpt lat="33.270950" lon="126.665080" sectionIndex="0" pointIndex="19" originalElevation="3.1" isOriginalElevationFromOSM="false" isAnchor="false"><ele>3.5</ele></trkpt>
<trkpt lat="33.270720" lon="126.665520" sectionIndex="0" pointIndex="20" originalElevation="2.8" isOriginalElevationFromOSM="false" isAnchor="false"><ele>3.6</ele></trkpt>
<trkpt lat="33.270690" lon="126.665750" sectionIndex="0" pointIndex="21" originalElevation="2.9" isOriginalElevationFromOSM="false" isAnchor="false"><ele>3.7</ele></trkpt>
<trkpt lat="33.270740" lon="126.665990" sectionIndex="0" pointIndex="22" originalElevation="3.0" isOriginalElevationFromOSM="false" isAnchor="false"><ele>3.7</ele></trkpt>
<trkpt lat="33.270790" lon="126.666070" sectionIndex="0" pointIndex="23" originalElevation="3.0" isOriginalElevationFromOSM="false" isAnchor="false"><ele>3.8</ele></trkpt>
<trkpt lat="33.270820" lon="126.666110" sectionIndex="0" pointIndex="24" originalElevation="6.0" isOriginalElevationFromOSM="false" isAnchor="false"><ele>3.8</ele></trkpt>
<trkpt lat="33.270860" lon="126.666250" sectionIndex="0" pointIndex="25" originalElevation="6.8" isOriginalElevationFromOSM="false" isAnchor="false"><ele>3.9</ele></trkpt>
<trkpt lat="33.270890" lon="126.666410" sectionIndex="0" pointIndex="26" originalElevation="9.0" isOriginalElevationFromOSM="false" isAnchor="false"><ele>3.9</ele></trkpt>
<trkpt lat="33.270880" lon="126.666700" sectionIndex="0" pointIndex="27" originalElevation="3.8" isOriginalElevationFromOSM="false" isAnchor="false"><ele>3.9</ele></trkpt>
<trkpt lat="33.270830" lon="126.666930" sectionIndex="0" pointIndex="28" originalElevation="3.3" isOriginalElevationFromOSM="false" isAnchor="false"><ele>3.9</ele></trkpt>
<trkpt lat="33.270730" lon="126.667180" sectionIndex="0" pointIndex="29" originalElevation="3.1" isOriginalElevationFromOSM="false" isAnchor="false"><ele>3.9</ele></trkpt>
<trkpt lat="33.270640" lon="126.667840" sectionIndex="0" pointIndex="30" originalElevation="3.1" isOriginalElevationFromOSM="false" isAnchor="false"><ele>3.8</ele></trkpt>
<trkpt lat="33.270630" lon="126.667980" sectionIndex="0" pointIndex="31" originalElevation="3.4" isOriginalElevationFromOSM="false" isAnchor="false"><ele>3.8</ele></trkpt>
<trkpt lat="33.270740" lon="126.668020" sectionIndex="0" pointIndex="32" originalElevation="1.0" isOriginalElevationFromOSM="false" isAnchor="false"><ele>3.8</ele></trkpt>
<trkpt lat="33.270840" lon="126.668210" sectionIndex="0" pointIndex="33" originalElevation="4.4" isOriginalElevationFromOSM="false" isAnchor="false"><ele>3.7</ele></trkpt>
<trkpt lat="33.270930" lon="126.668310" sectionIndex="0" pointIndex="34" originalElevation="4.2" isOriginalElevationFromOSM="false" isAnchor="false"><ele>3.6</ele></trkpt>
<trkpt lat="33.270930" lon="126.668310" sectionIndex="0" pointIndex="35" originalElevation="4.2" isOriginalElevationFromOSM="false" isAnchor="false"><ele>3.6</ele></trkpt>
<trkpt lat="33.271020" lon="126.668420" sectionIndex="0" pointIndex="36" originalElevation="4.0" isOriginalElevationFromOSM="false" isAnchor="false"><ele>3.5</ele></trkpt>
<trkpt lat="33.271130" lon="126.668440" sectionIndex="0" pointIndex="37" originalElevation="3.8" isOriginalElevationFromOSM="false" isAnchor="false"><ele>3.5</ele></trkpt>
<trkpt lat="33.271250" lon="126.668570" sectionIndex="0" pointIndex="38" originalElevation="3.6" isOriginalElevationFromOSM="false" isAnchor="false"><ele>3.4</ele></trkpt>
<trkpt lat="33.271300" lon="126.668700" sectionIndex="0" pointIndex="39" originalElevation="3.3" isOriginalElevationFromOSM="false" isAnchor="false"><ele>3.3</ele></trkpt>
<trkpt lat="33.271310" lon="126.668810" sectionIndex="0" pointIndex="40" originalElevation="3.2" isOriginalElevationFromOSM="false" isAnchor="false"><ele>3.3</ele></trkpt>
<trkpt lat="33.271310" lon="126.669000" sectionIndex="0" pointIndex="41" originalElevation="2.9" isOriginalElevationFromOSM="false" isAnchor="false"><ele>3.2</ele></trkpt>
<trkpt lat="33.271270" lon="126.669040" sectionIndex="0" pointIndex="42" originalElevation="2.8" isOriginalElevationFromOSM="false" isAnchor="false"><ele>3.1</ele></trkpt>
<trkpt lat="33.271210" lon="126.669200" sectionIndex="0" pointIndex="43" originalElevation="2.7" isOriginalElevationFromOSM="false" isAnchor="false"><ele>3.1</ele></trkpt>
<trkpt lat="33.271220" lon="126.669670" sectionIndex="0" pointIndex="44" originalElevation="2.9" isOriginalElevationFromOSM="false" isAnchor="false"><ele>3.1</ele></trkpt>
<trkpt lat="33.271260" lon="126.669820" sectionIndex="0" pointIndex="45" originalElevation="2.8" isOriginalElevationFromOSM="false" isAnchor="false"><ele>3.1</ele></trkpt>
<trkpt lat="33.271310" lon="126.669930" sectionIndex="0" pointIndex="46" originalElevation="2.8" isOriginalElevationFromOSM="false" isAnchor="false"><ele>3.1</ele></trkpt>
<trkpt lat="33.271310" lon="126.670000" sectionIndex="0" pointIndex="47" originalElevation="2.8" isOriginalElevationFromOSM="false" isAnchor="false"><ele>3.1</ele></trkpt>
<trkpt lat="33.271280" lon="126.670120" sectionIndex="0" pointIndex="48" originalElevation="2.8" isOriginalElevationFromOSM="false" isAnchor="false"><ele>3.2</ele></trkpt>
<trkpt lat="33.271270" lon="126.670130" sectionIndex="0" pointIndex="49" originalElevation="2.8" isOriginalElevationFromOSM="false" isAnchor="false"><ele>3.2</ele></trkpt>
<trkpt lat="33.271270" lon="126.670130" sectionIndex="0" pointIndex="50" originalElevation="2.8" isOriginalElevationFromOSM="false" isAnchor="false"><ele>3.2</ele></trkpt>
<trkpt lat="33.271210" lon="126.670220" sectionIndex="0" pointIndex="51" originalElevation="2.8" isOriginalElevationFromOSM="false" isAnchor="false"><ele>3.3</ele></trkpt>
<trkpt lat="33.271160" lon="126.670400" sectionIndex="0" pointIndex="52" originalElevation="2.9" isOriginalElevationFromOSM="false" isAnchor="false"><ele>3.3</ele></trkpt>
<trkpt lat="33.271180" lon="126.670510" sectionIndex="0" pointIndex="53" originalElevation="2.9" isOriginalElevationFromOSM="false" isAnchor="false"><ele>3.4</ele></trkpt>
<trkpt lat="33.271250" lon="126.670570" sectionIndex="0" pointIndex="54" originalElevation="3.0" isOriginalElevationFromOSM="false" isAnchor="false"><ele>3.5</ele></trkpt>
<trkpt lat="33.271260" lon="126.670630" sectionIndex="0" pointIndex="55" originalElevation="3.0" isOriginalElevationFromOSM="false" isAnchor="false"><ele>3.6</ele></trkpt>
<trkpt lat="33.271220" lon="126.670900" sectionIndex="0" pointIndex="56" originalElevation="3.1" isOriginalElevationFromOSM="false" isAnchor="false"><ele>3.6</ele></trkpt>
<trkpt lat="33.271240" lon="126.671050" sectionIndex="0" pointIndex="57" originalElevation="4.1" isOriginalElevationFromOSM="false" isAnchor="false"><ele>3.7</ele></trkpt>
<trkpt lat="33.271240" lon="126.671050" sectionIndex="0" pointIndex="58" originalElevation="4.1" isOriginalElevationFromOSM="false" isAnchor="false"><ele>3.8</ele></trkpt>
<trkpt lat="33.271240" lon="126.671070" sectionIndex="0" pointIndex="59" originalElevation="5.0" isOriginalElevationFromOSM="false" isAnchor="false"><ele>3.9</ele></trkpt>
<trkpt lat="33.271010" lon="126.671360" sectionIndex="0" pointIndex="60" originalElevation="6.4" isOriginalElevationFromOSM="false" isAnchor="false"><ele>3.9</ele></trkpt>
<trkpt lat="33.270580" lon="126.671840" sectionIndex="0" pointIndex="61" originalElevation="5.0" isOriginalElevationFromOSM="false" isAnchor="false"><ele>4.0</ele></trkpt>
<trkpt lat="33.270420" lon="126.671930" sectionIndex="0" pointIndex="62" originalElevation="4.5" isOriginalElevationFromOSM="false" isAnchor="false"><ele>4.0</ele></trkpt>
<trkpt lat="33.270420" lon="126.671930" sectionIndex="0" pointIndex="63" originalElevation="4.5" isOriginalElevationFromOSM="false" isAnchor="false"><ele>4.1</ele></trkpt>
<trkpt lat="33.270390" lon="126.671940" sectionIndex="0" pointIndex="64" originalElevation="4.0" isOriginalElevationFromOSM="false" isAnchor="false"><ele>4.1</ele></trkpt>
<trkpt lat="33.270290" lon="126.672020" sectionIndex="0" pointIndex="65" originalElevation="3.9" isOriginalElevationFromOSM="false" isAnchor="false"><ele>4.1</ele></trkpt>
<trkpt lat="33.270210" lon="126.672150" sectionIndex="0" pointIndex="66" originalElevation="3.8" isOriginalElevationFromOSM="false" isAnchor="false"><ele>4.1</ele></trkpt>
<trkpt lat="33.270170" lon="126.672250" sectionIndex="0" pointIndex="67" originalElevation="3.7" isOriginalElevationFromOSM="false" isAnchor="false"><ele>4.0</ele></trkpt>
<trkpt lat="33.270040" lon="126.672830" sectionIndex="0" pointIndex="68" originalElevation="3.8" isOriginalElevationFromOSM="false" isAnchor="false"><ele>4.0</ele></trkpt>
<trkpt lat="33.269990" lon="126.673300" sectionIndex="0" pointIndex="69" originalElevation="3.8" isOriginalElevationFromOSM="false" isAnchor="false"><ele>4.0</ele></trkpt>
<trkpt lat="33.269920" lon="126.673600" sectionIndex="0" pointIndex="70" originalElevation="3.9" isOriginalElevationFromOSM="false" isAnchor="false"><ele>3.9</ele></trkpt>
<trkpt lat="33.270050" lon="126.674010" sectionIndex="0" pointIndex="71" originalElevation="4.0" isOriginalElevationFromOSM="false" isAnchor="false"><ele>3.9</ele></trkpt>
<trkpt lat="33.270050" lon="126.674090" sectionIndex="0" pointIndex="72" originalElevation="4.0" isOriginalElevationFromOSM="false" isAnchor="false"><ele>3.8</ele></trkpt>
<trkpt lat="33.270050" lon="126.674130" sectionIndex="0" pointIndex="73" originalElevation="4.0" isOriginalElevationFromOSM="false" isAnchor="false"><ele>3.7</ele></trkpt>
<trkpt lat="33.269860" lon="126.674220" sectionIndex="0" pointIndex="74" originalElevation="4.8" isOriginalElevationFromOSM="false" isAnchor="false"><ele>3.7</ele></trkpt>
<trkpt lat="33.269560" lon="126.674390" sectionIndex="0" pointIndex="75" originalElevation="4.8" isOriginalElevationFromOSM="false" isAnchor="false"><ele>3.6</ele></trkpt>
<trkpt lat="33.269420" lon="126.674440" sectionIndex="0" pointIndex="76" originalElevation="5.0" isOriginalElevationFromOSM="false" isAnchor="false"><ele>3.5</ele></trkpt>
<trkpt lat="33.269320" lon="126.674460" sectionIndex="0" pointIndex="77" originalElevation="2.7" isOriginalElevationFromOSM="false" isAnchor="false"><ele>3.4</ele></trkpt>
<trkpt lat="33.269200" lon="126.674440" sectionIndex="0" pointIndex="78" originalElevation="2.6" isOriginalElevationFromOSM="false" isAnchor="false"><ele>3.3</ele></trkpt>
<trkpt lat="33.269020" lon="126.674300" sectionIndex="0" pointIndex="79" originalElevation="2.5" isOriginalElevationFromOSM="false" isAnchor="false"><ele>3.2</ele></trkpt>
<trkpt lat="33.268870" lon="126.674240" sectionIndex="0" pointIndex="80" originalElevation="2.5" isOriginalElevationFromOSM="false" isAnchor="false"><ele>3.2</ele></trkpt>
<trkpt lat="33.268800" lon="126.674230" sectionIndex="0" pointIndex="81" originalElevation="2.5" isOriginalElevationFromOSM="false" isAnchor="false"><ele>3.1</ele></trkpt>
<trkpt lat="33.268700" lon="126.674240" sectionIndex="0" pointIndex="82" originalElevation="2.6" isOriginalElevationFromOSM="false" isAnchor="false"><ele>3.1</ele></trkpt>
<trkpt lat="33.268640" lon="126.674320" sectionIndex="0" pointIndex="83" originalElevation="2.6" isOriginalElevationFromOSM="false" isAnchor="false"><ele>3.1</ele></trkpt>
<trkpt lat="33.268610" lon="126.674440" sectionIndex="0" pointIndex="84" originalElevation="2.7" isOriginalElevationFromOSM="false" isAnchor="false"><ele>3.1</ele></trkpt>
<trkpt lat="33.268580" lon="126.674690" sectionIndex="0" pointIndex="85" originalElevation="2.8" isOriginalElevationFromOSM="false" isAnchor="false"><ele>3.1</ele></trkpt>
<trkpt lat="33.268600" lon="126.675010" sectionIndex="0" pointIndex="86" originalElevation="2.8" isOriginalElevationFromOSM="false" isAnchor="false"><ele>3.1</ele></trkpt>
<trkpt lat="33.268590" lon="126.675230" sectionIndex="0" pointIndex="87" originalElevation="2.7" isOriginalElevationFromOSM="false" isAnchor="false"><ele>3.2</ele></trkpt>
<trkpt lat="33.268580" lon="126.675300" sectionIndex="0" pointIndex="88" originalElevation="2.6" isOriginalElevationFromOSM="false" isAnchor="false"><ele>3.2</ele></trkpt>
<trkpt lat="33.268580" lon="126.675300" sectionIndex="0" pointIndex="89" originalElevation="2.6" isOriginalElevationFromOSM="false" isAnchor="false"><ele>3.3</ele></trkpt>
<trkpt lat="33.268560" lon="126.675400" sectionIndex="0" pointIndex="90" originalElevation="2.5" isOriginalElevationFromOSM="false" isAnchor="false"><ele>3.5</ele></trkpt>
<trkpt lat="33.268420" lon="126.675900" sectionIndex="0" pointIndex="91" originalElevation="2.7" isOriginalElevationFromOSM="false" isAnchor="false"><ele>3.6</ele></trkpt>
<trkpt lat="33.268320" lon="126.676720" sectionIndex="0" pointIndex="92" originalElevation="2.8" isOriginalElevationFromOSM="false" isAnchor="false"><ele>3.8</ele></trkpt>
<trkpt lat="33.268320" lon="126.676980" sectionIndex="0" pointIndex="93" originalElevation="3.2" isOriginalElevationFromOSM="false" isAnchor="false"><ele>4.0</ele></trkpt>
<trkpt lat="33.268360" lon="126.677160" sectionIndex="0" pointIndex="94" originalElevation="3.5" isOriginalElevationFromOSM="false" isAnchor="false"><ele>4.2</ele></trkpt>
<trkpt lat="33.268430" lon="126.677310" sectionIndex="0" pointIndex="95" originalElevation="3.7" isOriginalElevationFromOSM="false" isAnchor="false"><ele>4.4</ele></trkpt>
<trkpt lat="33.268510" lon="126.677420" sectionIndex="0" pointIndex="96" originalElevation="3.9" isOriginalElevationFromOSM="false" isAnchor="false"><ele>4.6</ele></trkpt>
<trkpt lat="33.268920" lon="126.677640" sectionIndex="0" pointIndex="97" originalElevation="4.9" isOriginalElevationFromOSM="false" isAnchor="false"><ele>4.8</ele></trkpt>
<trkpt lat="33.268920" lon="126.677640" sectionIndex="0" pointIndex="98" originalElevation="4.9" isOriginalElevationFromOSM="false" isAnchor="false"><ele>5.0</ele></trkpt>
<trkpt lat="33.269360" lon="126.677890" sectionIndex="0" pointIndex="99" originalElevation="5.9" isOriginalElevationFromOSM="false" isAnchor="false"><ele>5.2</ele></trkpt>
<trkpt lat="33.269600" lon="126.678000" sectionIndex="0" pointIndex="100" originalElevation="6.4" isOriginalElevationFromOSM="false" isAnchor="false"><ele>5.4</ele></trkpt>
<trkpt lat="33.269740" lon="126.678000" sectionIndex="0" pointIndex="101" originalElevation="6.8" isOriginalElevationFromOSM="false" isAnchor="false"><ele>5.5</ele></trkpt>
<trkpt lat="33.270100" lon="126.677890" sectionIndex="0" pointIndex="102" originalElevation="7.2" isOriginalElevationFromOSM="false" isAnchor="false"><ele>5.7</ele></trkpt>
<trkpt lat="33.270180" lon="126.677880" sectionIndex="0" pointIndex="103" originalElevation="7.2" isOriginalElevationFromOSM="false" isAnchor="false"><ele>5.8</ele></trkpt>
<trkpt lat="33.270500" lon="126.677920" sectionIndex="0" pointIndex="104" originalElevation="7.0" isOriginalElevationFromOSM="false" isAnchor="false"><ele>5.9</ele></trkpt>
<trkpt lat="33.270580" lon="126.677950" sectionIndex="0" pointIndex="105" originalElevation="7.0" isOriginalElevationFromOSM="false" isAnchor="false"><ele>5.9</ele></trkpt>
<trkpt lat="33.270670" lon="126.678020" sectionIndex="0" pointIndex="106" originalElevation="8.0" isOriginalElevationFromOSM="false" isAnchor="false"><ele>5.9</ele></trkpt>
<trkpt lat="33.270700" lon="126.678070" sectionIndex="0" pointIndex="107" originalElevation="6.8" isOriginalElevationFromOSM="false" isAnchor="false"><ele>5.9</ele></trkpt>
<trkpt lat="33.270750" lon="126.678210" sectionIndex="0" pointIndex="108" originalElevation="6.5" isOriginalElevationFromOSM="false" isAnchor="false"><ele>5.8</ele></trkpt>
<trkpt lat="33.270910" lon="126.678740" sectionIndex="0" pointIndex="109" originalElevation="6.5" isOriginalElevationFromOSM="false" isAnchor="false"><ele>5.7</ele></trkpt>
<trkpt lat="33.270940" lon="126.678890" sectionIndex="0" pointIndex="110" originalElevation="6.0" isOriginalElevationFromOSM="false" isAnchor="false"><ele>5.6</ele></trkpt>
<trkpt lat="33.270910" lon="126.678980" sectionIndex="0" pointIndex="111" originalElevation="5.5" isOriginalElevationFromOSM="false" isAnchor="false"><ele>5.5</ele></trkpt>
<trkpt lat="33.270780" lon="126.679060" sectionIndex="0" pointIndex="112" originalElevation="5.5" isOriginalElevationFromOSM="false" isAnchor="false"><ele>5.3</ele></trkpt>
<trkpt lat="33.270730" lon="126.679120" sectionIndex="0" pointIndex="113" originalElevation="5.5" isOriginalElevationFromOSM="false" isAnchor="false"><ele>5.1</ele></trkpt>
<trkpt lat="33.270710" lon="126.679180" sectionIndex="0" pointIndex="114" originalElevation="5.3" isOriginalElevationFromOSM="false" isAnchor="false"><ele>4.9</ele></trkpt>
<trkpt lat="33.270710" lon="126.679240" sectionIndex="0" pointIndex="115" originalElevation="5.3" isOriginalElevationFromOSM="false" isAnchor="false"><ele>4.6</ele></trkpt>
<trkpt lat="33.270850" lon="126.679930" sectionIndex="0" pointIndex="116" originalElevation="4.4" isOriginalElevationFromOSM="false" isAnchor="false"><ele>4.4</ele></trkpt>
<trkpt lat="33.270960" lon="126.681000" sectionIndex="0" pointIndex="117" originalElevation="3.8" isOriginalElevationFromOSM="false" isAnchor="false"><ele>4.2</ele></trkpt>
<trkpt lat="33.271000" lon="126.681080" sectionIndex="0" pointIndex="118" originalElevation="3.9" isOriginalElevationFromOSM="false" isAnchor="false"><ele>3.9</ele></trkpt>
<trkpt lat="33.271040" lon="126.681130" sectionIndex="0" pointIndex="119" originalElevation="3.8" isOriginalElevationFromOSM="false" isAnchor="false"><ele>3.7</ele></trkpt>
<trkpt lat="33.271110" lon="126.681180" sectionIndex="0" pointIndex="120" originalElevation="4.0" isOriginalElevationFromOSM="false" isAnchor="false"><ele>3.5</ele></trkpt>
<trkpt lat="33.271160" lon="126.681190" sectionIndex="0" pointIndex="121" originalElevation="3.0" isOriginalElevationFromOSM="false" isAnchor="false"><ele>3.3</ele></trkpt>
<trkpt lat="33.271130" lon="126.681490" sectionIndex="0" pointIndex="122" originalElevation="1.9" isOriginalElevationFromOSM="false" isAnchor="false"><ele>3.1</ele></trkpt>
<trkpt lat="33.271090" lon="126.681600" sectionIndex="0" pointIndex="123" originalElevation="1.8" isOriginalElevationFromOSM="false" isAnchor="false"><ele>2.9</ele></trkpt>
<trkpt lat="33.271030" lon="126.681690" sectionIndex="0" pointIndex="124" originalElevation="1.7" isOriginalElevationFromOSM="false" isAnchor="false"><ele>2.8</ele></trkpt>
<trkpt lat="33.270960" lon="126.681730" sectionIndex="0" pointIndex="125" originalElevation="1.6" isOriginalElevationFromOSM="false" isAnchor="false"><ele>2.7</ele></trkpt>
<trkpt lat="33.270960" lon="126.681730" sectionIndex="0" pointIndex="126" originalElevation="1.6" isOriginalElevationFromOSM="false" isAnchor="false"><ele>2.6</ele></trkpt>
<trkpt lat="33.270830" lon="126.681800" sectionIndex="0" pointIndex="127" originalElevation="1.4" isOriginalElevationFromOSM="false" isAnchor="false"><ele>2.5</ele></trkpt>
<trkpt lat="33.270770" lon="126.682000" sectionIndex="0" pointIndex="128" originalElevation="1.5" isOriginalElevationFromOSM="false" isAnchor="false"><ele>2.4</ele></trkpt>
<trkpt lat="33.270750" lon="126.682090" sectionIndex="0" pointIndex="129" originalElevation="1.5" isOriginalElevationFromOSM="false" isAnchor="false"><ele>2.4</ele></trkpt>
<trkpt lat="33.270770" lon="126.682240" sectionIndex="0" pointIndex="130" originalElevation="1.6" isOriginalElevationFromOSM="false" isAnchor="false"><ele>2.4</ele></trkpt>
<trkpt lat="33.270770" lon="126.682420" sectionIndex="0" pointIndex="131" originalElevation="1.6" isOriginalElevationFromOSM="false" isAnchor="false"><ele>2.4</ele></trkpt>
<trkpt lat="33.270830" lon="126.682520" sectionIndex="0" pointIndex="132" originalElevation="3.0" isOriginalElevationFromOSM="false" isAnchor="false"><ele>2.4</ele></trkpt>
<trkpt lat="33.270790" lon="126.682640" sectionIndex="0" pointIndex="133" originalElevation="3.0" isOriginalElevationFromOSM="false" isAnchor="false"><ele>2.4</ele></trkpt>
<trkpt lat="33.270770" lon="126.682670" sectionIndex="0" pointIndex="134" originalElevation="3.0" isOriginalElevationFromOSM="false" isAnchor="false"><ele>2.5</ele></trkpt>
<trkpt lat="33.270730" lon="126.682700" sectionIndex="0" pointIndex="135" originalElevation="3.0" isOriginalElevationFromOSM="false" isAnchor="false"><ele>2.5</ele></trkpt>
<trkpt lat="33.270600" lon="126.682770" sectionIndex="0" pointIndex="136" originalElevation="3.0" isOriginalElevationFromOSM="false" isAnchor="false"><ele>2.5</ele></trkpt>
<trkpt lat="33.270520" lon="126.682840" sectionIndex="0" pointIndex="137" originalElevation="3.0" isOriginalElevationFromOSM="false" isAnchor="false"><ele>2.6</ele></trkpt>
<trkpt lat="33.270420" lon="126.683030" sectionIndex="0" pointIndex="138" originalElevation="3.0" isOriginalElevationFromOSM="false" isAnchor="false"><ele>2.7</ele></trkpt>
<trkpt lat="33.270400" lon="126.683250" sectionIndex="0" pointIndex="139" originalElevation="3.0" isOriginalElevationFromOSM="false" isAnchor="false"><ele>2.7</ele></trkpt>
<trkpt lat="33.270420" lon="126.683500" sectionIndex="0" pointIndex="140" originalElevation="3.0" isOriginalElevationFromOSM="false" isAnchor="false"><ele>2.8</ele></trkpt>
<trkpt lat="33.270410" lon="126.683700" sectionIndex="0" pointIndex="141" originalElevation="3.0" isOriginalElevationFromOSM="false" isAnchor="false"><ele>2.9</ele></trkpt>
<trkpt lat="33.270360" lon="126.683950" sectionIndex="0" pointIndex="142" originalElevation="2.3" isOriginalElevationFromOSM="false" isAnchor="false"><ele>3.0</ele></trkpt>
<trkpt lat="33.270280" lon="126.684660" sectionIndex="0" pointIndex="143" originalElevation="2.3" isOriginalElevationFromOSM="false" isAnchor="false"><ele>3.1</ele></trkpt>
<trkpt lat="33.270230" lon="126.684960" sectionIndex="0" pointIndex="144" originalElevation="2.0" isOriginalElevationFromOSM="false" isAnchor="false"><ele>3.2</ele></trkpt>
<trkpt lat="33.270200" lon="126.685040" sectionIndex="0" pointIndex="145" originalElevation="2.5" isOriginalElevationFromOSM="false" isAnchor="false"><ele>3.3</ele></trkpt>
<trkpt lat="33.270200" lon="126.685040" sectionIndex="0" pointIndex="146" originalElevation="2.5" isOriginalElevationFromOSM="false" isAnchor="false"><ele>3.4</ele></trkpt>
<trkpt lat="33.270140" lon="126.685240" sectionIndex="0" pointIndex="147" originalElevation="3.1" isOriginalElevationFromOSM="false" isAnchor="false"><ele>3.6</ele></trkpt>
<trkpt lat="33.269860" lon="126.685870" sectionIndex="0" pointIndex="148" originalElevation="3.3" isOriginalElevationFromOSM="false" isAnchor="false"><ele>3.8</ele></trkpt>
<trkpt lat="33.269830" lon="126.686030" sectionIndex="0" pointIndex="149" originalElevation="3.5" isOriginalElevationFromOSM="false" isAnchor="false"><ele>3.9</ele></trkpt>
<trkpt lat="33.269850" lon="126.686130" sectionIndex="0" pointIndex="150" originalElevation="3.6" isOriginalElevationFromOSM="false" isAnchor="false"><ele>4.1</ele></trkpt>
<trkpt lat="33.269960" lon="126.686380" sectionIndex="0" pointIndex="151" originalElevation="3.9" isOriginalElevationFromOSM="false" isAnchor="false"><ele>4.3</ele></trkpt>
<trkpt lat="33.269990" lon="126.686530" sectionIndex="0" pointIndex="152" originalElevation="4.0" isOriginalElevationFromOSM="false" isAnchor="false"><ele>4.5</ele></trkpt>
<trkpt lat="33.270070" lon="126.687410" sectionIndex="0" pointIndex="153" originalElevation="4.2" isOriginalElevationFromOSM="false" isAnchor="false"><ele>4.7</ele></trkpt>
<trkpt lat="33.270040" lon="126.687980" sectionIndex="0" pointIndex="154" originalElevation="4.3" isOriginalElevationFromOSM="false" isAnchor="false"><ele>4.8</ele></trkpt>
<trkpt lat="33.270060" lon="126.688100" sectionIndex="0" pointIndex="155" originalElevation="5.0" isOriginalElevationFromOSM="false" isAnchor="false"><ele>5.0</ele></trkpt>
<trkpt lat="33.270090" lon="126.688340" sectionIndex="0" pointIndex="156" originalElevation="7.0" isOriginalElevationFromOSM="false" isAnchor="false"><ele>5.2</ele></trkpt>
<trkpt lat="33.270060" lon="126.688650" sectionIndex="0" pointIndex="157" originalElevation="6.9" isOriginalElevationFromOSM="false" isAnchor="false"><ele>5.3</ele></trkpt>
<trkpt lat="33.270040" lon="126.688900" sectionIndex="0" pointIndex="158" originalElevation="6.8" isOriginalElevationFromOSM="false" isAnchor="false"><ele>5.4</ele></trkpt>
<trkpt lat="33.270080" lon="126.689590" sectionIndex="0" pointIndex="159" originalElevation="6.8" isOriginalElevationFromOSM="false" isAnchor="false"><ele>5.5</ele></trkpt>
<trkpt lat="33.270120" lon="126.689680" sectionIndex="0" pointIndex="160" originalElevation="6.8" isOriginalElevationFromOSM="false" isAnchor="false"><ele>5.5</ele></trkpt>
<trkpt lat="33.270120" lon="126.689680" sectionIndex="0" pointIndex="161" originalElevation="6.8" isOriginalElevationFromOSM="false" isAnchor="false"><ele>5.5</ele></trkpt>
<trkpt lat="33.270140" lon="126.689720" sectionIndex="0" pointIndex="162" originalElevation="6.7" isOriginalElevationFromOSM="false" isAnchor="false"><ele>5.5</ele></trkpt>
<trkpt lat="33.270290" lon="126.689920" sectionIndex="0" pointIndex="163" originalElevation="6.6" isOriginalElevationFromOSM="false" isAnchor="false"><ele>5.5</ele></trkpt>
<trkpt lat="33.270350" lon="126.690040" sectionIndex="0" pointIndex="164" originalElevation="6.4" isOriginalElevationFromOSM="false" isAnchor="false"><ele>5.4</ele></trkpt>
<trkpt lat="33.270400" lon="126.690180" sectionIndex="0" pointIndex="165" originalElevation="6.5" isOriginalElevationFromOSM="false" isAnchor="false"><ele>5.3</ele></trkpt>
<trkpt lat="33.270420" lon="126.690360" sectionIndex="0" pointIndex="166" originalElevation="5.0" isOriginalElevationFromOSM="false" isAnchor="false"><ele>5.2</ele></trkpt>
<trkpt lat="33.270490" lon="126.690430" sectionIndex="0" pointIndex="167" originalElevation="5.0" isOriginalElevationFromOSM="false" isAnchor="false"><ele>5.1</ele></trkpt>
<trkpt lat="33.270550" lon="126.690460" sectionIndex="0" pointIndex="168" originalElevation="5.0" isOriginalElevationFromOSM="false" isAnchor="false"><ele>5.0</ele></trkpt>
<trkpt lat="33.270630" lon="126.690460" sectionIndex="0" pointIndex="169" originalElevation="5.0" isOriginalElevationFromOSM="false" isAnchor="false"><ele>4.8</ele></trkpt>
<trkpt lat="33.270720" lon="126.690440" sectionIndex="0" pointIndex="170" originalElevation="5.0" isOriginalElevationFromOSM="false" isAnchor="false"><ele>4.7</ele></trkpt>
<trkpt lat="33.270680" lon="126.690490" sectionIndex="0" pointIndex="171" originalElevation="4.3" isOriginalElevationFromOSM="false" isAnchor="false"><ele>4.6</ele></trkpt>
<trkpt lat="33.270640" lon="126.690590" sectionIndex="0" pointIndex="172" originalElevation="4.0" isOriginalElevationFromOSM="false" isAnchor="false"><ele>4.5</ele></trkpt>
<trkpt lat="33.270520" lon="126.691040" sectionIndex="0" pointIndex="173" originalElevation="2.0" isOriginalElevationFromOSM="false" isAnchor="false"><ele>4.4</ele></trkpt>
<trkpt lat="33.270380" lon="126.691680" sectionIndex="0" pointIndex="174" originalElevation="3.0" isOriginalElevationFromOSM="false" isAnchor="false"><ele>4.4</ele></trkpt>
<trkpt lat="33.270370" lon="126.691720" sectionIndex="0" pointIndex="175" originalElevation="3.0" isOriginalElevationFromOSM="false" isAnchor="false"><ele>4.3</ele></trkpt>
<trkpt lat="33.270370" lon="126.691720" sectionIndex="0" pointIndex="176" originalElevation="3.0" isOriginalElevationFromOSM="false" isAnchor="false"><ele>4.3</ele></trkpt>
<trkpt lat="33.270380" lon="126.691680" sectionIndex="0" pointIndex="177" originalElevation="3.0" isOriginalElevationFromOSM="false" isAnchor="false"><ele>4.3</ele></trkpt>
<trkpt lat="33.270520" lon="126.691040" sectionIndex="0" pointIndex="178" originalElevation="2.0" isOriginalElevationFromOSM="false" isAnchor="false"><ele>4.4</ele></trkpt>
<trkpt lat="33.270640" lon="126.690590" sectionIndex="0" pointIndex="179" originalElevation="4.0" isOriginalElevationFromOSM="false" isAnchor="false"><ele>4.5</ele></trkpt>
<trkpt lat="33.270680" lon="126.690490" sectionIndex="0" pointIndex="180" originalElevation="4.3" isOriginalElevationFromOSM="false" isAnchor="false"><ele>4.6</ele></trkpt>
<trkpt lat="33.270720" lon="126.690440" sectionIndex="0" pointIndex="181" originalElevation="5.0" isOriginalElevationFromOSM="false" isAnchor="false"><ele>4.7</ele></trkpt>
<trkpt lat="33.270630" lon="126.690460" sectionIndex="0" pointIndex="182" originalElevation="5.0" isOriginalElevationFromOSM="false" isAnchor="false"><ele>4.8</ele></trkpt>
<trkpt lat="33.270550" lon="126.690460" sectionIndex="0" pointIndex="183" originalElevation="5.0" isOriginalElevationFromOSM="false" isAnchor="false"><ele>4.9</ele></trkpt>
<trkpt lat="33.270490" lon="126.690430" sectionIndex="0" pointIndex="184" originalElevation="5.0" isOriginalElevationFromOSM="false" isAnchor="false"><ele>5.1</ele></trkpt>
<trkpt lat="33.270420" lon="126.690360" sectionIndex="0" pointIndex="185" originalElevation="5.0" isOriginalElevationFromOSM="false" isAnchor="false"><ele>5.2</ele></trkpt>
<trkpt lat="33.270400" lon="126.690180" sectionIndex="0" pointIndex="186" originalElevation="6.5" isOriginalElevationFromOSM="false" isAnchor="false"><ele>5.3</ele></trkpt>
<trkpt lat="33.270380" lon="126.690130" sectionIndex="0" pointIndex="187" originalElevation="6.5" isOriginalElevationFromOSM="false" isAnchor="false"><ele>5.4</ele></trkpt>
<trkpt lat="33.270380" lon="126.690130" sectionIndex="0" pointIndex="188" originalElevation="6.5" isOriginalElevationFromOSM="false" isAnchor="false"><ele>5.5</ele></trkpt>
<trkpt lat="33.270350" lon="126.690040" sectionIndex="0" pointIndex="189" originalElevation="6.4" isOriginalElevationFromOSM="false" isAnchor="false"><ele>5.5</ele></trkpt>
<trkpt lat="33.270290" lon="126.689920" sectionIndex="0" pointIndex="190" originalElevation="6.6" isOriginalElevationFromOSM="false" isAnchor="false"><ele>5.5</ele></trkpt>
<trkpt lat="33.270140" lon="126.689720" sectionIndex="0" pointIndex="191" originalElevation="6.7" isOriginalElevationFromOSM="false" isAnchor="false"><ele>5.5</ele></trkpt>
<trkpt lat="33.270080" lon="126.689590" sectionIndex="0" pointIndex="192" originalElevation="6.8" isOriginalElevationFromOSM="false" isAnchor="false"><ele>5.5</ele></trkpt>
<trkpt lat="33.270040" lon="126.688900" sectionIndex="0" pointIndex="193" originalElevation="6.8" isOriginalElevationFromOSM="false" isAnchor="false"><ele>5.4</ele></trkpt>
<trkpt lat="33.270060" lon="126.688650" sectionIndex="0" pointIndex="194" originalElevation="6.9" isOriginalElevationFromOSM="false" isAnchor="false"><ele>5.3</ele></trkpt>
<trkpt lat="33.270090" lon="126.688340" sectionIndex="0" pointIndex="195" originalElevation="7.0" isOriginalElevationFromOSM="false" isAnchor="false"><ele>5.2</ele></trkpt>
<trkpt lat="33.270060" lon="126.688100" sectionIndex="0" pointIndex="196" originalElevation="5.0" isOriginalElevationFromOSM="false" isAnchor="false"><ele>5.1</ele></trkpt>
<trkpt lat="33.270040" lon="126.687980" sectionIndex="0" pointIndex="197" originalElevation="4.3" isOriginalElevationFromOSM="false" isAnchor="false"><ele>4.9</ele></trkpt>
<trkpt lat="33.270070" lon="126.687410" sectionIndex="0" pointIndex="198" originalElevation="4.2" isOriginalElevationFromOSM="false" isAnchor="false"><ele>4.8</ele></trkpt>
<trkpt lat="33.269990" lon="126.686530" sectionIndex="0" pointIndex="199" originalElevation="4.0" isOriginalElevationFromOSM="false" isAnchor="false"><ele>4.6</ele></trkpt>
<trkpt lat="33.269960" lon="126.686390" sectionIndex="0" pointIndex="200" originalElevation="3.9" isOriginalElevationFromOSM="false" isAnchor="false"><ele>4.4</ele></trkpt>
<trkpt lat="33.269960" lon="126.686390" sectionIndex="0" pointIndex="201" originalElevation="3.9" isOriginalElevationFromOSM="false" isAnchor="false"><ele>4.2</ele></trkpt>
<trkpt lat="33.269960" lon="126.686380" sectionIndex="0" pointIndex="202" originalElevation="3.9" isOriginalElevationFromOSM="false" isAnchor="false"><ele>4.1</ele></trkpt>
<trkpt lat="33.269850" lon="126.686130" sectionIndex="0" pointIndex="203" originalElevation="3.6" isOriginalElevationFromOSM="false" isAnchor="false"><ele>3.9</ele></trkpt>
<trkpt lat="33.269830" lon="126.686030" sectionIndex="0" pointIndex="204" originalElevation="3.5" isOriginalElevationFromOSM="false" isAnchor="false"><ele>3.7</ele></trkpt>
<trkpt lat="33.269860" lon="126.685870" sectionIndex="0" pointIndex="205" originalElevation="3.3" isOriginalElevationFromOSM="false" isAnchor="false"><ele>3.6</ele></trkpt>
<trkpt lat="33.270140" lon="126.685240" sectionIndex="0" pointIndex="206" originalElevation="3.1" isOriginalElevationFromOSM="false" isAnchor="false"><ele>3.5</ele></trkpt>
<trkpt lat="33.270230" lon="126.684960" sectionIndex="0" pointIndex="207" originalElevation="2.0" isOriginalElevationFromOSM="false" isAnchor="false"><ele>3.3</ele></trkpt>
<trkpt lat="33.270280" lon="126.684660" sectionIndex="0" pointIndex="208" originalElevation="2.3" isOriginalElevationFromOSM="false" isAnchor="false"><ele>3.2</ele></trkpt>
<trkpt lat="33.270360" lon="126.683950" sectionIndex="0" pointIndex="209" originalElevation="2.3" isOriginalElevationFromOSM="false" isAnchor="false"><ele>3.1</ele></trkpt>
<trkpt lat="33.270410" lon="126.683700" sectionIndex="0" pointIndex="210" originalElevation="3.0" isOriginalElevationFromOSM="false" isAnchor="false"><ele>3.0</ele></trkpt>
<trkpt lat="33.270420" lon="126.683500" sectionIndex="0" pointIndex="211" originalElevation="3.0" isOriginalElevationFromOSM="false" isAnchor="false"><ele>3.0</ele></trkpt>
<trkpt lat="33.270410" lon="126.683350" sectionIndex="0" pointIndex="212" originalElevation="3.0" isOriginalElevationFromOSM="false" isAnchor="false"><ele>2.9</ele></trkpt>
<trkpt lat="33.270410" lon="126.683350" sectionIndex="0" pointIndex="213" originalElevation="3.0" isOriginalElevationFromOSM="false" isAnchor="false"><ele>2.8</ele></trkpt>
<trkpt lat="33.270400" lon="126.683250" sectionIndex="0" pointIndex="214" originalElevation="3.0" isOriginalElevationFromOSM="false" isAnchor="false"><ele>2.8</ele></trkpt>
<trkpt lat="33.270420" lon="126.683030" sectionIndex="0" pointIndex="215" originalElevation="3.0" isOriginalElevationFromOSM="false" isAnchor="false"><ele>2.7</ele></trkpt>
<trkpt lat="33.270520" lon="126.682840" sectionIndex="0" pointIndex="216" originalElevation="3.0" isOriginalElevationFromOSM="false" isAnchor="false"><ele>2.6</ele></trkpt>
<trkpt lat="33.270600" lon="126.682770" sectionIndex="0" pointIndex="217" originalElevation="3.0" isOriginalElevationFromOSM="false" isAnchor="false"><ele>2.6</ele></trkpt>
<trkpt lat="33.270730" lon="126.682700" sectionIndex="0" pointIndex="218" originalElevation="3.0" isOriginalElevationFromOSM="false" isAnchor="false"><ele>2.5</ele></trkpt>
<trkpt lat="33.270770" lon="126.682670" sectionIndex="0" pointIndex="219" originalElevation="3.0" isOriginalElevationFromOSM="false" isAnchor="false"><ele>2.5</ele></trkpt>
<trkpt lat="33.270790" lon="126.682640" sectionIndex="0" pointIndex="220" originalElevation="3.0" isOriginalElevationFromOSM="false" isAnchor="false"><ele>2.5</ele></trkpt>
<trkpt lat="33.270830" lon="126.682520" sectionIndex="0" pointIndex="221" originalElevation="3.0" isOriginalElevationFromOSM="false" isAnchor="false"><ele>2.4</ele></trkpt>
<trkpt lat="33.270770" lon="126.682420" sectionIndex="0" pointIndex="222" originalElevation="1.6" isOriginalElevationFromOSM="false" isAnchor="false"><ele>2.4</ele></trkpt>
<trkpt lat="33.270770" lon="126.682240" sectionIndex="0" pointIndex="223" originalElevation="1.6" isOriginalElevationFromOSM="false" isAnchor="false"><ele>2.4</ele></trkpt>
<trkpt lat="33.270750" lon="126.682090" sectionIndex="0" pointIndex="224" originalElevation="1.5" isOriginalElevationFromOSM="false" isAnchor="false"><ele>2.4</ele></trkpt>
<trkpt lat="33.270770" lon="126.682000" sectionIndex="0" pointIndex="225" originalElevation="1.5" isOriginalElevationFromOSM="false" isAnchor="false"><ele>2.4</ele></trkpt>
<trkpt lat="33.270830" lon="126.681800" sectionIndex="0" pointIndex="226" originalElevation="1.4" isOriginalElevationFromOSM="false" isAnchor="false"><ele>2.5</ele></trkpt>
<trkpt lat="33.270890" lon="126.681760" sectionIndex="0" pointIndex="227" originalElevation="1.6" isOriginalElevationFromOSM="false" isAnchor="false"><ele>2.6</ele></trkpt>
<trkpt lat="33.270890" lon="126.681760" sectionIndex="0" pointIndex="228" originalElevation="1.6" isOriginalElevationFromOSM="false" isAnchor="false"><ele>2.6</ele></trkpt>
<trkpt lat="33.271030" lon="126.681690" sectionIndex="0" pointIndex="229" originalElevation="1.7" isOriginalElevationFromOSM="false" isAnchor="false"><ele>2.7</ele></trkpt>
<trkpt lat="33.271090" lon="126.681600" sectionIndex="0" pointIndex="230" originalElevation="1.8" isOriginalElevationFromOSM="false" isAnchor="false"><ele>2.9</ele></trkpt>
<trkpt lat="33.271130" lon="126.681490" sectionIndex="0" pointIndex="231" originalElevation="1.9" isOriginalElevationFromOSM="false" isAnchor="false"><ele>3.0</ele></trkpt>
<trkpt lat="33.271160" lon="126.681190" sectionIndex="0" pointIndex="232" originalElevation="3.0" isOriginalElevationFromOSM="false" isAnchor="false"><ele>3.2</ele></trkpt>
<trkpt lat="33.271110" lon="126.681180" sectionIndex="0" pointIndex="233" originalElevation="4.0" isOriginalElevationFromOSM="false" isAnchor="false"><ele>3.4</ele></trkpt>
<trkpt lat="33.271040" lon="126.681130" sectionIndex="0" pointIndex="234" originalElevation="3.8" isOriginalElevationFromOSM="false" isAnchor="false"><ele>3.6</ele></trkpt>
<trkpt lat="33.271000" lon="126.681080" sectionIndex="0" pointIndex="235" originalElevation="3.9" isOriginalElevationFromOSM="false" isAnchor="false"><ele>3.8</ele></trkpt>
<trkpt lat="33.270960" lon="126.681000" sectionIndex="0" pointIndex="236" originalElevation="3.8" isOriginalElevationFromOSM="false" isAnchor="false"><ele>4.0</ele></trkpt>
<trkpt lat="33.270850" lon="126.679930" sectionIndex="0" pointIndex="237" originalElevation="4.4" isOriginalElevationFromOSM="false" isAnchor="false"><ele>4.2</ele></trkpt>
<trkpt lat="33.270810" lon="126.679720" sectionIndex="0" pointIndex="238" originalElevation="4.8" isOriginalElevationFromOSM="false" isAnchor="false"><ele>4.5</ele></trkpt>
<trkpt lat="33.270810" lon="126.679720" sectionIndex="0" pointIndex="239" originalElevation="4.8" isOriginalElevationFromOSM="false" isAnchor="false"><ele>4.7</ele></trkpt>
<trkpt lat="33.270710" lon="126.679240" sectionIndex="0" pointIndex="240" originalElevation="5.3" isOriginalElevationFromOSM="false" isAnchor="false"><ele>4.9</ele></trkpt>
<trkpt lat="33.270710" lon="126.679180" sectionIndex="0" pointIndex="241" originalElevation="5.3" isOriginalElevationFromOSM="false" isAnchor="false"><ele>5.1</ele></trkpt>
<trkpt lat="33.270730" lon="126.679120" sectionIndex="0" pointIndex="242" originalElevation="5.5" isOriginalElevationFromOSM="false" isAnchor="false"><ele>5.3</ele></trkpt>
<trkpt lat="33.270780" lon="126.679060" sectionIndex="0" pointIndex="243" originalElevation="5.5" isOriginalElevationFromOSM="false" isAnchor="false"><ele>5.5</ele></trkpt>
<trkpt lat="33.270910" lon="126.678980" sectionIndex="0" pointIndex="244" originalElevation="5.5" isOriginalElevationFromOSM="false" isAnchor="false"><ele>5.6</ele></trkpt>
<trkpt lat="33.270940" lon="126.678890" sectionIndex="0" pointIndex="245" originalElevation="6.0" isOriginalElevationFromOSM="false" isAnchor="false"><ele>5.7</ele></trkpt>
<trkpt lat="33.270910" lon="126.678740" sectionIndex="0" pointIndex="246" originalElevation="6.5" isOriginalElevationFromOSM="false" isAnchor="false"><ele>5.8</ele></trkpt>
<trkpt lat="33.270750" lon="126.678210" sectionIndex="0" pointIndex="247" originalElevation="6.5" isOriginalElevationFromOSM="false" isAnchor="false"><ele>5.9</ele></trkpt>
<trkpt lat="33.270700" lon="126.678070" sectionIndex="0" pointIndex="248" originalElevation="6.8" isOriginalElevationFromOSM="false" isAnchor="false"><ele>5.9</ele></trkpt>
<trkpt lat="33.270670" lon="126.678020" sectionIndex="0" pointIndex="249" originalElevation="8.0" isOriginalElevationFromOSM="false" isAnchor="false"><ele>5.9</ele></trkpt>
<trkpt lat="33.270580" lon="126.677950" sectionIndex="0" pointIndex="250" originalElevation="7.0" isOriginalElevationFromOSM="false" isAnchor="false"><ele>5.8</ele></trkpt>
<trkpt lat="33.270500" lon="126.677920" sectionIndex="0" pointIndex="251" originalElevation="7.0" isOriginalElevationFromOSM="false" isAnchor="false"><ele>5.7</ele></trkpt>
<trkpt lat="33.270180" lon="126.677880" sectionIndex="0" pointIndex="252" originalElevation="7.2" isOriginalElevationFromOSM="false" isAnchor="false"><ele>5.6</ele></trkpt>
<trkpt lat="33.270100" lon="126.677890" sectionIndex="0" pointIndex="253" originalElevation="7.2" isOriginalElevationFromOSM="false" isAnchor="false"><ele>5.5</ele></trkpt>
<trkpt lat="33.269740" lon="126.678000" sectionIndex="0" pointIndex="254" originalElevation="6.8" isOriginalElevationFromOSM="false" isAnchor="false"><ele>5.4</ele></trkpt>
<trkpt lat="33.269600" lon="126.678000" sectionIndex="0" pointIndex="255" originalElevation="6.4" isOriginalElevationFromOSM="false" isAnchor="false"><ele>5.2</ele></trkpt>
<trkpt lat="33.269360" lon="126.677890" sectionIndex="0" pointIndex="256" originalElevation="5.9" isOriginalElevationFromOSM="false" isAnchor="false"><ele>5.0</ele></trkpt>
<trkpt lat="33.268510" lon="126.677420" sectionIndex="0" pointIndex="257" originalElevation="3.9" isOriginalElevationFromOSM="false" isAnchor="false"><ele>4.8</ele></trkpt>
<trkpt lat="33.268430" lon="126.677310" sectionIndex="0" pointIndex="258" originalElevation="3.7" isOriginalElevationFromOSM="false" isAnchor="false"><ele>4.6</ele></trkpt>
<trkpt lat="33.268360" lon="126.677160" sectionIndex="0" pointIndex="259" originalElevation="3.5" isOriginalElevationFromOSM="false" isAnchor="false"><ele>4.4</ele></trkpt>
<trkpt lat="33.268320" lon="126.676980" sectionIndex="0" pointIndex="260" originalElevation="3.2" isOriginalElevationFromOSM="false" isAnchor="false"><ele>4.1</ele></trkpt>
<trkpt lat="33.268320" lon="126.676720" sectionIndex="0" pointIndex="261" originalElevation="2.8" isOriginalElevationFromOSM="false" isAnchor="false"><ele>3.9</ele></trkpt>
<trkpt lat="33.268420" lon="126.675900" sectionIndex="0" pointIndex="262" originalElevation="2.7" isOriginalElevationFromOSM="false" isAnchor="false"><ele>3.8</ele></trkpt>
<trkpt lat="33.268530" lon="126.675520" sectionIndex="0" pointIndex="263" originalElevation="2.6" isOriginalElevationFromOSM="false" isAnchor="false"><ele>3.6</ele></trkpt>
<trkpt lat="33.268530" lon="126.675520" sectionIndex="0" pointIndex="264" originalElevation="2.6" isOriginalElevationFromOSM="false" isAnchor="false"><ele>3.5</ele></trkpt>
<trkpt lat="33.268560" lon="126.675400" sectionIndex="0" pointIndex="265" originalElevation="2.5" isOriginalElevationFromOSM="false" isAnchor="false"><ele>3.3</ele></trkpt>
<trkpt lat="33.268590" lon="126.675230" sectionIndex="0" pointIndex="266" originalElevation="2.7" isOriginalElevationFromOSM="false" isAnchor="false"><ele>3.2</ele></trkpt>
<trkpt lat="33.268600" lon="126.675010" sectionIndex="0" pointIndex="267" originalElevation="2.8" isOriginalElevationFromOSM="false" isAnchor="false"><ele>3.2</ele></trkpt>
<trkpt lat="33.268580" lon="126.674690" sectionIndex="0" pointIndex="268" originalElevation="2.8" isOriginalElevationFromOSM="false" isAnchor="false"><ele>3.1</ele></trkpt>
<trkpt lat="33.268610" lon="126.674440" sectionIndex="0" pointIndex="269" originalElevation="2.7" isOriginalElevationFromOSM="false" isAnchor="false"><ele>3.1</ele></trkpt>
<trkpt lat="33.268640" lon="126.674320" sectionIndex="0" pointIndex="270" originalElevation="2.6" isOriginalElevationFromOSM="false" isAnchor="false"><ele>3.1</ele></trkpt>
<trkpt lat="33.268700" lon="126.674240" sectionIndex="0" pointIndex="271" originalElevation="2.6" isOriginalElevationFromOSM="false" isAnchor="false"><ele>3.1</ele></trkpt>
<trkpt lat="33.268800" lon="126.674230" sectionIndex="0" pointIndex="272" originalElevation="2.5" isOriginalElevationFromOSM="false" isAnchor="false"><ele>3.1</ele></trkpt>
<trkpt lat="33.268870" lon="126.674240" sectionIndex="0" pointIndex="273" originalElevation="2.5" isOriginalElevationFromOSM="false" isAnchor="false"><ele>3.2</ele></trkpt>
<trkpt lat="33.269020" lon="126.674300" sectionIndex="0" pointIndex="274" originalElevation="2.5" isOriginalElevationFromOSM="false" isAnchor="false"><ele>3.2</ele></trkpt>
<trkpt lat="33.269200" lon="126.674440" sectionIndex="0" pointIndex="275" originalElevation="2.6" isOriginalElevationFromOSM="false" isAnchor="false"><ele>3.3</ele></trkpt>
<trkpt lat="33.269320" lon="126.674460" sectionIndex="0" pointIndex="276" originalElevation="2.7" isOriginalElevationFromOSM="false" isAnchor="false"><ele>3.4</ele></trkpt>
<trkpt lat="33.269420" lon="126.674440" sectionIndex="0" pointIndex="277" originalElevation="5.0" isOriginalElevationFromOSM="false" isAnchor="false"><ele>3.5</ele></trkpt>
<trkpt lat="33.269560" lon="126.674390" sectionIndex="0" pointIndex="278" originalElevation="4.8" isOriginalElevationFromOSM="false" isAnchor="false"><ele>3.6</ele></trkpt>
<trkpt lat="33.269860" lon="126.674220" sectionIndex="0" pointIndex="279" originalElevation="4.8" isOriginalElevationFromOSM="false" isAnchor="false"><ele>3.7</ele></trkpt>
<trkpt lat="33.270050" lon="126.674130" sectionIndex="0" pointIndex="280" originalElevation="4.0" isOriginalElevationFromOSM="false" isAnchor="false"><ele>3.8</ele></trkpt>
<trkpt lat="33.270050" lon="126.674090" sectionIndex="0" pointIndex="281" originalElevation="4.0" isOriginalElevationFromOSM="false" isAnchor="false"><ele>3.9</ele></trkpt>
<trkpt lat="33.270050" lon="126.674010" sectionIndex="0" pointIndex="282" originalElevation="4.0" isOriginalElevationFromOSM="false" isAnchor="false"><ele>4.0</ele></trkpt>
<trkpt lat="33.269920" lon="126.673600" sectionIndex="0" pointIndex="283" originalElevation="3.9" isOriginalElevationFromOSM="false" isAnchor="false"><ele>4.2</ele></trkpt>
<trkpt lat="33.269990" lon="126.673300" sectionIndex="0" pointIndex="284" originalElevation="3.8" isOriginalElevationFromOSM="false" isAnchor="false"><ele>4.4</ele></trkpt>
<trkpt lat="33.270040" lon="126.672830" sectionIndex="0" pointIndex="285" originalElevation="3.8" isOriginalElevationFromOSM="false" isAnchor="false"><ele>4.6</ele></trkpt>
<trkpt lat="33.270170" lon="126.672250" sectionIndex="0" pointIndex="286" originalElevation="3.7" isOriginalElevationFromOSM="false" isAnchor="false"><ele>4.8</ele></trkpt>
<trkpt lat="33.270210" lon="126.672150" sectionIndex="0" pointIndex="287" originalElevation="3.8" isOriginalElevationFromOSM="false" isAnchor="false"><ele>5.0</ele></trkpt>
<trkpt lat="33.270290" lon="126.672020" sectionIndex="0" pointIndex="288" originalElevation="3.9" isOriginalElevationFromOSM="false" isAnchor="false"><ele>5.2</ele></trkpt>
<trkpt lat="33.270390" lon="126.671940" sectionIndex="0" pointIndex="289" originalElevation="4.0" isOriginalElevationFromOSM="false" isAnchor="false"><ele>5.5</ele></trkpt>
<trkpt lat="33.270580" lon="126.671840" sectionIndex="0" pointIndex="290" originalElevation="5.0" isOriginalElevationFromOSM="false" isAnchor="false"><ele>5.8</ele></trkpt>
<trkpt lat="33.270860" lon="126.671530" sectionIndex="0" pointIndex="291" originalElevation="5.7" isOriginalElevationFromOSM="false" isAnchor="false"><ele>6.1</ele></trkpt>
<trkpt lat="33.270860" lon="126.671530" sectionIndex="0" pointIndex="292" originalElevation="5.7" isOriginalElevationFromOSM="false" isAnchor="false"><ele>6.5</ele></trkpt>
<trkpt lat="33.271010" lon="126.671360" sectionIndex="0" pointIndex="293" originalElevation="6.4" isOriginalElevationFromOSM="false" isAnchor="false"><ele>6.8</ele></trkpt>
<trkpt lat="33.271240" lon="126.671070" sectionIndex="0" pointIndex="294" originalElevation="5.0" isOriginalElevationFromOSM="false" isAnchor="false"><ele>7.2</ele></trkpt>
<trkpt lat="33.271280" lon="126.671000" sectionIndex="0" pointIndex="295" originalElevation="6.9" isOriginalElevationFromOSM="false" isAnchor="false"><ele>7.6</ele></trkpt>
<trkpt lat="33.271360" lon="126.670980" sectionIndex="0" pointIndex="296" originalElevation="6.5" isOriginalElevationFromOSM="false" isAnchor="false"><ele>7.9</ele></trkpt>
<trkpt lat="33.271700" lon="126.671000" sectionIndex="0" pointIndex="297" originalElevation="11.0" isOriginalElevationFromOSM="false" isAnchor="false"><ele>8.2</ele></trkpt>
<trkpt lat="33.271720" lon="126.670740" sectionIndex="0" pointIndex="298" originalElevation="10.5" isOriginalElevationFromOSM="false" isAnchor="false"><ele>8.5</ele></trkpt>
<trkpt lat="33.271770" lon="126.670310" sectionIndex="0" pointIndex="299" originalElevation="10.4" isOriginalElevationFromOSM="false" isAnchor="false"><ele>8.8</ele></trkpt>
<trkpt lat="33.271920" lon="126.669820" sectionIndex="0" pointIndex="300" originalElevation="10.5" isOriginalElevationFromOSM="false" isAnchor="false"><ele>9.0</ele></trkpt>
<trkpt lat="33.272010" lon="126.669370" sectionIndex="0" pointIndex="301" originalElevation="10.4" isOriginalElevationFromOSM="false" isAnchor="false"><ele>9.2</ele></trkpt>
<trkpt lat="33.272090" lon="126.669060" sectionIndex="0" pointIndex="302" originalElevation="10.6" isOriginalElevationFromOSM="false" isAnchor="false"><ele>9.3</ele></trkpt>
<trkpt lat="33.272260" lon="126.668750" sectionIndex="0" pointIndex="303" originalElevation="10.8" isOriginalElevationFromOSM="false" isAnchor="false"><ele>9.4</ele></trkpt>
<trkpt lat="33.272280" lon="126.668730" sectionIndex="0" pointIndex="304" originalElevation="11.4" isOriginalElevationFromOSM="false" isAnchor="false"><ele>9.4</ele></trkpt>
<trkpt lat="33.272280" lon="126.668730" sectionIndex="0" pointIndex="305" originalElevation="11.4" isOriginalElevationFromOSM="false" isAnchor="false"><ele>9.4</ele></trkpt>
<trkpt lat="33.272340" lon="126.668690" sectionIndex="0" pointIndex="306" originalElevation="12.0" isOriginalElevationFromOSM="false" isAnchor="false"><ele>9.2</ele></trkpt>
<trkpt lat="33.272370" lon="126.668660" sectionIndex="0" pointIndex="307" originalElevation="12.0" isOriginalElevationFromOSM="false" isAnchor="false"><ele>9.1</ele></trkpt>
<trkpt lat="33.272370" lon="126.667880" sectionIndex="0" pointIndex="308" originalElevation="14.0" isOriginalElevationFromOSM="false" isAnchor="false"><ele>8.8</ele></trkpt>
<trkpt lat="33.272380" lon="126.666120" sectionIndex="0" pointIndex="309" originalElevation="12.0" isOriginalElevationFromOSM="false" isAnchor="false"><ele>8.6</ele></trkpt>
<trkpt lat="33.272380" lon="126.666000" sectionIndex="0" pointIndex="310" originalElevation="12.0" isOriginalElevationFromOSM="false" isAnchor="false"><ele>8.3</ele></trkpt>
<trkpt lat="33.272380" lon="126.664330" sectionIndex="0" pointIndex="311" originalElevation="5.0" isOriginalElevationFromOSM="false" isAnchor="false"><ele>7.9</ele></trkpt>
<trkpt lat="33.272350" lon="126.664330" sectionIndex="0" pointIndex="312" originalElevation="5.0" isOriginalElevationFromOSM="false" isAnchor="false"><ele>7.5</ele></trkpt>
<trkpt lat="33.272340" lon="126.664330" sectionIndex="0" pointIndex="313" originalElevation="5.0" isOriginalElevationFromOSM="false" isAnchor="false"><ele>7.1</ele></trkpt>
<trkpt lat="33.272340" lon="126.664330" sectionIndex="0" pointIndex="314" originalElevation="5.0" isOriginalElevationFromOSM="false" isAnchor="false"><ele>6.8</ele></trkpt>
<trkpt lat="33.272350" lon="126.664330" sectionIndex="0" pointIndex="315" originalElevation="5.0" isOriginalElevationFromOSM="false" isAnchor="false"><ele>6.4</ele></trkpt>
<trkpt lat="33.272380" lon="126.664330" sectionIndex="0" pointIndex="316" originalElevation="5.0" isOriginalElevationFromOSM="false" isAnchor="false"><ele>6.0</ele></trkpt>
<trkpt lat="33.272380" lon="126.663690" sectionIndex="0" pointIndex="317" originalElevation="4.2" isOriginalElevationFromOSM="false" isAnchor="false"><ele>5.7</ele></trkpt>
<trkpt lat="33.272400" lon="126.663580" sectionIndex="0" pointIndex="318" originalElevation="4.2" isOriginalElevationFromOSM="false" isAnchor="false"><ele>5.4</ele></trkpt>
<trkpt lat="33.272430" lon="126.663480" sectionIndex="0" pointIndex="319" originalElevation="4.2" isOriginalElevationFromOSM="false" isAnchor="false"><ele>5.1</ele></trkpt>
<trkpt lat="33.272520" lon="126.663300" sectionIndex="0" pointIndex="320" originalElevation="4.2" isOriginalElevationFromOSM="false" isAnchor="false"><ele>4.8</ele></trkpt>
<trkpt lat="33.272620" lon="126.663180" sectionIndex="0" pointIndex="321" originalElevation="4.1" isOriginalElevationFromOSM="false" isAnchor="false"><ele>4.5</ele></trkpt>
<trkpt lat="33.272750" lon="126.663080" sectionIndex="0" pointIndex="322" originalElevation="4.0" isOriginalElevationFromOSM="false" isAnchor="false"><ele>4.3</ele></trkpt>
<trkpt lat="33.272350" lon="126.662890" sectionIndex="0" pointIndex="323" originalElevation="4.0" isOriginalElevationFromOSM="false" isAnchor="false"><ele>4.1</ele></trkpt>
<trkpt lat="33.272000" lon="126.662710" sectionIndex="0" pointIndex="324" originalElevation="4.0" isOriginalElevationFromOSM="false" isAnchor="false"><ele>3.8</ele></trkpt>
<trkpt lat="33.271860" lon="126.662630" sectionIndex="0" pointIndex="325" originalElevation="2.5" isOriginalElevationFromOSM="false" isAnchor="false"><ele>3.6</ele></trkpt>
<trkpt lat="33.271310" lon="126.662090" sectionIndex="0" pointIndex="326" originalElevation="0.0" isOriginalElevationFromOSM="false" isAnchor="false"><ele>3.4</ele></trkpt>
<trkpt lat="33.271140" lon="126.662340" sectionIndex="0" pointIndex="327" originalElevation="1.5" isOriginalElevationFromOSM="false" isAnchor="false"><ele>3.3</ele></trkpt>
</trkseg>
</trk>
</gpx>