<?xml version="1.0" encoding="UTF-8"?>
<gpx xmlns="http://www.topografix.com/GPX/1/1" creator="MTK - http://www.toursprung.com" version="1.1" xmlns:xsi="http://www.w3.org/2001/XMLSchema-instance" xsi:schemaLocation="http://www.topografix.com/GPX/1/1 http://www.topografix.com/GPX/1/1/gpx.xsd">
<metadata>
<name>새연교 러닝코스</name>
<extensions><extra>{}</extra></extensions>
</metadata>

<trk>
<name>새연교 러닝코스</name>
<trkseg>
<trkpt lat="33.247500" lon="126.571710" sectionIndex="0" pointIndex="0" originalElevation="42.0" isOriginalElevationFromOSM="false" isAnchor="false"><ele>37.9</ele></trkpt>
<trkpt lat="33.247200" lon="126.571720" sectionIndex="0" pointIndex="1" originalElevation="41.0" isOriginalElevationFromOSM="false" isAnchor="false"><ele>37.2</ele></trkpt>
<trkpt lat="33.247070" lon="126.571740" sectionIndex="0" pointIndex="2" originalElevation="41.0" isOriginalElevationFromOSM="false" isAnchor="false"><ele>36.5</ele></trkpt>
<trkpt lat="33.246840" lon="126.571750" sectionIndex="0" pointIndex="3" originalElevation="41.0" isOriginalElevationFromOSM="false" isAnchor="false"><ele>35.7</ele></trkpt>
<trkpt lat="33.246770" lon="126.571720" sectionIndex="0" pointIndex="4" originalElevation="41.0" isOriginalElevationFromOSM="false" isAnchor="false"><ele>34.8</ele></trkpt>
<trkpt lat="33.246770" lon="126.571720" sectionIndex="0" pointIndex="5" originalElevation="41.0" isOriginalElevationFromOSM="false" isAnchor="false"><ele>33.8</ele></trkpt>
<trkpt lat="33.246520" lon="126.571570" sectionIndex="0" pointIndex="6" originalElevation="41.0" isOriginalElevationFromOSM="false" isAnchor="false"><ele>32.7</ele></trkpt>
<trkpt lat="33.246180" lon="126.571310" sectionIndex="0" pointIndex="7" originalElevation="33.0" isOriginalElevationFromOSM="false" isAnchor="false"><ele>31.6</ele></trkpt>
<trkpt lat="33.245870" lon="126.570910" sectionIndex="0" pointIndex="8" originalElevation="37.0" isOriginalElevationFromOSM="false" isAnchor="false"><ele>30.3</ele></trkpt>
<trkpt lat="33.245510" lon="126.570560" sectionIndex="0" pointIndex="9" originalElevation="28.0" isOriginalElevationFromOSM="false" isAnchor="false"><ele>28.9</ele></trkpt>
<trkpt lat="33.245240" lon="126.570360" sectionIndex="0" pointIndex="10" originalElevation="34.0" isOriginalElevationFromOSM="false" isAnchor="false"><ele>27.5</ele></trkpt>
<trkpt lat="33.245240" lon="126.570360" sectionIndex="0" pointIndex="11" originalElevation="34.0" isOriginalElevationFromOSM="false" isAnchor="false"><ele>26.0</ele></trkpt>
<trkpt lat="33.244930" lon="126.569990" sectionIndex="0" pointIndex="12" originalElevation="34.0" isOriginalElevationFromOSM="false" isAnchor="false"><ele>24.4</ele></trkpt>
<trkpt lat="33.244850" lon="126.569900" sectionIndex="0" pointIndex="13" originalElevation="34.0" isOriginalElevationFromOSM="false" isAnchor="false"><ele>22.7</ele></trkpt>
<trkpt lat="33.243320" lon="126.568190" sectionIndex="0" pointIndex="14" originalElevation="16.0" isOriginalElevationFromOSM="false" isAnchor="false"><ele>21.0</ele></trkpt>
<trkpt lat="33.242620" lon="126.567320" sectionIndex="0" pointIndex="15" originalElevation="12.0" isOriginalElevationFromOSM="false" isAnchor="false"><ele>19.3</ele></trkpt>
<trkpt lat="33.242620" lon="126.567320" sectionIndex="0" pointIndex="16" originalElevation="12.0" isOriginalElevationFromOSM="false" isAnchor="false"><ele>17.5</ele></trkpt>
<trkpt lat="33.242510" lon="126.567180" sectionIndex="0" pointIndex="17" originalElevation="12.0" isOriginalElevationFromOSM="false" isAnchor="false"><ele>15.8</ele></trkpt>
<trkpt lat="33.240270" lon="126.565150" sectionIndex="0" pointIndex="18" originalElevation="6.0" isOriginalElevationFromOSM="false" isAnchor="false"><ele>14.1</ele></trkpt>
<trkpt lat="33.240090" lon="126.564980" sectionIndex="0" pointIndex="19" originalElevation="6.0" isOriginalElevationFromOSM="false" isAnchor="false"><ele>12.5</ele></trkpt>
<trkpt lat="33.240020" lon="126.564870" sectionIndex="0" pointIndex="20" originalElevation="6.0" isOriginalElevationFromOSM="false" isAnchor="false"><ele>11.0</ele></trkpt>
<trkpt lat="33.240020" lon="126.564870" sectionIndex="0" pointIndex="21" originalElevation="6.0" isOriginalElevationFromOSM="false" isAnchor="false"><ele>9.7</ele></trkpt>
<trkpt lat="33.240000" lon="126.564840" sectionIndex="0" pointIndex="22" originalElevation="6.0" isOriginalElevationFromOSM="false" isAnchor="false"><ele>8.4</ele></trkpt>
<trkpt lat="33.239630" lon="126.563920" sectionIndex="0" pointIndex="23" originalElevation="3.0" isOriginalElevationFromOSM="false" isAnchor="false"><ele>7.4</ele></trkpt>
<trkpt lat="33.239590" lon="126.563820" sectionIndex="0" pointIndex="24" originalElevation="3.0" isOriginalElevationFromOSM="false" isAnchor="false"><ele>6.5</ele></trkpt>
<trkpt lat="33.239570" lon="126.563710" sectionIndex="0" pointIndex="25" originalElevation="3.0" isOriginalElevationFromOSM="false" isAnchor="false"><ele>5.8</ele></trkpt>
<trkpt lat="33.239570" lon="126.563710" sectionIndex="0" pointIndex="26" originalElevation="3.0" isOriginalElevationFromOSM="false" isAnchor="false"><ele>5.1</ele></trkpt>
<trkpt lat="33.239580" lon="126.563550" sectionIndex="0" pointIndex="27" originalElevation="1.0" isOriginalElevationFromOSM="false" isAnchor="false"><ele>4.7</ele></trkpt>
<trkpt lat="33.239620" lon="126.563350" sectionIndex="0" pointIndex="28" originalElevation="1.0" isOriginalElevationFromOSM="false" isAnchor="false"><ele>4.3</ele></trkpt>
<trkpt lat="33.240080" lon="126.562010" sectionIndex="0" pointIndex="29" originalElevation="2.0" isOriginalElevationFromOSM="false" isAnchor="false"><ele>4.0</ele></trkpt>
<trkpt lat="33.240080" lon="126.562010" sectionIndex="0" pointIndex="30" originalElevation="1.5" isOriginalElevationFromOSM="false" isAnchor="false"><ele>4.0</ele></trkpt>
<trkpt lat="33.240200" lon="126.561860" sectionIndex="0" pointIndex="31" originalElevation="2.0" isOriginalElevationFromOSM="false" isAnchor="false"><ele>4.0</ele></trkpt>
<trkpt lat="33.240260" lon="126.561820" sectionIndex="0" pointIndex="32" originalElevation="2.0" isOriginalElevationFromOSM="false" isAnchor="false"><ele>4.2</ele></trkpt>
<trkpt lat="33.241730" lon="126.561150" sectionIndex="0" pointIndex="33" originalElevation="3.0" isOriginalElevationFromOSM="false" isAnchor="false"><ele>4.4</ele></trkpt>
<trkpt lat="33.241850" lon="126.561110" sectionIndex="0" pointIndex="34" originalElevation="3.0" isOriginalElevationFromOSM="false" isAnchor="false"><ele>4.7</ele></trkpt>
<trkpt lat="33.241880" lon="126.561110" sectionIndex="0" pointIndex="35" originalElevation="3.0" isOriginalElevationFromOSM="false" isAnchor="false"><ele>5.0</ele></trkpt>
<trkpt lat="33.241880" lon="126.561110" sectionIndex="0" pointIndex="36" originalElevation="3.0" isOriginalElevationFromOSM="false" isAnchor="false"><ele>5.4</ele></trkpt>
<trkpt lat="33.241920" lon="126.561110" sectionIndex="0" pointIndex="37" originalElevation="3.0" isOriginalElevationFromOSM="false" isAnchor="false"><ele>5.8</ele></trkpt>
<trkpt lat="33.241980" lon="126.561140" sectionIndex="0" pointIndex="38" originalElevation="3.0" isOriginalElevationFromOSM="false" isAnchor="false"><ele>6.3</ele></trkpt>
<trkpt lat="33.242090" lon="126.561280" sectionIndex="0" pointIndex="39" originalElevation="12.0" isOriginalElevationFromOSM="false" isAnchor="false"><ele>6.7</ele></trkpt>
<trkpt lat="33.242160" lon="126.561420" sectionIndex="0" pointIndex="40" originalElevation="12.0" isOriginalElevationFromOSM="false" isAnchor="false"><ele>7.2</ele></trkpt>
<trkpt lat="33.242360" lon="126.561600" sectionIndex="0" pointIndex="41" originalElevation="9.0" isOriginalElevationFromOSM="false" isAnchor="false"><ele>7.6</ele></trkpt>
<trkpt lat="33.242520" lon="126.561730" sectionIndex="0" pointIndex="42" originalElevation="9.0" isOriginalElevationFromOSM="false" isAnchor="false"><ele>8.0</ele></trkpt>
<trkpt lat="33.242700" lon="126.561830" sectionIndex="0" pointIndex="43" originalElevation="9.0" isOriginalElevationFromOSM="false" isAnchor="false"><ele>8.3</ele></trkpt>
<trkpt lat="33.242700" lon="126.561830" sectionIndex="0" pointIndex="44" originalElevation="9.0" isOriginalElevationFromOSM="false" isAnchor="false"><ele>8.6</ele></trkpt>
<trkpt lat="33.242860" lon="126.561890" sectionIndex="0" pointIndex="45" originalElevation="9.0" isOriginalElevationFromOSM="false" isAnchor="false"><ele>8.9</ele></trkpt>
<trkpt lat="33.243050" lon="126.561930" sectionIndex="0" pointIndex="46" originalElevation="9.0" isOriginalElevationFromOSM="false" isAnchor="false"><ele>9.0</ele></trkpt>
<trkpt lat="33.243160" lon="126.561900" sectionIndex="0" pointIndex="47" originalElevation="12.0" isOriginalElevationFromOSM="false" isAnchor="false"><ele>9.2</ele></trkpt>
<trkpt lat="33.243210" lon="126.561860" sectionIndex="0" pointIndex="48" originalElevation="12.0" isOriginalElevationFromOSM="false" isAnchor="false"><ele>9.4</ele></trkpt>
<trkpt lat="33.243210" lon="126.561860" sectionIndex="0" pointIndex="49" originalElevation="12.0" isOriginalElevationFromOSM="false" isAnchor="false"><ele>9.5</ele></trkpt>
<trkpt lat="33.243560" lon="126.561630" sectionIndex="0" pointIndex="50" originalElevation="12.0" isOriginalElevationFromOSM="false" isAnchor="false"><ele>9.5</ele></trkpt>
<trkpt lat="33.243600" lon="126.561570" sectionIndex="0" pointIndex="51" originalElevation="12.0" isOriginalElevationFromOSM="false" isAnchor="false"><ele>9.5</ele></trkpt>
<trkpt lat="33.243630" lon="126.561490" sectionIndex="0" pointIndex="52" originalElevation="12.0" isOriginalElevationFromOSM="false" isAnchor="false"><ele>9.4</ele></trkpt>
<trkpt lat="33.243630" lon="126.561420" sectionIndex="0" pointIndex="53" originalElevation="12.0" isOriginalElevationFromOSM="false" isAnchor="false"><ele>9.3</ele></trkpt>
<trkpt lat="33.243630" lon="126.561420" sectionIndex="0" pointIndex="54" originalElevation="12.0" isOriginalElevationFromOSM="false" isAnchor="false"><ele>9.2</ele></trkpt>
<trkpt lat="33.243530" lon="126.560810" sectionIndex="0" pointIndex="55" originalElevation="7.6" isOriginalElevationFromOSM="false" isAnchor="false"><ele>9.0</ele></trkpt>
<trkpt lat="33.243490" lon="126.560670" sectionIndex="0" pointIndex="56" originalElevation="6.5" isOriginalElevationFromOSM="false" isAnchor="false"><ele>8.8</ele></trkpt>
<trkpt lat="33.243380" lon="126.560490" sectionIndex="0" pointIndex="57" originalElevation="5.0" isOriginalElevationFromOSM="false" isAnchor="false"><ele>8.5</ele></trkpt>
<trkpt lat="33.243380" lon="126.560490" sectionIndex="0" pointIndex="58" originalElevation="5.0" isOriginalElevationFromOSM="false" isAnchor="false"><ele>8.3</ele></trkpt>
<trkpt lat="33.242610" lon="126.559980" sectionIndex="0" pointIndex="59" originalElevation="6.0" isOriginalElevationFromOSM="false" isAnchor="false"><ele>8.1</ele></trkpt>
<trkpt lat="33.242260" lon="126.559770" sectionIndex="0" pointIndex="60" originalElevation="2.0" isOriginalElevationFromOSM="false" isAnchor="false"><ele>7.9</ele></trkpt>
<trkpt lat="33.242080" lon="126.559650" sectionIndex="0" pointIndex="61" originalElevation="2.0" isOriginalElevationFromOSM="false" isAnchor="false"><ele>7.7</ele></trkpt>
<trkpt lat="33.241890" lon="126.559520" sectionIndex="0" pointIndex="62" originalElevation="15.0" isOriginalElevationFromOSM="false" isAnchor="false"><ele>7.4</ele></trkpt>
<trkpt lat="33.241680" lon="126.559320" sectionIndex="0" pointIndex="63" originalElevation="15.0" isOriginalElevationFromOSM="false" isAnchor="false"><ele>7.2</ele></trkpt>
<trkpt lat="33.241480" lon="126.559160" sectionIndex="0" pointIndex="64" originalElevation="15.0" isOriginalElevationFromOSM="false" isAnchor="false"><ele>7.0</ele></trkpt>
<trkpt lat="33.241350" lon="126.559070" sectionIndex="0" pointIndex="65" originalElevation="6.0" isOriginalElevationFromOSM="false" isAnchor="false"><ele>6.7</ele></trkpt>
<trkpt lat="33.241350" lon="126.559080" sectionIndex="0" pointIndex="66" originalElevation="6.0" isOriginalElevationFromOSM="false" isAnchor="false"><ele>6.4</ele></trkpt>
<trkpt lat="33.241120" lon="126.558970" sectionIndex="0" pointIndex="67" originalElevation="6.0" isOriginalElevationFromOSM="false" isAnchor="false"><ele>6.2</ele></trkpt>
<trkpt lat="33.240960" lon="126.558920" sectionIndex="0" pointIndex="68" originalElevation="6.0" isOriginalElevationFromOSM="false" isAnchor="false"><ele>6.0</ele></trkpt>
<trkpt lat="33.240630" lon="126.558870" sectionIndex="0" pointIndex="69" originalElevation="3.0" isOriginalElevationFromOSM="false" isAnchor="false"><ele>5.8</ele></trkpt>
<trkpt lat="33.240430" lon="126.558850" sectionIndex="0" pointIndex="70" originalElevation="3.0" isOriginalElevationFromOSM="false" isAnchor="false"><ele>5.6</ele></trkpt>
<trkpt lat="33.240310" lon="126.558860" sectionIndex="0" pointIndex="71" originalElevation="3.0" isOriginalElevationFromOSM="false" isAnchor="false"><ele>5.5</ele></trkpt>
<trkpt lat="33.240150" lon="126.558870" sectionIndex="0" pointIndex="72" originalElevation="3.0" isOriginalElevationFromOSM="false" isAnchor="false"><ele>5.4</ele></trkpt>
<trkpt lat="33.239630" lon="126.558900" sectionIndex="0" pointIndex="73" originalElevation="4.0" isOriginalElevationFromOSM="false" isAnchor="false"><ele>5.3</ele></trkpt>
<trkpt lat="33.239610" lon="126.558870" sectionIndex="0" pointIndex="74" originalElevation="4.5" isOriginalElevationFromOSM="false" isAnchor="false"><ele>5.3</ele></trkpt>
<trkpt lat="33.239610" lon="126.558870" sectionIndex="0" pointIndex="75" originalElevation="4.5" isOriginalElevationFromOSM="false" isAnchor="false"><ele>5.3</ele></trkpt>
<trkpt lat="33.239380" lon="126.558380" sectionIndex="0" pointIndex="76" originalElevation="5.0" isOriginalElevationFromOSM="false" isAnchor="false"><ele>5.4</ele></trkpt>
<trkpt lat="33.239360" lon="126.558390" sectionIndex="0" pointIndex="77" originalElevation="5.0" isOriginalElevationFromOSM="false" isAnchor="false"><ele>5.5</ele></trkpt>
<trkpt lat="33.239360" lon="126.558390" sectionIndex="0" pointIndex="78" originalElevation="5.0" isOriginalElevationFromOSM="false" isAnchor="false"><ele>5.6</ele></trkpt>
<trkpt lat="33.239010" lon="126.558630" sectionIndex="0" pointIndex="79" originalElevation="5.0" isOriginalElevationFromOSM="false" isAnchor="false"><ele>5.8</ele></trkpt>
<trkpt lat="33.238820" lon="126.558700" sectionIndex="0" pointIndex="80" originalElevation="1.0" isOriginalElevationFromOSM="false" isAnchor="false"><ele>6.0</ele></trkpt>
<trkpt lat="33.238380" lon="126.559030" sectionIndex="0" pointIndex="81" originalElevation="1.0" isOriginalElevationFromOSM="false" isAnchor="false"><ele>6.3</ele></trkpt>
<trkpt lat="33.237200" lon="126.559940" sectionIndex="0" pointIndex="82" originalElevation="8.0" isOriginalElevationFromOSM="false" isAnchor="false"><ele>6.6</ele></trkpt>
<trkpt lat="33.237000" lon="126.559960" sectionIndex="0" pointIndex="83" originalElevation="8.0" isOriginalElevationFromOSM="false" isAnchor="false"><ele>7.0</ele></trkpt>
<trkpt lat="33.237020" lon="126.560000" sectionIndex="0" pointIndex="84" originalElevation="8.0" isOriginalElevationFromOSM="false" isAnchor="false"><ele>7.3</ele></trkpt>
<trkpt lat="33.237020" lon="126.560000" sectionIndex="0" pointIndex="85" originalElevation="8.0" isOriginalElevationFromOSM="false" isAnchor="false"><ele>7.7</ele></trkpt>
<trkpt lat="33.237080" lon="126.560170" sectionIndex="0" pointIndex="86" originalElevation="8.0" isOriginalElevationFromOSM="false" isAnchor="false"><ele>8.1</ele></trkpt>
<trkpt lat="33.237220" lon="126.560260" sectionIndex="0" pointIndex="87" originalElevation="8.0" isOriginalElevationFromOSM="false" isAnchor="false"><ele>8.4</ele></trkpt>
<trkpt lat="33.237350" lon="126.560380" sectionIndex="0" pointIndex="88" originalElevation="8.5" isOriginalElevationFromOSM="false" isAnchor="false"><ele>8.8</ele></trkpt>
<trkpt lat="33.237350" lon="126.560380" sectionIndex="0" pointIndex="89" originalElevation="8.5" isOriginalElevationFromOSM="false" isAnchor="false"><ele>9.1</ele></trkpt>
<trkpt lat="33.237370" lon="126.560400" sectionIndex="0" pointIndex="90" originalElevation="9.0" isOriginalElevationFromOSM="false" isAnchor="false"><ele>9.4</ele></trkpt>
<trkpt lat="33.237100" lon="126.560590" sectionIndex="0" pointIndex="91" originalElevation="14.0" isOriginalElevationFromOSM="false" isAnchor="false"><ele>9.7</ele></trkpt>
<trkpt lat="33.236940" lon="126.560660" sectionIndex="0" pointIndex="92" originalElevation="14.0" isOriginalElevationFromOSM="false" isAnchor="false"><ele>9.9</ele></trkpt>
<trkpt lat="33.236810" lon="126.560690" sectionIndex="0" pointIndex="93" originalElevation="14.0" isOriginalElevationFromOSM="false" isAnchor="false"><ele>10.1</ele></trkpt>
<trkpt lat="33.236730" lon="126.560750" sectionIndex="0" pointIndex="94" originalElevation="14.0" isOriginalElevationFromOSM="false" isAnchor="false"><ele>10.3</ele></trkpt>
<trkpt lat="33.236630" lon="126.560720" sectionIndex="0" pointIndex="95" originalElevation="14.0" isOriginalElevationFromOSM="false" isAnchor="false"><ele>10.5</ele></trkpt>
<trkpt lat="33.236470" lon="126.560740" sectionIndex="0" pointIndex="96" originalElevation="9.0" isOriginalElevationFromOSM="false" isAnchor="false"><ele>10.6</ele></trkpt>
<trkpt lat="33.236330" lon="126.560740" sectionIndex="0" pointIndex="97" originalElevation="9.0" isOriginalElevationFromOSM="false" isAnchor="false"><ele>10.6</ele></trkpt>
<trkpt lat="33.236240" lon="126.560800" sectionIndex="0" pointIndex="98" originalElevation="9.0" isOriginalElevationFromOSM="false" isAnchor="false"><ele>10.6</ele></trkpt>
<trkpt lat="33.236260" lon="126.560880" sectionIndex="0" pointIndex="99" originalElevation="9.0" isOriginalElevationFromOSM="false" isAnchor="false"><ele>10.6</ele></trkpt>
<trkpt lat="33.236240" lon="126.560960" sectionIndex="0" pointIndex="100" originalElevation="9.0" isOriginalElevationFromOSM="false" isAnchor="false"><ele>10.6</ele></trkpt>
<trkpt lat="33.236190" lon="126.561040" sectionIndex="0" pointIndex="101" originalElevation="9.0" isOriginalElevationFromOSM="false" isAnchor="false"><ele>10.6</ele></trkpt>
<trkpt lat="33.236100" lon="126.561170" sectionIndex="0" pointIndex="102" originalElevation="9.0" isOriginalElevationFromOSM="false" isAnchor="false"><ele>10.5</ele></trkpt>
<trkpt lat="33.235930" lon="126.561340" sectionIndex="0" pointIndex="103" originalElevation="12.0" isOriginalElevationFromOSM="false" isAnchor="false"><ele>10.4</ele></trkpt>
<trkpt lat="33.235910" lon="126.561400" sectionIndex="0" pointIndex="104" originalElevation="12.0" isOriginalElevationFromOSM="false" isAnchor="false"><ele>10.4</ele></trkpt>
<trkpt lat="33.235930" lon="126.561640" sectionIndex="0" pointIndex="105" originalElevation="12.0" isOriginalElevationFromOSM="false" isAnchor="false"><ele>10.3</ele></trkpt>
<trkpt lat="33.235940" lon="126.561710" sectionIndex="0" pointIndex="106" originalElevation="12.0" isOriginalElevationFromOSM="false" isAnchor="false"><ele>10.2</ele></trkpt>
<trkpt lat="33.235940" lon="126.561760" sectionIndex="0" pointIndex="107" originalElevation="12.0" isOriginalElevationFromOSM="false" isAnchor="false"><ele>10.1</ele></trkpt>
<trkpt lat="33.235910" lon="126.561840" sectionIndex="0" pointIndex="108" originalElevation="12.0" isOriginalElevationFromOSM="false" isAnchor="false"><ele>10.0</ele></trkpt>
<trkpt lat="33.235810" lon="126.562000" sectionIndex="0" pointIndex="109" originalElevation="12.0" isOriginalElevationFromOSM="false" isAnchor="false"><ele>9.9</ele></trkpt>
<trkpt lat="33.235650" lon="126.562090" sectionIndex="0" pointIndex="110" originalElevation="15.0" isOriginalElevationFromOSM="false" isAnchor="false"><ele>9.9</ele></trkpt>
<trkpt lat="33.235620" lon="126.562130" sectionIndex="0" pointIndex="111" originalElevation="5.0" isOriginalElevationFromOSM="false" isAnchor="false"><ele>9.8</ele></trkpt>
<trkpt lat="33.235610" lon="126.562190" sectionIndex="0" pointIndex="112" originalElevation="5.0" isOriginalElevationFromOSM="false" isAnchor="false"><ele>9.8</ele></trkpt>
<trkpt lat="33.235610" lon="126.562190" sectionIndex="0" pointIndex="113" originalElevation="5.0" isOriginalElevationFromOSM="false" isAnchor="false"><ele>9.8</ele></trkpt>
<trkpt lat="33.235610" lon="126.562260" sectionIndex="0" pointIndex="114" originalElevation="5.0" isOriginalElevationFromOSM="false" isAnchor="false"><ele>9.9</ele></trkpt>
<trkpt lat="33.235630" lon="126.562350" sectionIndex="0" pointIndex="115" originalElevation="5.0" isOriginalElevationFromOSM="false" isAnchor="false"><ele>9.9</ele></trkpt>
<trkpt lat="33.235640" lon="126.562560" sectionIndex="0" pointIndex="116" originalElevation="15.0" isOriginalElevationFromOSM="false" isAnchor="false"><ele>10.0</ele></trkpt>
<trkpt lat="33.235630" lon="126.562660" sectionIndex="0" pointIndex="117" originalElevation="5.0" isOriginalElevationFromOSM="false" isAnchor="false"><ele>10.1</ele></trkpt>
<trkpt lat="33.235690" lon="126.562750" sectionIndex="0" pointIndex="118" originalElevation="15.0" isOriginalElevationFromOSM="false" isAnchor="false"><ele>10.3</ele></trkpt>
<trkpt lat="33.235790" lon="126.563030" sectionIndex="0" pointIndex="119" originalElevation="11.0" isOriginalElevationFromOSM="false" isAnchor="false"><ele>10.4</ele></trkpt>
<trkpt lat="33.235940" lon="126.563380" sectionIndex="0" pointIndex="120" originalElevation="11.0" isOriginalElevationFromOSM="false" isAnchor="false"><ele>10.6</ele></trkpt>
<trkpt lat="33.235970" lon="126.563440" sectionIndex="0" pointIndex="121" originalElevation="11.0" isOriginalElevationFromOSM="false" isAnchor="false"><ele>10.8</ele></trkpt>
<trkpt lat="33.236010" lon="126.563480" sectionIndex="0" pointIndex="122" originalElevation="11.0" isOriginalElevationFromOSM="false" isAnchor="false"><ele>11.0</ele></trkpt>
<trkpt lat="33.236080" lon="126.563480" sectionIndex="0" pointIndex="123" originalElevation="11.0" isOriginalElevationFromOSM="false" isAnchor="false"><ele>11.2</ele></trkpt>
<trkpt lat="33.236150" lon="126.563470" sectionIndex="0" pointIndex="124" originalElevation="11.0" isOriginalElevationFromOSM="false" isAnchor="false"><ele>11.5</ele></trkpt>
<trkpt lat="33.236380" lon="126.563640" sectionIndex="0" pointIndex="125" originalElevation="11.0" isOriginalElevationFromOSM="false" isAnchor="false"><ele>11.7</ele></trkpt>
<trkpt lat="33.236410" lon="126.563640" sectionIndex="0" pointIndex="126" originalElevation="11.0" isOriginalElevationFromOSM="false" isAnchor="false"><ele>11.9</ele></trkpt>
<trkpt lat="33.236460" lon="126.563610" sectionIndex="0" pointIndex="127" originalElevation="11.0" isOriginalElevationFromOSM="false" isAnchor="false"><ele>12.1</ele></trkpt>
<trkpt lat="33.236520" lon="126.563590" sectionIndex="0" pointIndex="128" originalElevation="14.0" isOriginalElevationFromOSM="false" isAnchor="false"><ele>12.3</ele></trkpt>
<trkpt lat="33.236550" lon="126.563560" sectionIndex="0" pointIndex="129" originalElevation="14.0" isOriginalElevationFromOSM="false" isAnchor="false"><ele>12.6</ele></trkpt>
<trkpt lat="33.236600" lon="126.563560" sectionIndex="0" pointIndex="130" originalElevation="14.0" isOriginalElevationFromOSM="false" isAnchor="false"><ele>12.8</ele></trkpt>
<trkpt lat="33.236620" lon="126.563570" sectionIndex="0" pointIndex="131" originalElevation="14.0" isOriginalElevationFromOSM="false" isAnchor="false"><ele>13.0</ele></trkpt>
<trkpt lat="33.236620" lon="126.563570" sectionIndex="0" pointIndex="132" originalElevation="14.0" isOriginalElevationFromOSM="false" isAnchor="false"><ele>13.1</ele></trkpt>
<trkpt lat="33.236640" lon="126.563590" sectionIndex="0" pointIndex="133" originalElevation="14.0" isOriginalElevationFromOSM="false" isAnchor="false"><ele>13.3</ele></trkpt>
<trkpt lat="33.236690" lon="126.563610" sectionIndex="0" pointIndex="134" originalElevation="14.0" isOriginalElevationFromOSM="false" isAnchor="false"><ele>13.5</ele></trkpt>
<trkpt lat="33.236800" lon="126.563610" sectionIndex="0" pointIndex="135" originalElevation="14.0" isOriginalElevationFromOSM="false" isAnchor="false"><ele>13.6</ele></trkpt>
<trkpt lat="33.236850" lon="126.563640" sectionIndex="0" pointIndex="136" originalElevation="14.0" isOriginalElevationFromOSM="false" isAnchor="false"><ele>13.7</ele></trkpt>
<trkpt lat="33.236920" lon="126.563640" sectionIndex="0" pointIndex="137" originalElevation="14.0" isOriginalElevationFromOSM="false" isAnchor="false"><ele>13.7</ele></trkpt>
<trkpt lat="33.237190" lon="126.563620" sectionIndex="0" pointIndex="138" originalElevation="14.0" isOriginalElevationFromOSM="false" isAnchor="false"><ele>13.8</ele></trkpt>
<trkpt lat="33.237740" lon="126.563060" sectionIndex="0" pointIndex="139" originalElevation="16.0" isOriginalElevationFromOSM="false" isAnchor="false"><ele>13.8</ele></trkpt>
<trkpt lat="33.237890" lon="126.562880" sectionIndex="0" pointIndex="140" originalElevation="16.0" isOriginalElevationFromOSM="false" isAnchor="false"><ele>13.8</ele></trkpt>
<trkpt lat="33.238140" lon="126.562820" sectionIndex="0" pointIndex="141" originalElevation="8.0" isOriginalElevationFromOSM="false" isAnchor="false"><ele>13.8</ele></trkpt>
<trkpt lat="33.238140" lon="126.562820" sectionIndex="0" pointIndex="142" originalElevation="8.0" isOriginalElevationFromOSM="false" isAnchor="false"><ele>13.6</ele></trkpt>
<trkpt lat="33.238140" lon="126.562560" sectionIndex="0" pointIndex="143" originalElevation="8.0" isOriginalElevationFromOSM="false" isAnchor="false"><ele>13.5</ele></trkpt>
<trkpt lat="33.238070" lon="126.562260" sectionIndex="0" pointIndex="144" originalElevation="19.0" isOriginalElevationFromOSM="false" isAnchor="false"><ele>13.3</ele></trkpt>
<trkpt lat="33.238000" lon="126.562180" sectionIndex="0" pointIndex="145" originalElevation="19.0" isOriginalElevationFromOSM="false" isAnchor="false"><ele>13.0</ele></trkpt>
<trkpt lat="33.237950" lon="126.562150" sectionIndex="0" pointIndex="146" originalElevation="19.0" isOriginalElevationFromOSM="false" isAnchor="false"><ele>12.7</ele></trkpt>
<trkpt lat="33.237910" lon="126.562110" sectionIndex="0" pointIndex="147" originalElevation="19.0" isOriginalElevationFromOSM="false" isAnchor="false"><ele>12.4</ele></trkpt>
<trkpt lat="33.237880" lon="126.561940" sectionIndex="0" pointIndex="148" originalElevation="18.0" isOriginalElevationFromOSM="false" isAnchor="false"><ele>11.9</ele></trkpt>
<trkpt lat="33.237830" lon="126.561830" sectionIndex="0" pointIndex="149" originalElevation="18.0" isOriginalElevationFromOSM="false" isAnchor="false"><ele>11.5</ele></trkpt>
<trkpt lat="33.237670" lon="126.560920" sectionIndex="0" pointIndex="150" originalElevation="9.0" isOriginalElevationFromOSM="false" isAnchor="false"><ele>11.0</ele></trkpt>
<trkpt lat="33.237450" lon="126.560470" sectionIndex="0" pointIndex="151" originalElevation="9.0" isOriginalElevationFromOSM="false" isAnchor="false"><ele>10.4</ele></trkpt>
<trkpt lat="33.237450" lon="126.560470" sectionIndex="0" pointIndex="152" originalElevation="9.0" isOriginalElevationFromOSM="false" isAnchor="false"><ele>9.9</ele></trkpt>
<trkpt lat="33.237220" lon="126.560260" sectionIndex="0" pointIndex="153" originalElevation="8.0" isOriginalElevationFromOSM="false" isAnchor="false"><ele>9.3</ele></trkpt>
<trkpt lat="33.237080" lon="126.560170" sectionIndex="0" pointIndex="154" originalElevation="8.0" isOriginalElevationFromOSM="false" isAnchor="false"><ele>8.7</ele></trkpt>
<trkpt lat="33.237000" lon="126.559960" sectionIndex="0" pointIndex="155" originalElevation="8.0" isOriginalElevationFromOSM="false" isAnchor="false"><ele>8.2</ele></trkpt>
<trkpt lat="33.237200" lon="126.559940" sectionIndex="0" pointIndex="156" originalElevation="8.0" isOriginalElevationFromOSM="false" isAnchor="false"><ele>7.7</ele></trkpt>
<trkpt lat="33.238380" lon="126.559030" sectionIndex="0" pointIndex="157" originalElevation="1.0" isOriginalElevationFromOSM="false" isAnchor="false"><ele>7.3</ele></trkpt>
<trkpt lat="33.238820" lon="126.558700" sectionIndex="0" pointIndex="158" originalElevation="1.0" isOriginalElevationFromOSM="false" isAnchor="false"><ele>7.0</ele></trkpt>
<trkpt lat="33.239010" lon="126.558630" sectionIndex="0" pointIndex="159" originalElevation="5.0" isOriginalElevationFromOSM="false" isAnchor="false"><ele>6.8</ele></trkpt>
<trkpt lat="33.239380" lon="126.558380" sectionIndex="0" pointIndex="160" originalElevation="5.0" isOriginalElevationFromOSM="false" isAnchor="false"><ele>6.5</ele></trkpt>
<trkpt lat="33.239630" lon="126.558900" sectionIndex="0" pointIndex="161" originalElevation="4.0" isOriginalElevationFromOSM="false" isAnchor="false"><ele>6.2</ele></trkpt>
<trkpt lat="33.239760" lon="126.558890" sectionIndex="0" pointIndex="162" originalElevation="3.5" isOriginalElevationFromOSM="false" isAnchor="false"><ele>6.1</ele></trkpt>
<trkpt lat="33.239760" lon="126.558890" sectionIndex="0" pointIndex="163" originalElevation="3.5" isOriginalElevationFromOSM="false" isAnchor="false"><ele>6.0</ele></trkpt>
<trkpt lat="33.240310" lon="126.558860" sectionIndex="0" pointIndex="164" originalElevation="3.0" isOriginalElevationFromOSM="false" isAnchor="false"><ele>6.0</ele></trkpt>
<trkpt lat="33.240430" lon="126.558850" sectionIndex="0" pointIndex="165" originalElevation="3.0" isOriginalElevationFromOSM="false" isAnchor="false"><ele>6.0</ele></trkpt>
<trkpt lat="33.240630" lon="126.558870" sectionIndex="0" pointIndex="166" originalElevation="3.0" isOriginalElevationFromOSM="false" isAnchor="false"><ele>6.2</ele></trkpt>
<trkpt lat="33.240960" lon="126.558920" sectionIndex="0" pointIndex="167" originalElevation="6.0" isOriginalElevationFromOSM="false" isAnchor="false"><ele>6.4</ele></trkpt>
<trkpt lat="33.241120" lon="126.558970" sectionIndex="0" pointIndex="168" originalElevation="6.0" isOriginalElevationFromOSM="false" isAnchor="false"><ele>6.6</ele></trkpt>
<trkpt lat="33.241350" lon="126.559080" sectionIndex="0" pointIndex="169" originalElevation="6.0" isOriginalElevationFromOSM="false" isAnchor="false"><ele>6.8</ele></trkpt>
<trkpt lat="33.241420" lon="126.559120" sectionIndex="0" pointIndex="170" originalElevation="10.5" isOriginalElevationFromOSM="false" isAnchor="false"><ele>7.0</ele></trkpt>
<trkpt lat="33.241420" lon="126.559120" sectionIndex="0" pointIndex="171" originalElevation="10.5" isOriginalElevationFromOSM="false" isAnchor="false"><ele>7.2</ele></trkpt>
<trkpt lat="33.241480" lon="126.559160" sectionIndex="0" pointIndex="172" originalElevation="15.0" isOriginalElevationFromOSM="false" isAnchor="false"><ele>7.4</ele></trkpt>
<trkpt lat="33.241680" lon="126.559320" sectionIndex="0" pointIndex="173" originalElevation="15.0" isOriginalElevationFromOSM="false" isAnchor="false"><ele>7.7</ele></trkpt>
<trkpt lat="33.241890" lon="126.559520" sectionIndex="0" pointIndex="174" originalElevation="15.0" isOriginalElevationFromOSM="false" isAnchor="false"><ele>7.9</ele></trkpt>
<trkpt lat="33.242080" lon="126.559650" sectionIndex="0" pointIndex="175" originalElevation="2.0" isOriginalElevationFromOSM="false" isAnchor="false"><ele>8.0</ele></trkpt>
<trkpt lat="33.242260" lon="126.559770" sectionIndex="0" pointIndex="176" originalElevation="2.0" isOriginalElevationFromOSM="false" isAnchor="false"><ele>8.2</ele></trkpt>
<trkpt lat="33.242610" lon="126.559980" sectionIndex="0" pointIndex="177" originalElevation="6.0" isOriginalElevationFromOSM="false" isAnchor="false"><ele>8.3</ele></trkpt>
<trkpt lat="33.243380" lon="126.560490" sectionIndex="0" pointIndex="178" originalElevation="5.0" isOriginalElevationFromOSM="false" isAnchor="false"><ele>8.5</ele></trkpt>
<trkpt lat="33.243380" lon="126.560490" sectionIndex="0" pointIndex="179" originalElevation="5.0" isOriginalElevationFromOSM="false" isAnchor="false"><ele>8.7</ele></trkpt>
<trkpt lat="33.243490" lon="126.560670" sectionIndex="0" pointIndex="180" originalElevation="6.5" isOriginalElevationFromOSM="false" isAnchor="false"><ele>8.8</ele></trkpt>
<trkpt lat="33.243530" lon="126.560810" sectionIndex="0" pointIndex="181" originalElevation="7.6" isOriginalElevationFromOSM="false" isAnchor="false"><ele>8.8</ele></trkpt>
<trkpt lat="33.243630" lon="126.561410" sectionIndex="0" pointIndex="182" originalElevation="12.0" isOriginalElevationFromOSM="false" isAnchor="false"><ele>8.9</ele></trkpt>
<trkpt lat="33.243630" lon="126.561490" sectionIndex="0" pointIndex="183" originalElevation="12.0" isOriginalElevationFromOSM="false" isAnchor="false"><ele>8.9</ele></trkpt>
<trkpt lat="33.243600" lon="126.561570" sectionIndex="0" pointIndex="184" originalElevation="12.0" isOriginalElevationFromOSM="false" isAnchor="false"><ele>8.9</ele></trkpt>
<trkpt lat="33.243560" lon="126.561630" sectionIndex="0" pointIndex="185" originalElevation="12.0" isOriginalElevationFromOSM="false" isAnchor="false"><ele>8.8</ele></trkpt>
<trkpt lat="33.243160" lon="126.561900" sectionIndex="0" pointIndex="186" originalElevation="12.0" isOriginalElevationFromOSM="false" isAnchor="false"><ele>8.7</ele></trkpt>
<trkpt lat="33.243050" lon="126.561930" sectionIndex="0" pointIndex="187" originalElevation="9.0" isOriginalElevationFromOSM="false" isAnchor="false"><ele>8.6</ele></trkpt>
<trkpt lat="33.242860" lon="126.561890" sectionIndex="0" pointIndex="188" originalElevation="9.0" isOriginalElevationFromOSM="false" isAnchor="false"><ele>8.3</ele></trkpt>
<trkpt lat="33.242670" lon="126.561810" sectionIndex="0" pointIndex="189" originalElevation="9.0" isOriginalElevationFromOSM="false" isAnchor="false"><ele>8.1</ele></trkpt>
<trkpt lat="33.242490" lon="126.561710" sectionIndex="0" pointIndex="190" originalElevation="9.0" isOriginalElevationFromOSM="false" isAnchor="false"><ele>7.8</ele></trkpt>
<trkpt lat="33.242490" lon="126.561710" sectionIndex="0" pointIndex="191" originalElevation="9.0" isOriginalElevationFromOSM="false" isAnchor="false"><ele>7.5</ele></trkpt>
<trkpt lat="33.242360" lon="126.561600" sectionIndex="0" pointIndex="192" originalElevation="9.0" isOriginalElevationFromOSM="false" isAnchor="false"><ele>7.3</ele></trkpt>
<trkpt lat="33.242160" lon="126.561420" sectionIndex="0" pointIndex="193" originalElevation="12.0" isOriginalElevationFromOSM="false" isAnchor="false"><ele>6.9</ele></trkpt>
<trkpt lat="33.242090" lon="126.561280" sectionIndex="0" pointIndex="194" originalElevation="12.0" isOriginalElevationFromOSM="false" isAnchor="false"><ele>6.5</ele></trkpt>
<trkpt lat="33.241980" lon="126.561140" sectionIndex="0" pointIndex="195" originalElevation="3.0" isOriginalElevationFromOSM="false" isAnchor="false"><ele>6.2</ele></trkpt>
<trkpt lat="33.241920" lon="126.561110" sectionIndex="0" pointIndex="196" originalElevation="3.0" isOriginalElevationFromOSM="false" isAnchor="false"><ele>5.8</ele></trkpt>
<trkpt lat="33.241850" lon="126.561110" sectionIndex="0" pointIndex="197" originalElevation="3.0" isOriginalElevationFromOSM="false" isAnchor="false"><ele>5.5</ele></trkpt>
<trkpt lat="33.241730" lon="126.561150" sectionIndex="0" pointIndex="198" originalElevation="3.0" isOriginalElevationFromOSM="false" isAnchor="false"><ele>5.1</ele></trkpt>
<trkpt lat="33.240260" lon="126.561820" sectionIndex="0" pointIndex="199" originalElevation="2.0" isOriginalElevationFromOSM="false" isAnchor="false"><ele>4.8</ele></trkpt>
<trkpt lat="33.240200" lon="126.561860" sectionIndex="0" pointIndex="200" originalElevation="2.0" isOriginalElevationFromOSM="false" isAnchor="false"><ele>4.6</ele></trkpt>
<trkpt lat="33.240200" lon="126.561860" sectionIndex="0" pointIndex="201" originalElevation="2.0" isOriginalElevationFromOSM="false" isAnchor="false"><ele>4.5</ele></trkpt>
<trkpt lat="33.240080" lon="126.562010" sectionIndex="0" pointIndex="202" originalElevation="2.0" isOriginalElevationFromOSM="false" isAnchor="false"><ele>4.4</ele></trkpt>
<trkpt lat="33.239620" lon="126.563350" sectionIndex="0" pointIndex="203" originalElevation="1.0" isOriginalElevationFromOSM="false" isAnchor="false"><ele>4.5</ele></trkpt>
<trkpt lat="33.239580" lon="126.563550" sectionIndex="0" pointIndex="204" originalElevation="1.0" isOriginalElevationFromOSM="false" isAnchor="false"><ele>4.7</ele></trkpt>
<trkpt lat="33.239570" lon="126.563700" sectionIndex="0" pointIndex="205" originalElevation="3.0" isOriginalElevationFromOSM="false" isAnchor="false"><ele>4.9</ele></trkpt>
<trkpt lat="33.239590" lon="126.563820" sectionIndex="0" pointIndex="206" originalElevation="3.0" isOriginalElevationFromOSM="false" isAnchor="false"><ele>5.4</ele></trkpt>
<trkpt lat="33.239630" lon="126.563920" sectionIndex="0" pointIndex="207" originalElevation="3.0" isOriginalElevationFromOSM="false" isAnchor="false"><ele>5.9</ele></trkpt>
<trkpt lat="33.239670" lon="126.564010" sectionIndex="0" pointIndex="208" originalElevation="4.5" isOriginalElevationFromOSM="false" isAnchor="false"><ele>6.6</ele></trkpt>
<trkpt lat="33.239670" lon="126.564010" sectionIndex="0" pointIndex="209" originalElevation="4.5" isOriginalElevationFromOSM="false" isAnchor="false"><ele>7.4</ele></trkpt>
<trkpt lat="33.240000" lon="126.564840" sectionIndex="0" pointIndex="210" originalElevation="6.0" isOriginalElevationFromOSM="false" isAnchor="false"><ele>8.3</ele></trkpt>
<trkpt lat="33.240090" lon="126.564980" sectionIndex="0" pointIndex="211" originalElevation="6.0" isOriginalElevationFromOSM="false" isAnchor="false"><ele>9.3</ele></trkpt>
<trkpt lat="33.240270" lon="126.565150" sectionIndex="0" pointIndex="212" originalElevation="6.0" isOriginalElevationFromOSM="false" isAnchor="false"><ele>10.5</ele></trkpt>
<trkpt lat="33.240600" lon="126.565460" sectionIndex="0" pointIndex="213" originalElevation="4.0" isOriginalElevationFromOSM="false" isAnchor="false"><ele>11.7</ele></trkpt>
<trkpt lat="33.241480" lon="126.566240" sectionIndex="0" pointIndex="214" originalElevation="13.0" isOriginalElevationFromOSM="false" isAnchor="false"><ele>13.1</ele></trkpt>
<trkpt lat="33.242510" lon="126.567180" sectionIndex="0" pointIndex="215" originalElevation="12.0" isOriginalElevationFromOSM="false" isAnchor="false"><ele>14.6</ele></trkpt>
<trkpt lat="33.242770" lon="126.567490" sectionIndex="0" pointIndex="216" originalElevation="14.0" isOriginalElevationFromOSM="false" isAnchor="false"><ele>16.1</ele></trkpt>
<trkpt lat="33.242770" lon="126.567490" sectionIndex="0" pointIndex="217" originalElevation="14.0" isOriginalElevationFromOSM="false" isAnchor="false"><ele>17.7</ele></trkpt>
<trkpt lat="33.243320" lon="126.568190" sectionIndex="0" pointIndex="218" originalElevation="16.0" isOriginalElevationFromOSM="false" isAnchor="false"><ele>19.3</ele></trkpt>
<trkpt lat="33.244140" lon="126.569110" sectionIndex="0" pointIndex="219" originalElevation="18.5" isOriginalElevationFromOSM="false" isAnchor="false"><ele>20.8</ele></trkpt>
<trkpt lat="33.244140" lon="126.569110" sectionIndex="0" pointIndex="220" originalElevation="18.5" isOriginalElevationFromOSM="false" isAnchor="false"><ele>22.3</ele></trkpt>
<trkpt lat="33.244850" lon="126.569900" sectionIndex="0" pointIndex="221" originalElevation="34.0" isOriginalElevationFromOSM="false" isAnchor="false"><ele>23.8</ele></trkpt>
<trkpt lat="33.244930" lon="126.569990" sectionIndex="0" pointIndex="222" originalElevation="34.0" isOriginalElevationFromOSM="false" isAnchor="false"><ele>25.2</ele></trkpt>
<trkpt lat="33.245240" lon="126.570360" sectionIndex="0" pointIndex="223" originalElevation="34.0" isOriginalElevationFromOSM="false" isAnchor="false"><ele>26.5</ele></trkpt>
<trkpt lat="33.245260" lon="126.570370" sectionIndex="0" pointIndex="224" originalElevation="31.0" isOriginalElevationFromOSM="false" isAnchor="false"><ele>27.8</ele></trkpt>
<trkpt lat="33.245260" lon="126.570370" sectionIndex="0" pointIndex="225" originalElevation="31.0" isOriginalElevationFromOSM="false" isAnchor="false"><ele>29.0</ele></trkpt>
<trkpt lat="33.245510" lon="126.570560" sectionIndex="0" pointIndex="226" originalElevation="28.0" isOriginalElevationFromOSM="false" isAnchor="false"><ele>30.1</ele></trkpt>
<trkpt lat="33.245870" lon="126.570910" sectionIndex="0" pointIndex="227" originalElevation="37.0" isOriginalElevationFromOSM="false" isAnchor="false"><ele>31.2</ele></trkpt>
<trkpt lat="33.246180" lon="126.571310" sectionIndex="0" pointIndex="228" originalElevation="33.0" isOriginalElevationFromOSM="false" isAnchor="false"><ele>32.2</ele></trkpt>
<trkpt lat="33.246520" lon="126.571570" sectionIndex="0" pointIndex="229" originalElevation="41.0" isOriginalElevationFromOSM="false" isAnchor="false"><ele>33.1</ele></trkpt>
<trkpt lat="33.246840" lon="126.571750" sectionIndex="0" pointIndex="230" originalElevation="41.0" isOriginalElevationFromOSM="false" isAnchor="false"><ele>34.0</ele></trkpt>
<trkpt lat="33.247070" lon="126.571740" sectionIndex="0" pointIndex="231" originalElevation="41.0" isOriginalElevationFromOSM="false" isAnchor="false"><ele>34.7</ele></trkpt>
<trkpt lat="33.247200" lon="126.571720" sectionIndex="0" pointIndex="232" originalElevation="41.0" isOriginalElevationFromOSM="false" isAnchor="false"><ele>35.4</ele></trkpt>
<trkpt lat="33.247490" lon="126.571710" sectionIndex="0" pointIndex="233" originalElevation="42.0" isOriginalElevationFromOSM="false" isAnchor="false"><ele>36.1</ele></trkpt>
</trkseg>
</trk>
</gpx>