<?xml version="1.0" encoding="UTF-8"?>
<gpx xmlns="http://www.topografix.com/GPX/1/1" creator="MTK - http://www.toursprung.com" version="1.1" xmlns:xsi="http://www.w3.org/2001/XMLSchema-instance" xsi:schemaLocation="http://www.topografix.com/GPX/1/1 http://www.topografix.com/GPX/1/1/gpx.xsd">
<metadata>
<name>외돌개 러닝코스</name>
<extensions><extra>{}</extra></extensions>
</metadata>

<trk>
<name>외돌개 러닝코스</name>
<trkseg>
<trkpt lat="33.247300" lon="126.553300" sectionIndex="0" pointIndex="0" originalElevation="45.0" isOriginalElevationFromOSM="false" isAnchor="false"><ele>43.4</ele></trkpt>
<trkpt lat="33.247280" lon="126.553310" sectionIndex="0" pointIndex="1" originalElevation="43.0" isOriginalElevationFromOSM="false" isAnchor="false"><ele>43.5</ele></trkpt>
<trkpt lat="33.247200" lon="126.553310" sectionIndex="0" pointIndex="2" originalElevation="43.0" isOriginalElevationFromOSM="false" isAnchor="false"><ele>43.6</ele></trkpt>
<trkpt lat="33.247070" lon="126.553360" sectionIndex="0" pointIndex="3" originalElevation="43.0" isOriginalElevationFromOSM="false" isAnchor="false"><ele>43.7</ele></trkpt>
<trkpt lat="33.247030" lon="126.553390" sectionIndex="0" pointIndex="4" originalElevation="43.0" isOriginalElevationFromOSM="false" isAnchor="false"><ele>43.7</ele></trkpt>
<trkpt lat="33.246940" lon="126.553490" sectionIndex="0" pointIndex="5" originalElevation="43.0" isOriginalElevationFromOSM="false" isAnchor="false"><ele>43.9</ele></trkpt>
<trkpt lat="33.246890" lon="126.553520" sectionIndex="0" pointIndex="6" originalElevation="43.0" isOriginalElevationFromOSM="false" isAnchor="false"><ele>44.0</ele></trkpt>
<trkpt lat="33.246820" lon="126.553540" sectionIndex="0" pointIndex="7" originalElevation="43.0" isOriginalElevationFromOSM="false" isAnchor="false"><ele>44.1</ele></trkpt>
<trkpt lat="33.246670" lon="126.553550" sectionIndex="0" pointIndex="8" originalElevation="43.0" isOriginalElevationFromOSM="false" isAnchor="false"><ele>44.3</ele></trkpt>
<trkpt lat="33.246690" lon="126.553580" sectionIndex="0" pointIndex="9" originalElevation="43.0" isOriginalElevationFromOSM="false" isAnchor="false"><ele>44.4</ele></trkpt>
<trkpt lat="33.246690" lon="126.553580" sectionIndex="0" pointIndex="10" originalElevation="43.0" isOriginalElevationFromOSM="false" isAnchor="false"><ele>44.5</ele></trkpt>
<trkpt lat="33.246670" lon="126.553550" sectionIndex="0" pointIndex="11" originalElevation="43.0" isOriginalElevationFromOSM="false" isAnchor="false"><ele>44.6</ele></trkpt>
<trkpt lat="33.246580" lon="126.553480" sectionIndex="0" pointIndex="12" originalElevation="43.0" isOriginalElevationFromOSM="false" isAnchor="false"><ele>44.6</ele></trkpt>
<trkpt lat="33.246110" lon="126.553370" sectionIndex="0" pointIndex="13" originalElevation="47.0" isOriginalElevationFromOSM="false" isAnchor="false"><ele>44.6</ele></trkpt>
<trkpt lat="33.246090" lon="126.553380" sectionIndex="0" pointIndex="14" originalElevation="47.0" isOriginalElevationFromOSM="false" isAnchor="false"><ele>44.6</ele></trkpt>
<trkpt lat="33.246090" lon="126.553380" sectionIndex="0" pointIndex="15" originalElevation="47.0" isOriginalElevationFromOSM="false" isAnchor="false"><ele>44.5</ele></trkpt>
<trkpt lat="33.245980" lon="126.553460" sectionIndex="0" pointIndex="16" originalElevation="47.0" isOriginalElevationFromOSM="false" isAnchor="false"><ele>44.5</ele></trkpt>
<trkpt lat="33.245850" lon="126.553590" sectionIndex="0" pointIndex="17" originalElevation="47.0" isOriginalElevationFromOSM="false" isAnchor="false"><ele>44.4</ele></trkpt>
<trkpt lat="33.245850" lon="126.553590" sectionIndex="0" pointIndex="18" originalElevation="47.0" isOriginalElevationFromOSM="false" isAnchor="false"><ele>44.3</ele></trkpt>
<trkpt lat="33.245840" lon="126.553600" sectionIndex="0" pointIndex="19" originalElevation="47.0" isOriginalElevationFromOSM="false" isAnchor="false"><ele>44.1</ele></trkpt>
<trkpt lat="33.246130" lon="126.554110" sectionIndex="0" pointIndex="20" originalElevation="47.0" isOriginalElevationFromOSM="false" isAnchor="false"><ele>43.9</ele></trkpt>
<trkpt lat="33.246140" lon="126.554230" sectionIndex="0" pointIndex="21" originalElevation="47.0" isOriginalElevationFromOSM="false" isAnchor="false"><ele>43.7</ele></trkpt>
<trkpt lat="33.246140" lon="126.554230" sectionIndex="0" pointIndex="22" originalElevation="47.0" isOriginalElevationFromOSM="false" isAnchor="false"><ele>43.5</ele></trkpt>
<trkpt lat="33.246030" lon="126.554390" sectionIndex="0" pointIndex="23" originalElevation="47.0" isOriginalElevationFromOSM="false" isAnchor="false"><ele>43.3</ele></trkpt>
<trkpt lat="33.245890" lon="126.554510" sectionIndex="0" pointIndex="24" originalElevation="47.0" isOriginalElevationFromOSM="false" isAnchor="false"><ele>43.1</ele></trkpt>
<trkpt lat="33.245780" lon="126.554580" sectionIndex="0" pointIndex="25" originalElevation="35.0" isOriginalElevationFromOSM="false" isAnchor="false"><ele>43.0</ele></trkpt>
<trkpt lat="33.245720" lon="126.554590" sectionIndex="0" pointIndex="26" originalElevation="35.0" isOriginalElevationFromOSM="false" isAnchor="false"><ele>42.8</ele></trkpt>
<trkpt lat="33.245680" lon="126.554590" sectionIndex="0" pointIndex="27" originalElevation="35.0" isOriginalElevationFromOSM="false" isAnchor="false"><ele>42.8</ele></trkpt>
<trkpt lat="33.245650" lon="126.554570" sectionIndex="0" pointIndex="28" originalElevation="35.0" isOriginalElevationFromOSM="false" isAnchor="false"><ele>42.8</ele></trkpt>
<trkpt lat="33.245650" lon="126.554570" sectionIndex="0" pointIndex="29" originalElevation="35.0" isOriginalElevationFromOSM="false" isAnchor="false"><ele>42.8</ele></trkpt>
<trkpt lat="33.245630" lon="126.554560" sectionIndex="0" pointIndex="30" originalElevation="35.0" isOriginalElevationFromOSM="false" isAnchor="false"><ele>43.0</ele></trkpt>
<trkpt lat="33.245580" lon="126.554450" sectionIndex="0" pointIndex="31" originalElevation="46.0" isOriginalElevationFromOSM="false" isAnchor="false"><ele>43.2</ele></trkpt>
<trkpt lat="33.245510" lon="126.554270" sectionIndex="0" pointIndex="32" originalElevation="46.0" isOriginalElevationFromOSM="false" isAnchor="false"><ele>43.4</ele></trkpt>
<trkpt lat="33.245460" lon="126.554180" sectionIndex="0" pointIndex="33" originalElevation="46.0" isOriginalElevationFromOSM="false" isAnchor="false"><ele>43.7</ele></trkpt>
<trkpt lat="33.245190" lon="126.554220" sectionIndex="0" pointIndex="34" originalElevation="46.0" isOriginalElevationFromOSM="false" isAnchor="false"><ele>44.1</ele></trkpt>
<trkpt lat="33.245030" lon="126.554270" sectionIndex="0" pointIndex="35" originalElevation="46.0" isOriginalElevationFromOSM="false" isAnchor="false"><ele>44.5</ele></trkpt>
<trkpt lat="33.244970" lon="126.554330" sectionIndex="0" pointIndex="36" originalElevation="46.0" isOriginalElevationFromOSM="false" isAnchor="false"><ele>44.9</ele></trkpt>
<trkpt lat="33.244940" lon="126.554380" sectionIndex="0" pointIndex="37" originalElevation="46.0" isOriginalElevationFromOSM="false" isAnchor="false"><ele>45.3</ele></trkpt>
<trkpt lat="33.244910" lon="126.554490" sectionIndex="0" pointIndex="38" originalElevation="46.0" isOriginalElevationFromOSM="false" isAnchor="false"><ele>45.7</ele></trkpt>
<trkpt lat="33.244870" lon="126.554590" sectionIndex="0" pointIndex="39" originalElevation="45.0" isOriginalElevationFromOSM="false" isAnchor="false"><ele>46.2</ele></trkpt>
<trkpt lat="33.244830" lon="126.554650" sectionIndex="0" pointIndex="40" originalElevation="45.0" isOriginalElevationFromOSM="false" isAnchor="false"><ele>46.6</ele></trkpt>
<trkpt lat="33.244820" lon="126.554660" sectionIndex="0" pointIndex="41" originalElevation="47.5" isOriginalElevationFromOSM="false" isAnchor="false"><ele>47.1</ele></trkpt>
<trkpt lat="33.244820" lon="126.554660" sectionIndex="0" pointIndex="42" originalElevation="47.5" isOriginalElevationFromOSM="false" isAnchor="false"><ele>47.6</ele></trkpt>
<trkpt lat="33.244760" lon="126.554680" sectionIndex="0" pointIndex="43" originalElevation="50.0" isOriginalElevationFromOSM="false" isAnchor="false"><ele>48.0</ele></trkpt>
<trkpt lat="33.244720" lon="126.554730" sectionIndex="0" pointIndex="44" originalElevation="50.0" isOriginalElevationFromOSM="false" isAnchor="false"><ele>48.4</ele></trkpt>
<trkpt lat="33.244680" lon="126.554950" sectionIndex="0" pointIndex="45" originalElevation="50.0" isOriginalElevationFromOSM="false" isAnchor="false"><ele>48.7</ele></trkpt>
<trkpt lat="33.244610" lon="126.555050" sectionIndex="0" pointIndex="46" originalElevation="50.0" isOriginalElevationFromOSM="false" isAnchor="false"><ele>49.1</ele></trkpt>
<trkpt lat="33.244510" lon="126.555100" sectionIndex="0" pointIndex="47" originalElevation="50.0" isOriginalElevationFromOSM="false" isAnchor="false"><ele>49.3</ele></trkpt>
<trkpt lat="33.244500" lon="126.555180" sectionIndex="0" pointIndex="48" originalElevation="50.0" isOriginalElevationFromOSM="false" isAnchor="false"><ele>49.5</ele></trkpt>
<trkpt lat="33.244480" lon="126.555230" sectionIndex="0" pointIndex="49" originalElevation="50.0" isOriginalElevationFromOSM="false" isAnchor="false"><ele>49.7</ele></trkpt>
<trkpt lat="33.244480" lon="126.555330" sectionIndex="0" pointIndex="50" originalElevation="50.0" isOriginalElevationFromOSM="false" isAnchor="false"><ele>49.9</ele></trkpt>
<trkpt lat="33.244600" lon="126.555590" sectionIndex="0" pointIndex="51" originalElevation="51.0" isOriginalElevationFromOSM="false" isAnchor="false"><ele>50.1</ele></trkpt>
<trkpt lat="33.244620" lon="126.555610" sectionIndex="0" pointIndex="52" originalElevation="51.0" isOriginalElevationFromOSM="false" isAnchor="false"><ele>50.3</ele></trkpt>
<trkpt lat="33.244620" lon="126.555610" sectionIndex="0" pointIndex="53" originalElevation="51.0" isOriginalElevationFromOSM="false" isAnchor="false"><ele>50.5</ele></trkpt>
<trkpt lat="33.244670" lon="126.555630" sectionIndex="0" pointIndex="54" originalElevation="51.0" isOriginalElevationFromOSM="false" isAnchor="false"><ele>50.6</ele></trkpt>
<trkpt lat="33.244730" lon="126.555730" sectionIndex="0" pointIndex="55" originalElevation="51.0" isOriginalElevationFromOSM="false" isAnchor="false"><ele>50.8</ele></trkpt>
<trkpt lat="33.244760" lon="126.555810" sectionIndex="0" pointIndex="56" originalElevation="51.0" isOriginalElevationFromOSM="false" isAnchor="false"><ele>51.0</ele></trkpt>
<trkpt lat="33.244760" lon="126.555880" sectionIndex="0" pointIndex="57" originalElevation="51.0" isOriginalElevationFromOSM="false" isAnchor="false"><ele>51.1</ele></trkpt>
<trkpt lat="33.244760" lon="126.555880" sectionIndex="0" pointIndex="58" originalElevation="51.0" isOriginalElevationFromOSM="false" isAnchor="false"><ele>51.3</ele></trkpt>
<trkpt lat="33.244720" lon="126.556020" sectionIndex="0" pointIndex="59" originalElevation="51.0" isOriginalElevationFromOSM="false" isAnchor="false"><ele>51.4</ele></trkpt>
<trkpt lat="33.244660" lon="126.556060" sectionIndex="0" pointIndex="60" originalElevation="51.0" isOriginalElevationFromOSM="false" isAnchor="false"><ele>51.6</ele></trkpt>
<trkpt lat="33.244630" lon="126.556080" sectionIndex="0" pointIndex="61" originalElevation="51.0" isOriginalElevationFromOSM="false" isAnchor="false"><ele>51.8</ele></trkpt>
<trkpt lat="33.244580" lon="126.556080" sectionIndex="0" pointIndex="62" originalElevation="51.0" isOriginalElevationFromOSM="false" isAnchor="false"><ele>52.0</ele></trkpt>
<trkpt lat="33.244550" lon="126.556100" sectionIndex="0" pointIndex="63" originalElevation="51.0" isOriginalElevationFromOSM="false" isAnchor="false"><ele>52.2</ele></trkpt>
<trkpt lat="33.244540" lon="126.556120" sectionIndex="0" pointIndex="64" originalElevation="51.0" isOriginalElevationFromOSM="false" isAnchor="false"><ele>52.4</ele></trkpt>
<trkpt lat="33.244520" lon="126.556200" sectionIndex="0" pointIndex="65" originalElevation="51.0" isOriginalElevationFromOSM="false" isAnchor="false"><ele>52.6</ele></trkpt>
<trkpt lat="33.244520" lon="126.556250" sectionIndex="0" pointIndex="66" originalElevation="50.0" isOriginalElevationFromOSM="false" isAnchor="false"><ele>52.8</ele></trkpt>
<trkpt lat="33.243750" lon="126.556010" sectionIndex="0" pointIndex="67" originalElevation="55.0" isOriginalElevationFromOSM="false" isAnchor="false"><ele>53.0</ele></trkpt>
<trkpt lat="33.243760" lon="126.555960" sectionIndex="0" pointIndex="68" originalElevation="55.0" isOriginalElevationFromOSM="false" isAnchor="false"><ele>53.2</ele></trkpt>
<trkpt lat="33.243760" lon="126.555960" sectionIndex="0" pointIndex="69" originalElevation="55.0" isOriginalElevationFromOSM="false" isAnchor="false"><ele>53.3</ele></trkpt>
<trkpt lat="33.243750" lon="126.556010" sectionIndex="0" pointIndex="70" originalElevation="55.0" isOriginalElevationFromOSM="false" isAnchor="false"><ele>53.5</ele></trkpt>
<trkpt lat="33.243670" lon="126.555980" sectionIndex="0" pointIndex="71" originalElevation="55.0" isOriginalElevationFromOSM="false" isAnchor="false"><ele>53.6</ele></trkpt>
<trkpt lat="33.243670" lon="126.555920" sectionIndex="0" pointIndex="72" originalElevation="55.0" isOriginalElevationFromOSM="false" isAnchor="false"><ele>53.7</ele></trkpt>
<trkpt lat="33.243850" lon="126.555220" sectionIndex="0" pointIndex="73" originalElevation="55.0" isOriginalElevationFromOSM="false" isAnchor="false"><ele>53.8</ele></trkpt>
<trkpt lat="33.243890" lon="126.555110" sectionIndex="0" pointIndex="74" originalElevation="55.0" isOriginalElevationFromOSM="false" isAnchor="false"><ele>53.8</ele></trkpt>
<trkpt lat="33.243920" lon="126.555110" sectionIndex="0" pointIndex="75" originalElevation="55.0" isOriginalElevationFromOSM="false" isAnchor="false"><ele>53.8</ele></trkpt>
<trkpt lat="33.243910" lon="126.555150" sectionIndex="0" pointIndex="76" originalElevation="55.0" isOriginalElevationFromOSM="false" isAnchor="false"><ele>53.9</ele></trkpt>
<trkpt lat="33.243910" lon="126.555150" sectionIndex="0" pointIndex="77" originalElevation="55.0" isOriginalElevationFromOSM="false" isAnchor="false"><ele>54.0</ele></trkpt>
<trkpt lat="33.243920" lon="126.555110" sectionIndex="0" pointIndex="78" originalElevation="55.0" isOriginalElevationFromOSM="false" isAnchor="false"><ele>54.0</ele></trkpt>
<trkpt lat="33.243890" lon="126.555110" sectionIndex="0" pointIndex="79" originalElevation="55.0" isOriginalElevationFromOSM="false" isAnchor="false"><ele>54.1</ele></trkpt>
<trkpt lat="33.243910" lon="126.555080" sectionIndex="0" pointIndex="80" originalElevation="55.0" isOriginalElevationFromOSM="false" isAnchor="false"><ele>54.2</ele></trkpt>
<trkpt lat="33.243960" lon="126.555060" sectionIndex="0" pointIndex="81" originalElevation="55.0" isOriginalElevationFromOSM="false" isAnchor="false"><ele>54.4</ele></trkpt>
<trkpt lat="33.244000" lon="126.555010" sectionIndex="0" pointIndex="82" originalElevation="50.0" isOriginalElevationFromOSM="false" isAnchor="false"><ele>54.4</ele></trkpt>
<trkpt lat="33.244010" lon="126.554970" sectionIndex="0" pointIndex="83" originalElevation="50.0" isOriginalElevationFromOSM="false" isAnchor="false"><ele>54.4</ele></trkpt>
<trkpt lat="33.244010" lon="126.554930" sectionIndex="0" pointIndex="84" originalElevation="50.0" isOriginalElevationFromOSM="false" isAnchor="false"><ele>54.3</ele></trkpt>
<trkpt lat="33.243990" lon="126.554890" sectionIndex="0" pointIndex="85" originalElevation="50.0" isOriginalElevationFromOSM="false" isAnchor="false"><ele>54.1</ele></trkpt>
<trkpt lat="33.243970" lon="126.554870" sectionIndex="0" pointIndex="86" originalElevation="50.0" isOriginalElevationFromOSM="false" isAnchor="false"><ele>53.9</ele></trkpt>
<trkpt lat="33.243920" lon="126.554840" sectionIndex="0" pointIndex="87" originalElevation="55.0" isOriginalElevationFromOSM="false" isAnchor="false"><ele>53.7</ele></trkpt>
<trkpt lat="33.243860" lon="126.554860" sectionIndex="0" pointIndex="88" originalElevation="55.0" isOriginalElevationFromOSM="false" isAnchor="false"><ele>53.3</ele></trkpt>
<trkpt lat="33.243840" lon="126.554880" sectionIndex="0" pointIndex="89" originalElevation="55.0" isOriginalElevationFromOSM="false" isAnchor="false"><ele>52.8</ele></trkpt>
<trkpt lat="33.243710" lon="126.554850" sectionIndex="0" pointIndex="90" originalElevation="55.0" isOriginalElevationFromOSM="false" isAnchor="false"><ele>52.2</ele></trkpt>
<trkpt lat="33.242440" lon="126.554010" sectionIndex="0" pointIndex="91" originalElevation="61.0" isOriginalElevationFromOSM="false" isAnchor="false"><ele>51.5</ele></trkpt>
<trkpt lat="33.242400" lon="126.554030" sectionIndex="0" pointIndex="92" originalElevation="64.0" isOriginalElevationFromOSM="false" isAnchor="false"><ele>50.7</ele></trkpt>
<trkpt lat="33.242400" lon="126.554030" sectionIndex="0" pointIndex="93" originalElevation="64.0" isOriginalElevationFromOSM="false" isAnchor="false"><ele>49.8</ele></trkpt>
<trkpt lat="33.242440" lon="126.554010" sectionIndex="0" pointIndex="94" originalElevation="61.0" isOriginalElevationFromOSM="false" isAnchor="false"><ele>48.9</ele></trkpt>
<trkpt lat="33.242310" lon="126.553790" sectionIndex="0" pointIndex="95" originalElevation="61.0" isOriginalElevationFromOSM="false" isAnchor="false"><ele>47.9</ele></trkpt>
<trkpt lat="33.242220" lon="126.553530" sectionIndex="0" pointIndex="96" originalElevation="66.0" isOriginalElevationFromOSM="false" isAnchor="false"><ele>46.7</ele></trkpt>
<trkpt lat="33.242240" lon="126.551970" sectionIndex="0" pointIndex="97" originalElevation="45.0" isOriginalElevationFromOSM="false" isAnchor="false"><ele>45.6</ele></trkpt>
<trkpt lat="33.242130" lon="126.550960" sectionIndex="0" pointIndex="98" originalElevation="31.0" isOriginalElevationFromOSM="false" isAnchor="false"><ele>44.5</ele></trkpt>
<trkpt lat="33.242130" lon="126.550800" sectionIndex="0" pointIndex="99" originalElevation="31.0" isOriginalElevationFromOSM="false" isAnchor="false"><ele>43.4</ele></trkpt>
<trkpt lat="33.242140" lon="126.550640" sectionIndex="0" pointIndex="100" originalElevation="31.0" isOriginalElevationFromOSM="false" isAnchor="false"><ele>42.4</ele></trkpt>
<trkpt lat="33.242190" lon="126.550260" sectionIndex="0" pointIndex="101" originalElevation="28.0" isOriginalElevationFromOSM="false" isAnchor="false"><ele>41.5</ele></trkpt>
<trkpt lat="33.242200" lon="126.550080" sectionIndex="0" pointIndex="102" originalElevation="28.0" isOriginalElevationFromOSM="false" isAnchor="false"><ele>40.7</ele></trkpt>
<trkpt lat="33.242190" lon="126.549970" sectionIndex="0" pointIndex="103" originalElevation="28.0" isOriginalElevationFromOSM="false" isAnchor="false"><ele>39.8</ele></trkpt>
<trkpt lat="33.242190" lon="126.549970" sectionIndex="0" pointIndex="104" originalElevation="28.0" isOriginalElevationFromOSM="false" isAnchor="false"><ele>39.0</ele></trkpt>
<trkpt lat="33.242150" lon="126.549760" sectionIndex="0" pointIndex="105" originalElevation="28.0" isOriginalElevationFromOSM="false" isAnchor="false"><ele>38.4</ele></trkpt>
<trkpt lat="33.242090" lon="126.549570" sectionIndex="0" pointIndex="106" originalElevation="28.0" isOriginalElevationFromOSM="false" isAnchor="false"><ele>37.7</ele></trkpt>
<trkpt lat="33.241910" lon="126.549250" sectionIndex="0" pointIndex="107" originalElevation="42.0" isOriginalElevationFromOSM="false" isAnchor="false"><ele>37.0</ele></trkpt>
<trkpt lat="33.241760" lon="126.548950" sectionIndex="0" pointIndex="108" originalElevation="42.0" isOriginalElevationFromOSM="false" isAnchor="false"><ele>36.3</ele></trkpt>
<trkpt lat="33.241570" lon="126.548440" sectionIndex="0" pointIndex="109" originalElevation="51.0" isOriginalElevationFromOSM="false" isAnchor="false"><ele>35.6</ele></trkpt>
<trkpt lat="33.241490" lon="126.548230" sectionIndex="0" pointIndex="110" originalElevation="51.0" isOriginalElevationFromOSM="false" isAnchor="false"><ele>34.9</ele></trkpt>
<trkpt lat="33.241100" lon="126.547560" sectionIndex="0" pointIndex="111" originalElevation="41.0" isOriginalElevationFromOSM="false" isAnchor="false"><ele>34.0</ele></trkpt>
<trkpt lat="33.241060" lon="126.547600" sectionIndex="0" pointIndex="112" originalElevation="41.0" isOriginalElevationFromOSM="false" isAnchor="false"><ele>33.0</ele></trkpt>
<trkpt lat="33.241060" lon="126.547600" sectionIndex="0" pointIndex="113" originalElevation="41.0" isOriginalElevationFromOSM="false" isAnchor="false"><ele>32.0</ele></trkpt>
<trkpt lat="33.240970" lon="126.547650" sectionIndex="0" pointIndex="114" originalElevation="41.0" isOriginalElevationFromOSM="false" isAnchor="false"><ele>30.9</ele></trkpt>
<trkpt lat="33.240930" lon="126.547730" sectionIndex="0" pointIndex="115" originalElevation="41.0" isOriginalElevationFromOSM="false" isAnchor="false"><ele>29.7</ele></trkpt>
<trkpt lat="33.240770" lon="126.547810" sectionIndex="0" pointIndex="116" originalElevation="41.0" isOriginalElevationFromOSM="false" isAnchor="false"><ele>28.4</ele></trkpt>
<trkpt lat="33.240600" lon="126.547830" sectionIndex="0" pointIndex="117" originalElevation="28.0" isOriginalElevationFromOSM="false" isAnchor="false"><ele>26.9</ele></trkpt>
<trkpt lat="33.240500" lon="126.548000" sectionIndex="0" pointIndex="118" originalElevation="17.0" isOriginalElevationFromOSM="false" isAnchor="false"><ele>25.5</ele></trkpt>
<trkpt lat="33.240360" lon="126.548080" sectionIndex="0" pointIndex="119" originalElevation="17.0" isOriginalElevationFromOSM="false" isAnchor="false"><ele>24.0</ele></trkpt>
<trkpt lat="33.240120" lon="126.548320" sectionIndex="0" pointIndex="120" originalElevation="17.0" isOriginalElevationFromOSM="false" isAnchor="false"><ele>22.5</ele></trkpt>
<trkpt lat="33.240100" lon="126.548300" sectionIndex="0" pointIndex="121" originalElevation="11.0" isOriginalElevationFromOSM="false" isAnchor="false"><ele>21.1</ele></trkpt>
<trkpt lat="33.240100" lon="126.548300" sectionIndex="0" pointIndex="122" originalElevation="11.0" isOriginalElevationFromOSM="false" isAnchor="false"><ele>19.7</ele></trkpt>
<trkpt lat="33.239350" lon="126.547390" sectionIndex="0" pointIndex="123" originalElevation="16.0" isOriginalElevationFromOSM="false" isAnchor="false"><ele>18.5</ele></trkpt>
<trkpt lat="33.239350" lon="126.547390" sectionIndex="0" pointIndex="124" originalElevation="10.5" isOriginalElevationFromOSM="false" isAnchor="false"><ele>17.4</ele></trkpt>
<trkpt lat="33.238530" lon="126.547440" sectionIndex="0" pointIndex="125" originalElevation="11.0" isOriginalElevationFromOSM="false" isAnchor="false"><ele>16.4</ele></trkpt>
<trkpt lat="33.238540" lon="126.547430" sectionIndex="0" pointIndex="126" originalElevation="8.5" isOriginalElevationFromOSM="false" isAnchor="false"><ele>15.7</ele></trkpt>
<trkpt lat="33.238540" lon="126.547430" sectionIndex="0" pointIndex="127" originalElevation="8.5" isOriginalElevationFromOSM="false" isAnchor="false"><ele>15.2</ele></trkpt>
<trkpt lat="33.238840" lon="126.546960" sectionIndex="0" pointIndex="128" originalElevation="6.0" isOriginalElevationFromOSM="false" isAnchor="false"><ele>14.9</ele></trkpt>
<trkpt lat="33.239090" lon="126.546740" sectionIndex="0" pointIndex="129" originalElevation="10.0" isOriginalElevationFromOSM="false" isAnchor="false"><ele>14.8</ele></trkpt>
<trkpt lat="33.239090" lon="126.546740" sectionIndex="0" pointIndex="130" originalElevation="10.0" isOriginalElevationFromOSM="false" isAnchor="false"><ele>14.7</ele></trkpt>
<trkpt lat="33.239100" lon="126.546730" sectionIndex="0" pointIndex="131" originalElevation="14.0" isOriginalElevationFromOSM="false" isAnchor="false"><ele>14.9</ele></trkpt>
<trkpt lat="33.239350" lon="126.546740" sectionIndex="0" pointIndex="132" originalElevation="14.0" isOriginalElevationFromOSM="false" isAnchor="false"><ele>15.1</ele></trkpt>
<trkpt lat="33.239540" lon="126.546830" sectionIndex="0" pointIndex="133" originalElevation="14.0" isOriginalElevationFromOSM="false" isAnchor="false"><ele>15.5</ele></trkpt>
<trkpt lat="33.239540" lon="126.546830" sectionIndex="0" pointIndex="134" originalElevation="14.0" isOriginalElevationFromOSM="false" isAnchor="false"><ele>16.1</ele></trkpt>
<trkpt lat="33.239660" lon="126.547120" sectionIndex="0" pointIndex="135" originalElevation="15.0" isOriginalElevationFromOSM="false" isAnchor="false"><ele>16.6</ele></trkpt>
<trkpt lat="33.239670" lon="126.547120" sectionIndex="0" pointIndex="136" originalElevation="15.0" isOriginalElevationFromOSM="false" isAnchor="false"><ele>17.1</ele></trkpt>
<trkpt lat="33.239670" lon="126.547120" sectionIndex="0" pointIndex="137" originalElevation="16.0" isOriginalElevationFromOSM="false" isAnchor="false"><ele>17.7</ele></trkpt>
<trkpt lat="33.240000" lon="126.547020" sectionIndex="0" pointIndex="138" originalElevation="26.0" isOriginalElevationFromOSM="false" isAnchor="false"><ele>18.1</ele></trkpt>
<trkpt lat="33.240010" lon="126.546990" sectionIndex="0" pointIndex="139" originalElevation="26.0" isOriginalElevationFromOSM="false" isAnchor="false"><ele>18.5</ele></trkpt>
<trkpt lat="33.240010" lon="126.546990" sectionIndex="0" pointIndex="140" originalElevation="26.0" isOriginalElevationFromOSM="false" isAnchor="false"><ele>18.9</ele></trkpt>
<trkpt lat="33.240190" lon="126.546680" sectionIndex="0" pointIndex="141" originalElevation="26.0" isOriginalElevationFromOSM="false" isAnchor="false"><ele>19.2</ele></trkpt>
<trkpt lat="33.240190" lon="126.546680" sectionIndex="0" pointIndex="142" originalElevation="26.0" isOriginalElevationFromOSM="false" isAnchor="false"><ele>19.4</ele></trkpt>
<trkpt lat="33.240190" lon="126.546680" sectionIndex="0" pointIndex="143" originalElevation="22.5" isOriginalElevationFromOSM="false" isAnchor="false"><ele>19.5</ele></trkpt>
<trkpt lat="33.240290" lon="126.546180" sectionIndex="0" pointIndex="144" originalElevation="19.0" isOriginalElevationFromOSM="false" isAnchor="false"><ele>19.6</ele></trkpt>
<trkpt lat="33.240290" lon="126.546180" sectionIndex="0" pointIndex="145" originalElevation="19.0" isOriginalElevationFromOSM="false" isAnchor="false"><ele>19.6</ele></trkpt>
<trkpt lat="33.240290" lon="126.546180" sectionIndex="0" pointIndex="146" originalElevation="19.0" isOriginalElevationFromOSM="false" isAnchor="false"><ele>19.5</ele></trkpt>
<trkpt lat="33.239940" lon="126.545770" sectionIndex="0" pointIndex="147" originalElevation="19.0" isOriginalElevationFromOSM="false" isAnchor="false"><ele>19.4</ele></trkpt>
<trkpt lat="33.239940" lon="126.545760" sectionIndex="0" pointIndex="148" originalElevation="19.0" isOriginalElevationFromOSM="false" isAnchor="false"><ele>19.1</ele></trkpt>
<trkpt lat="33.239940" lon="126.545760" sectionIndex="0" pointIndex="149" originalElevation="19.0" isOriginalElevationFromOSM="false" isAnchor="false"><ele>18.8</ele></trkpt>
<trkpt lat="33.239950" lon="126.545510" sectionIndex="0" pointIndex="150" originalElevation="19.0" isOriginalElevationFromOSM="false" isAnchor="false"><ele>18.4</ele></trkpt>
<trkpt lat="33.240010" lon="126.545310" sectionIndex="0" pointIndex="151" originalElevation="17.5" isOriginalElevationFromOSM="false" isAnchor="false"><ele>18.0</ele></trkpt>
<trkpt lat="33.240010" lon="126.545310" sectionIndex="0" pointIndex="152" originalElevation="17.5" isOriginalElevationFromOSM="false" isAnchor="false"><ele>17.5</ele></trkpt>
<trkpt lat="33.240020" lon="126.545270" sectionIndex="0" pointIndex="153" originalElevation="16.0" isOriginalElevationFromOSM="false" isAnchor="false"><ele>17.0</ele></trkpt>
<trkpt lat="33.240330" lon="126.544970" sectionIndex="0" pointIndex="154" originalElevation="16.0" isOriginalElevationFromOSM="false" isAnchor="false"><ele>16.4</ele></trkpt>
<trkpt lat="33.240330" lon="126.544970" sectionIndex="0" pointIndex="155" originalElevation="16.0" isOriginalElevationFromOSM="false" isAnchor="false"><ele>15.8</ele></trkpt>
<trkpt lat="33.240340" lon="126.544830" sectionIndex="0" pointIndex="156" originalElevation="16.0" isOriginalElevationFromOSM="false" isAnchor="false"><ele>15.2</ele></trkpt>
<trkpt lat="33.240280" lon="126.544620" sectionIndex="0" pointIndex="157" originalElevation="16.0" isOriginalElevationFromOSM="false" isAnchor="false"><ele>14.7</ele></trkpt>
<trkpt lat="33.240280" lon="126.544620" sectionIndex="0" pointIndex="158" originalElevation="16.0" isOriginalElevationFromOSM="false" isAnchor="false"><ele>14.1</ele></trkpt>
<trkpt lat="33.240270" lon="126.544580" sectionIndex="0" pointIndex="159" originalElevation="16.0" isOriginalElevationFromOSM="false" isAnchor="false"><ele>13.6</ele></trkpt>
<trkpt lat="33.240040" lon="126.544330" sectionIndex="0" pointIndex="160" originalElevation="20.0" isOriginalElevationFromOSM="false" isAnchor="false"><ele>13.2</ele></trkpt>
<trkpt lat="33.239950" lon="126.544190" sectionIndex="0" pointIndex="161" originalElevation="20.0" isOriginalElevationFromOSM="false" isAnchor="false"><ele>12.7</ele></trkpt>
<trkpt lat="33.239840" lon="126.544120" sectionIndex="0" pointIndex="162" originalElevation="20.0" isOriginalElevationFromOSM="false" isAnchor="false"><ele>12.2</ele></trkpt>
<trkpt lat="33.239690" lon="126.544040" sectionIndex="0" pointIndex="163" originalElevation="4.0" isOriginalElevationFromOSM="false" isAnchor="false"><ele>12.0</ele></trkpt>
<trkpt lat="33.239400" lon="126.543780" sectionIndex="0" pointIndex="164" originalElevation="4.0" isOriginalElevationFromOSM="false" isAnchor="false"><ele>11.7</ele></trkpt>
<trkpt lat="33.238980" lon="126.543550" sectionIndex="0" pointIndex="165" originalElevation="2.0" isOriginalElevationFromOSM="false" isAnchor="false"><ele>11.7</ele></trkpt>
<trkpt lat="33.238990" lon="126.543520" sectionIndex="0" pointIndex="166" originalElevation="2.0" isOriginalElevationFromOSM="false" isAnchor="false"><ele>11.8</ele></trkpt>
<trkpt lat="33.238990" lon="126.543520" sectionIndex="0" pointIndex="167" originalElevation="2.0" isOriginalElevationFromOSM="false" isAnchor="false"><ele>12.1</ele></trkpt>
<trkpt lat="33.239020" lon="126.543440" sectionIndex="0" pointIndex="168" originalElevation="2.0" isOriginalElevationFromOSM="false" isAnchor="false"><ele>12.5</ele></trkpt>
<trkpt lat="33.239450" lon="126.543310" sectionIndex="0" pointIndex="169" originalElevation="2.0" isOriginalElevationFromOSM="false" isAnchor="false"><ele>13.0</ele></trkpt>
<trkpt lat="33.239670" lon="126.543080" sectionIndex="0" pointIndex="170" originalElevation="2.0" isOriginalElevationFromOSM="false" isAnchor="false"><ele>13.6</ele></trkpt>
<trkpt lat="33.239900" lon="126.543030" sectionIndex="0" pointIndex="171" originalElevation="19.0" isOriginalElevationFromOSM="false" isAnchor="false"><ele>14.4</ele></trkpt>
<trkpt lat="33.239960" lon="126.542900" sectionIndex="0" pointIndex="172" originalElevation="19.0" isOriginalElevationFromOSM="false" isAnchor="false"><ele>15.3</ele></trkpt>
<trkpt lat="33.239960" lon="126.542900" sectionIndex="0" pointIndex="173" originalElevation="19.0" isOriginalElevationFromOSM="false" isAnchor="false"><ele>16.2</ele></trkpt>
<trkpt lat="33.239960" lon="126.542890" sectionIndex="0" pointIndex="174" originalElevation="19.0" isOriginalElevationFromOSM="false" isAnchor="false"><ele>17.2</ele></trkpt>
<trkpt lat="33.240230" lon="126.542810" sectionIndex="0" pointIndex="175" originalElevation="16.0" isOriginalElevationFromOSM="false" isAnchor="false"><ele>18.2</ele></trkpt>
<trkpt lat="33.240540" lon="126.542300" sectionIndex="0" pointIndex="176" originalElevation="16.0" isOriginalElevationFromOSM="false" isAnchor="false"><ele>19.3</ele></trkpt>
<trkpt lat="33.240460" lon="126.542040" sectionIndex="0" pointIndex="177" originalElevation="9.0" isOriginalElevationFromOSM="false" isAnchor="false"><ele>20.3</ele></trkpt>
<trkpt lat="33.240750" lon="126.541900" sectionIndex="0" pointIndex="178" originalElevation="27.0" isOriginalElevationFromOSM="false" isAnchor="false"><ele>21.2</ele></trkpt>
<trkpt lat="33.241190" lon="126.541580" sectionIndex="0" pointIndex="179" originalElevation="27.0" isOriginalElevationFromOSM="false" isAnchor="false"><ele>22.2</ele></trkpt>
<trkpt lat="33.241440" lon="126.541420" sectionIndex="0" pointIndex="180" originalElevation="27.0" isOriginalElevationFromOSM="false" isAnchor="false"><ele>23.1</ele></trkpt>
<trkpt lat="33.241570" lon="126.541050" sectionIndex="0" pointIndex="181" originalElevation="44.0" isOriginalElevationFromOSM="false" isAnchor="false"><ele>23.7</ele></trkpt>
<trkpt lat="33.241860" lon="126.540750" sectionIndex="0" pointIndex="182" originalElevation="44.0" isOriginalElevationFromOSM="false" isAnchor="false"><ele>24.4</ele></trkpt>
<trkpt lat="33.241900" lon="126.540370" sectionIndex="0" pointIndex="183" originalElevation="26.0" isOriginalElevationFromOSM="false" isAnchor="false"><ele>24.8</ele></trkpt>
<trkpt lat="33.241730" lon="126.540010" sectionIndex="0" pointIndex="184" originalElevation="26.0" isOriginalElevationFromOSM="false" isAnchor="false"><ele>25.1</ele></trkpt>
<trkpt lat="33.241850" lon="126.539600" sectionIndex="0" pointIndex="185" originalElevation="26.0" isOriginalElevationFromOSM="false" isAnchor="false"><ele>25.3</ele></trkpt>
<trkpt lat="33.242080" lon="126.539610" sectionIndex="0" pointIndex="186" originalElevation="26.0" isOriginalElevationFromOSM="false" isAnchor="false"><ele>25.4</ele></trkpt>
<trkpt lat="33.242160" lon="126.539440" sectionIndex="0" pointIndex="187" originalElevation="25.0" isOriginalElevationFromOSM="false" isAnchor="false"><ele>25.3</ele></trkpt>
<trkpt lat="33.242010" lon="126.539160" sectionIndex="0" pointIndex="188" originalElevation="25.0" isOriginalElevationFromOSM="false" isAnchor="false"><ele>25.1</ele></trkpt>
<trkpt lat="33.241830" lon="126.538920" sectionIndex="0" pointIndex="189" originalElevation="25.0" isOriginalElevationFromOSM="false" isAnchor="false"><ele>24.9</ele></trkpt>
<trkpt lat="33.241830" lon="126.538920" sectionIndex="0" pointIndex="190" originalElevation="25.0" isOriginalElevationFromOSM="false" isAnchor="false"><ele>24.7</ele></trkpt>
<trkpt lat="33.241810" lon="126.538890" sectionIndex="0" pointIndex="191" originalElevation="25.0" isOriginalElevationFromOSM="false" isAnchor="false"><ele>24.5</ele></trkpt>
<trkpt lat="33.241870" lon="126.538500" sectionIndex="0" pointIndex="192" originalElevation="23.0" isOriginalElevationFromOSM="false" isAnchor="false"><ele>24.2</ele></trkpt>
<trkpt lat="33.241790" lon="126.538160" sectionIndex="0" pointIndex="193" originalElevation="23.0" isOriginalElevationFromOSM="false" isAnchor="false"><ele>24.1</ele></trkpt>
<trkpt lat="33.241600" lon="126.537930" sectionIndex="0" pointIndex="194" originalElevation="23.0" isOriginalElevationFromOSM="false" isAnchor="false"><ele>23.8</ele></trkpt>
<trkpt lat="33.241550" lon="126.537680" sectionIndex="0" pointIndex="195" originalElevation="29.0" isOriginalElevationFromOSM="false" isAnchor="false"><ele>23.6</ele></trkpt>
<trkpt lat="33.241430" lon="126.537540" sectionIndex="0" pointIndex="196" originalElevation="8.0" isOriginalElevationFromOSM="false" isAnchor="false"><ele>23.5</ele></trkpt>
<trkpt lat="33.241490" lon="126.537380" sectionIndex="0" pointIndex="197" originalElevation="29.0" isOriginalElevationFromOSM="false" isAnchor="false"><ele>23.5</ele></trkpt>
<trkpt lat="33.241490" lon="126.537380" sectionIndex="0" pointIndex="198" originalElevation="18.5" isOriginalElevationFromOSM="false" isAnchor="false"><ele>23.4</ele></trkpt>
<trkpt lat="33.241430" lon="126.537540" sectionIndex="0" pointIndex="199" originalElevation="8.0" isOriginalElevationFromOSM="false" isAnchor="false"><ele>23.6</ele></trkpt>
<trkpt lat="33.241550" lon="126.537680" sectionIndex="0" pointIndex="200" originalElevation="29.0" isOriginalElevationFromOSM="false" isAnchor="false"><ele>23.8</ele></trkpt>
<trkpt lat="33.241600" lon="126.537930" sectionIndex="0" pointIndex="201" originalElevation="23.0" isOriginalElevationFromOSM="false" isAnchor="false"><ele>24.0</ele></trkpt>
<trkpt lat="33.241790" lon="126.538160" sectionIndex="0" pointIndex="202" originalElevation="23.0" isOriginalElevationFromOSM="false" isAnchor="false"><ele>24.1</ele></trkpt>
<trkpt lat="33.241870" lon="126.538500" sectionIndex="0" pointIndex="203" originalElevation="23.0" isOriginalElevationFromOSM="false" isAnchor="false"><ele>24.4</ele></trkpt>
<trkpt lat="33.241810" lon="126.538890" sectionIndex="0" pointIndex="204" originalElevation="25.0" isOriginalElevationFromOSM="false" isAnchor="false"><ele>24.6</ele></trkpt>
<trkpt lat="33.242010" lon="126.539160" sectionIndex="0" pointIndex="205" originalElevation="25.0" isOriginalElevationFromOSM="false" isAnchor="false"><ele>24.8</ele></trkpt>
<trkpt lat="33.242160" lon="126.539440" sectionIndex="0" pointIndex="206" originalElevation="25.0" isOriginalElevationFromOSM="false" isAnchor="false"><ele>24.9</ele></trkpt>
<trkpt lat="33.242080" lon="126.539610" sectionIndex="0" pointIndex="207" originalElevation="26.0" isOriginalElevationFromOSM="false" isAnchor="false"><ele>25.1</ele></trkpt>
<trkpt lat="33.241850" lon="126.539600" sectionIndex="0" pointIndex="208" originalElevation="26.0" isOriginalElevationFromOSM="false" isAnchor="false"><ele>25.1</ele></trkpt>
<trkpt lat="33.241730" lon="126.540010" sectionIndex="0" pointIndex="209" originalElevation="26.0" isOriginalElevationFromOSM="false" isAnchor="false"><ele>25.1</ele></trkpt>
<trkpt lat="33.241900" lon="126.540370" sectionIndex="0" pointIndex="210" originalElevation="26.0" isOriginalElevationFromOSM="false" isAnchor="false"><ele>25.0</ele></trkpt>
<trkpt lat="33.241860" lon="126.540750" sectionIndex="0" pointIndex="211" originalElevation="44.0" isOriginalElevationFromOSM="false" isAnchor="false"><ele>24.8</ele></trkpt>
<trkpt lat="33.241570" lon="126.541050" sectionIndex="0" pointIndex="212" originalElevation="44.0" isOriginalElevationFromOSM="false" isAnchor="false"><ele>24.7</ele></trkpt>
<trkpt lat="33.241440" lon="126.541420" sectionIndex="0" pointIndex="213" originalElevation="27.0" isOriginalElevationFromOSM="false" isAnchor="false"><ele>24.3</ele></trkpt>
<trkpt lat="33.241190" lon="126.541580" sectionIndex="0" pointIndex="214" originalElevation="27.0" isOriginalElevationFromOSM="false" isAnchor="false"><ele>24.0</ele></trkpt>
<trkpt lat="33.240750" lon="126.541900" sectionIndex="0" pointIndex="215" originalElevation="27.0" isOriginalElevationFromOSM="false" isAnchor="false"><ele>23.6</ele></trkpt>
<trkpt lat="33.240460" lon="126.542040" sectionIndex="0" pointIndex="216" originalElevation="9.0" isOriginalElevationFromOSM="false" isAnchor="false"><ele>23.1</ele></trkpt>
<trkpt lat="33.240540" lon="126.542300" sectionIndex="0" pointIndex="217" originalElevation="16.0" isOriginalElevationFromOSM="false" isAnchor="false"><ele>22.7</ele></trkpt>
<trkpt lat="33.240230" lon="126.542810" sectionIndex="0" pointIndex="218" originalElevation="16.0" isOriginalElevationFromOSM="false" isAnchor="false"><ele>22.2</ele></trkpt>
<trkpt lat="33.239960" lon="126.542890" sectionIndex="0" pointIndex="219" originalElevation="19.0" isOriginalElevationFromOSM="false" isAnchor="false"><ele>21.8</ele></trkpt>
<trkpt lat="33.239970" lon="126.542960" sectionIndex="0" pointIndex="220" originalElevation="19.0" isOriginalElevationFromOSM="false" isAnchor="false"><ele>21.3</ele></trkpt>
<trkpt lat="33.240010" lon="126.543110" sectionIndex="0" pointIndex="221" originalElevation="19.0" isOriginalElevationFromOSM="false" isAnchor="false"><ele>20.9</ele></trkpt>
<trkpt lat="33.239980" lon="126.543260" sectionIndex="0" pointIndex="222" originalElevation="19.0" isOriginalElevationFromOSM="false" isAnchor="false"><ele>20.5</ele></trkpt>
<trkpt lat="33.239990" lon="126.543320" sectionIndex="0" pointIndex="223" originalElevation="19.0" isOriginalElevationFromOSM="false" isAnchor="false"><ele>20.1</ele></trkpt>
<trkpt lat="33.240010" lon="126.543420" sectionIndex="0" pointIndex="224" originalElevation="19.0" isOriginalElevationFromOSM="false" isAnchor="false"><ele>19.9</ele></trkpt>
<trkpt lat="33.240040" lon="126.543460" sectionIndex="0" pointIndex="225" originalElevation="19.0" isOriginalElevationFromOSM="false" isAnchor="false"><ele>19.6</ele></trkpt>
<trkpt lat="33.240130" lon="126.543530" sectionIndex="0" pointIndex="226" originalElevation="19.0" isOriginalElevationFromOSM="false" isAnchor="false"><ele>19.4</ele></trkpt>
<trkpt lat="33.240150" lon="126.543640" sectionIndex="0" pointIndex="227" originalElevation="19.0" isOriginalElevationFromOSM="false" isAnchor="false"><ele>19.2</ele></trkpt>
<trkpt lat="33.240130" lon="126.543680" sectionIndex="0" pointIndex="228" originalElevation="19.5" isOriginalElevationFromOSM="false" isAnchor="false"><ele>19.0</ele></trkpt>
<trkpt lat="33.240130" lon="126.543680" sectionIndex="0" pointIndex="229" originalElevation="19.5" isOriginalElevationFromOSM="false" isAnchor="false"><ele>18.9</ele></trkpt>
<trkpt lat="33.240100" lon="126.543790" sectionIndex="0" pointIndex="230" originalElevation="20.0" isOriginalElevationFromOSM="false" isAnchor="false"><ele>18.9</ele></trkpt>
<trkpt lat="33.240110" lon="126.543930" sectionIndex="0" pointIndex="231" originalElevation="20.0" isOriginalElevationFromOSM="false" isAnchor="false"><ele>18.8</ele></trkpt>
<trkpt lat="33.240100" lon="126.544000" sectionIndex="0" pointIndex="232" originalElevation="20.0" isOriginalElevationFromOSM="false" isAnchor="false"><ele>18.8</ele></trkpt>
<trkpt lat="33.240010" lon="126.544280" sectionIndex="0" pointIndex="233" originalElevation="20.0" isOriginalElevationFromOSM="false" isAnchor="false"><ele>18.7</ele></trkpt>
<trkpt lat="33.240040" lon="126.544330" sectionIndex="0" pointIndex="234" originalElevation="20.0" isOriginalElevationFromOSM="false" isAnchor="false"><ele>18.6</ele></trkpt>
<trkpt lat="33.240270" lon="126.544580" sectionIndex="0" pointIndex="235" originalElevation="16.0" isOriginalElevationFromOSM="false" isAnchor="false"><ele>18.5</ele></trkpt>
<trkpt lat="33.240340" lon="126.544830" sectionIndex="0" pointIndex="236" originalElevation="16.0" isOriginalElevationFromOSM="false" isAnchor="false"><ele>18.3</ele></trkpt>
<trkpt lat="33.240340" lon="126.544970" sectionIndex="0" pointIndex="237" originalElevation="16.0" isOriginalElevationFromOSM="false" isAnchor="false"><ele>18.1</ele></trkpt>
<trkpt lat="33.240020" lon="126.545270" sectionIndex="0" pointIndex="238" originalElevation="16.0" isOriginalElevationFromOSM="false" isAnchor="false"><ele>17.9</ele></trkpt>
<trkpt lat="33.239950" lon="126.545510" sectionIndex="0" pointIndex="239" originalElevation="19.0" isOriginalElevationFromOSM="false" isAnchor="false"><ele>17.7</ele></trkpt>
<trkpt lat="33.239940" lon="126.545770" sectionIndex="0" pointIndex="240" originalElevation="19.0" isOriginalElevationFromOSM="false" isAnchor="false"><ele>17.4</ele></trkpt>
<trkpt lat="33.240290" lon="126.546180" sectionIndex="0" pointIndex="241" originalElevation="19.0" isOriginalElevationFromOSM="false" isAnchor="false"><ele>17.2</ele></trkpt>
<trkpt lat="33.240190" lon="126.546680" sectionIndex="0" pointIndex="242" originalElevation="26.0" isOriginalElevationFromOSM="false" isAnchor="false"><ele>16.9</ele></trkpt>
<trkpt lat="33.240000" lon="126.547020" sectionIndex="0" pointIndex="243" originalElevation="26.0" isOriginalElevationFromOSM="false" isAnchor="false"><ele>16.7</ele></trkpt>
<trkpt lat="33.239670" lon="126.547120" sectionIndex="0" pointIndex="244" originalElevation="16.0" isOriginalElevationFromOSM="false" isAnchor="false"><ele>16.7</ele></trkpt>
<trkpt lat="33.239540" lon="126.546830" sectionIndex="0" pointIndex="245" originalElevation="14.0" isOriginalElevationFromOSM="false" isAnchor="false"><ele>16.7</ele></trkpt>
<trkpt lat="33.239350" lon="126.546740" sectionIndex="0" pointIndex="246" originalElevation="14.0" isOriginalElevationFromOSM="false" isAnchor="false"><ele>16.8</ele></trkpt>
<trkpt lat="33.239100" lon="126.546730" sectionIndex="0" pointIndex="247" originalElevation="14.0" isOriginalElevationFromOSM="false" isAnchor="false"><ele>17.0</ele></trkpt>
<trkpt lat="33.238840" lon="126.546960" sectionIndex="0" pointIndex="248" originalElevation="6.0" isOriginalElevationFromOSM="false" isAnchor="false"><ele>17.3</ele></trkpt>
<trkpt lat="33.238530" lon="126.547440" sectionIndex="0" pointIndex="249" originalElevation="11.0" isOriginalElevationFromOSM="false" isAnchor="false"><ele>17.8</ele></trkpt>
<trkpt lat="33.238530" lon="126.547440" sectionIndex="0" pointIndex="250" originalElevation="11.0" isOriginalElevationFromOSM="false" isAnchor="false"><ele>18.3</ele></trkpt>
<trkpt lat="33.239350" lon="126.547390" sectionIndex="0" pointIndex="251" originalElevation="16.0" isOriginalElevationFromOSM="false" isAnchor="false"><ele>19.1</ele></trkpt>
<trkpt lat="33.239760" lon="126.547890" sectionIndex="0" pointIndex="252" originalElevation="5.0" isOriginalElevationFromOSM="false" isAnchor="false"><ele>20.0</ele></trkpt>
<trkpt lat="33.240120" lon="126.548320" sectionIndex="0" pointIndex="253" originalElevation="17.0" isOriginalElevationFromOSM="false" isAnchor="false"><ele>21.1</ele></trkpt>
<trkpt lat="33.240360" lon="126.548080" sectionIndex="0" pointIndex="254" originalElevation="17.0" isOriginalElevationFromOSM="false" isAnchor="false"><ele>22.3</ele></trkpt>
<trkpt lat="33.240440" lon="126.548040" sectionIndex="0" pointIndex="255" originalElevation="17.0" isOriginalElevationFromOSM="false" isAnchor="false"><ele>23.7</ele></trkpt>
<trkpt lat="33.240440" lon="126.548040" sectionIndex="0" pointIndex="256" originalElevation="17.0" isOriginalElevationFromOSM="false" isAnchor="false"><ele>25.1</ele></trkpt>
<trkpt lat="33.240500" lon="126.548000" sectionIndex="0" pointIndex="257" originalElevation="17.0" isOriginalElevationFromOSM="false" isAnchor="false"><ele>26.6</ele></trkpt>
<trkpt lat="33.240600" lon="126.547830" sectionIndex="0" pointIndex="258" originalElevation="28.0" isOriginalElevationFromOSM="false" isAnchor="false"><ele>28.0</ele></trkpt>
<trkpt lat="33.240770" lon="126.547810" sectionIndex="0" pointIndex="259" originalElevation="41.0" isOriginalElevationFromOSM="false" isAnchor="false"><ele>29.4</ele></trkpt>
<trkpt lat="33.240930" lon="126.547730" sectionIndex="0" pointIndex="260" originalElevation="41.0" isOriginalElevationFromOSM="false" isAnchor="false"><ele>30.8</ele></trkpt>
<trkpt lat="33.240970" lon="126.547650" sectionIndex="0" pointIndex="261" originalElevation="41.0" isOriginalElevationFromOSM="false" isAnchor="false"><ele>32.1</ele></trkpt>
<trkpt lat="33.241080" lon="126.547590" sectionIndex="0" pointIndex="262" originalElevation="41.0" isOriginalElevationFromOSM="false" isAnchor="false"><ele>33.3</ele></trkpt>
<trkpt lat="33.241100" lon="126.547560" sectionIndex="0" pointIndex="263" originalElevation="41.0" isOriginalElevationFromOSM="false" isAnchor="false"><ele>34.4</ele></trkpt>
<trkpt lat="33.241140" lon="126.547490" sectionIndex="0" pointIndex="264" originalElevation="41.0" isOriginalElevationFromOSM="false" isAnchor="false"><ele>35.3</ele></trkpt>
<trkpt lat="33.241110" lon="126.547420" sectionIndex="0" pointIndex="265" originalElevation="41.0" isOriginalElevationFromOSM="false" isAnchor="false"><ele>36.1</ele></trkpt>
<trkpt lat="33.241110" lon="126.547420" sectionIndex="0" pointIndex="266" originalElevation="41.0" isOriginalElevationFromOSM="false" isAnchor="false"><ele>36.7</ele></trkpt>
<trkpt lat="33.241140" lon="126.547490" sectionIndex="0" pointIndex="267" originalElevation="41.0" isOriginalElevationFromOSM="false" isAnchor="false"><ele>37.3</ele></trkpt>
<trkpt lat="33.241100" lon="126.547560" sectionIndex="0" pointIndex="268" originalElevation="41.0" isOriginalElevationFromOSM="false" isAnchor="false"><ele>37.9</ele></trkpt>
<trkpt lat="33.241490" lon="126.548230" sectionIndex="0" pointIndex="269" originalElevation="51.0" isOriginalElevationFromOSM="false" isAnchor="false"><ele>38.3</ele></trkpt>
<trkpt lat="33.241570" lon="126.548440" sectionIndex="0" pointIndex="270" originalElevation="51.0" isOriginalElevationFromOSM="false" isAnchor="false"><ele>38.6</ele></trkpt>
<trkpt lat="33.241760" lon="126.548950" sectionIndex="0" pointIndex="271" originalElevation="42.0" isOriginalElevationFromOSM="false" isAnchor="false"><ele>39.0</ele></trkpt>
<trkpt lat="33.241910" lon="126.549250" sectionIndex="0" pointIndex="272" originalElevation="42.0" isOriginalElevationFromOSM="false" isAnchor="false"><ele>39.3</ele></trkpt>
<trkpt lat="33.242090" lon="126.549570" sectionIndex="0" pointIndex="273" originalElevation="28.0" isOriginalElevationFromOSM="false" isAnchor="false"><ele>39.6</ele></trkpt>
<trkpt lat="33.242150" lon="126.549760" sectionIndex="0" pointIndex="274" originalElevation="28.0" isOriginalElevationFromOSM="false" isAnchor="false"><ele>40.0</ele></trkpt>
<trkpt lat="33.242200" lon="126.549980" sectionIndex="0" pointIndex="275" originalElevation="28.0" isOriginalElevationFromOSM="false" isAnchor="false"><ele>40.4</ele></trkpt>
<trkpt lat="33.242200" lon="126.550080" sectionIndex="0" pointIndex="276" originalElevation="28.0" isOriginalElevationFromOSM="false" isAnchor="false"><ele>40.9</ele></trkpt>
<trkpt lat="33.242190" lon="126.550260" sectionIndex="0" pointIndex="277" originalElevation="28.0" isOriginalElevationFromOSM="false" isAnchor="false"><ele>41.6</ele></trkpt>
<trkpt lat="33.242140" lon="126.550640" sectionIndex="0" pointIndex="278" originalElevation="31.0" isOriginalElevationFromOSM="false" isAnchor="false"><ele>42.3</ele></trkpt>
<trkpt lat="33.242130" lon="126.550800" sectionIndex="0" pointIndex="279" originalElevation="31.0" isOriginalElevationFromOSM="false" isAnchor="false"><ele>43.1</ele></trkpt>
<trkpt lat="33.242130" lon="126.550960" sectionIndex="0" pointIndex="280" originalElevation="31.0" isOriginalElevationFromOSM="false" isAnchor="false"><ele>44.0</ele></trkpt>
<trkpt lat="33.242240" lon="126.551970" sectionIndex="0" pointIndex="281" originalElevation="45.0" isOriginalElevationFromOSM="false" isAnchor="false"><ele>44.9</ele></trkpt>
<trkpt lat="33.242220" lon="126.553530" sectionIndex="0" pointIndex="282" originalElevation="66.0" isOriginalElevationFromOSM="false" isAnchor="false"><ele>45.9</ele></trkpt>
<trkpt lat="33.242310" lon="126.553790" sectionIndex="0" pointIndex="283" originalElevation="61.0" isOriginalElevationFromOSM="false" isAnchor="false"><ele>46.8</ele></trkpt>
<trkpt lat="33.242440" lon="126.554010" sectionIndex="0" pointIndex="284" originalElevation="61.0" isOriginalElevationFromOSM="false" isAnchor="false"><ele>47.7</ele></trkpt>
<trkpt lat="33.243710" lon="126.554850" sectionIndex="0" pointIndex="285" originalElevation="55.0" isOriginalElevationFromOSM="false" isAnchor="false"><ele>48.5</ele></trkpt>
<trkpt lat="33.243810" lon="126.554950" sectionIndex="0" pointIndex="286" originalElevation="55.0" isOriginalElevationFromOSM="false" isAnchor="false"><ele>49.2</ele></trkpt>
<trkpt lat="33.243820" lon="126.555020" sectionIndex="0" pointIndex="287" originalElevation="55.0" isOriginalElevationFromOSM="false" isAnchor="false"><ele>49.8</ele></trkpt>
<trkpt lat="33.243850" lon="126.555060" sectionIndex="0" pointIndex="288" originalElevation="55.0" isOriginalElevationFromOSM="false" isAnchor="false"><ele>50.3</ele></trkpt>
<trkpt lat="33.243880" lon="126.555080" sectionIndex="0" pointIndex="289" originalElevation="55.0" isOriginalElevationFromOSM="false" isAnchor="false"><ele>50.8</ele></trkpt>
<trkpt lat="33.243910" lon="126.555080" sectionIndex="0" pointIndex="290" originalElevation="55.0" isOriginalElevationFromOSM="false" isAnchor="false"><ele>51.1</ele></trkpt>
<trkpt lat="33.243960" lon="126.555060" sectionIndex="0" pointIndex="291" originalElevation="55.0" isOriginalElevationFromOSM="false" isAnchor="false"><ele>51.3</ele></trkpt>
<trkpt lat="33.244000" lon="126.555010" sectionIndex="0" pointIndex="292" originalElevation="50.0" isOriginalElevationFromOSM="false" isAnchor="false"><ele>51.3</ele></trkpt>
<trkpt lat="33.244010" lon="126.554970" sectionIndex="0" pointIndex="293" originalElevation="50.0" isOriginalElevationFromOSM="false" isAnchor="false"><ele>51.2</ele></trkpt>
<trkpt lat="33.244010" lon="126.554930" sectionIndex="0" pointIndex="294" originalElevation="50.0" isOriginalElevationFromOSM="false" isAnchor="false"><ele>51.1</ele></trkpt>
<trkpt lat="33.243990" lon="126.554890" sectionIndex="0" pointIndex="295" originalElevation="50.0" isOriginalElevationFromOSM="false" isAnchor="false"><ele>50.9</ele></trkpt>
<trkpt lat="33.243970" lon="126.554870" sectionIndex="0" pointIndex="296" originalElevation="50.0" isOriginalElevationFromOSM="false" isAnchor="false"><ele>50.7</ele></trkpt>
<trkpt lat="33.244000" lon="126.554720" sectionIndex="0" pointIndex="297" originalElevation="50.0" isOriginalElevationFromOSM="false" isAnchor="false"><ele>50.3</ele></trkpt>
<trkpt lat="33.244210" lon="126.554370" sectionIndex="0" pointIndex="298" originalElevation="50.0" isOriginalElevationFromOSM="false" isAnchor="false"><ele>49.9</ele></trkpt>
<trkpt lat="33.244430" lon="126.554120" sectionIndex="0" pointIndex="299" originalElevation="50.0" isOriginalElevationFromOSM="false" isAnchor="false"><ele>49.5</ele></trkpt>
<trkpt lat="33.244500" lon="126.554060" sectionIndex="0" pointIndex="300" originalElevation="50.0" isOriginalElevationFromOSM="false" isAnchor="false"><ele>49.1</ele></trkpt>
<trkpt lat="33.244760" lon="126.553870" sectionIndex="0" pointIndex="301" originalElevation="48.0" isOriginalElevationFromOSM="false" isAnchor="false"><ele>48.7</ele></trkpt>
<trkpt lat="33.244760" lon="126.553870" sectionIndex="0" pointIndex="302" originalElevation="48.0" isOriginalElevationFromOSM="false" isAnchor="false"><ele>48.4</ele></trkpt>
<trkpt lat="33.245990" lon="126.553180" sectionIndex="0" pointIndex="303" originalElevation="47.0" isOriginalElevationFromOSM="false" isAnchor="false"><ele>48.1</ele></trkpt>
<trkpt lat="33.246210" lon="126.553080" sectionIndex="0" pointIndex="304" originalElevation="47.0" isOriginalElevationFromOSM="false" isAnchor="false"><ele>47.8</ele></trkpt>
<trkpt lat="33.246450" lon="126.553010" sectionIndex="0" pointIndex="305" originalElevation="47.0" isOriginalElevationFromOSM="false" isAnchor="false"><ele>47.5</ele></trkpt>
<trkpt lat="33.246730" lon="126.552990" sectionIndex="0" pointIndex="306" originalElevation="43.0" isOriginalElevationFromOSM="false" isAnchor="false"><ele>47.2</ele></trkpt>
<trkpt lat="33.247010" lon="126.552980" sectionIndex="0" pointIndex="307" originalElevation="43.0" isOriginalElevationFromOSM="false" isAnchor="false"><ele>46.9</ele></trkpt>
<trkpt lat="33.247010" lon="126.553080" sectionIndex="0" pointIndex="308" originalElevation="43.0" isOriginalElevationFromOSM="false" isAnchor="false"><ele>46.7</ele></trkpt>
</trkseg>
</trk>
</gpx>