<?xml version="1.0" encoding="UTF-8"?>
<gpx creator="Ramblr - http://www.ramblr.com" version="1.1" xmlns="http://www.topografix.com/GPX/1/1">
<metadata>
<name>제주 댕댕런</name>
<desc>Bientus, Inc. - www.ramblr.com - Share your outdoor stories on a map!</desc>
<author>
<name></name>
</author>
<link href="https://www.ramblr.com/web/mymap/trip/1320578/9155528"></link>
<time>2025-09-05T01:25:14Z</time>
</metadata>
<trk>
<name>제주 댕댕런</name>
<trkseg>
<trkpt lat="33.517195" lon="126.522847"><ele>5.923485</ele><time>2025-09-05T01:25:33Z</time></trkpt>
<trkpt lat="33.51711" lon="126.522805"><ele>6.796948</ele><time>2025-09-05T01:26:06Z</time></trkpt>
<trkpt lat="33.517184" lon="126.522736"><ele>5.841784</ele><time>2025-09-05T01:26:25Z</time></trkpt>
<trkpt lat="33.517218" lon="126.52263"><ele>6.05879</ele><time>2025-09-05T01:26:49Z</time></trkpt>
<trkpt lat="33.517243" lon="126.52251"><ele>6.269163</ele><time>2025-09-05T01:26:55Z</time></trkpt>
<trkpt lat="33.517272" lon="126.522399"><ele>6.374448</ele><time>2025-09-05T01:27:00Z</time></trkpt>
<trkpt lat="33.517301" lon="126.522286"><ele>7.014164</ele><time>2025-09-05T01:27:05Z</time></trkpt>
<trkpt lat="33.517339" lon="126.52218"><ele>7.201368</ele><time>2025-09-05T01:27:10Z</time></trkpt>
<trkpt lat="33.517366" lon="126.522064"><ele>6.625658</ele><time>2025-09-05T01:27:15Z</time></trkpt>
<trkpt lat="33.517406" lon="126.521939"><ele>6.74095</ele><time>2025-09-05T01:27:20Z</time></trkpt>
<trkpt lat="33.517415" lon="126.521803"><ele>6.999938</ele><time>2025-09-05T01:27:25Z</time></trkpt>
<trkpt lat="33.517434" lon="126.52167"><ele>6.850362</ele><time>2025-09-05T01:27:30Z</time></trkpt>
<trkpt lat="33.517473" lon="126.521553"><ele>6.693914</ele><time>2025-09-05T01:27:35Z</time></trkpt>
<trkpt lat="33.517497" lon="126.521445"><ele>6.700379</ele><time>2025-09-05T01:27:46Z</time></trkpt>
<trkpt lat="33.517522" lon="126.521318"><ele>6.333946</ele><time>2025-09-05T01:27:52Z</time></trkpt>
<trkpt lat="33.517543" lon="126.521199"><ele>7.421517</ele><time>2025-09-05T01:27:57Z</time></trkpt>
<trkpt lat="33.51759" lon="126.521085"><ele>5.798732</ele><time>2025-09-05T01:28:02Z</time></trkpt>
<trkpt lat="33.5176" lon="126.52097"><ele>5.277015</ele><time>2025-09-05T01:28:06Z</time></trkpt>
<trkpt lat="33.517624" lon="126.520842"><ele>2.913604</ele><time>2025-09-05T01:28:11Z</time></trkpt>
<trkpt lat="33.517658" lon="126.520729"><ele>2.113713</ele><time>2025-09-05T01:28:16Z</time></trkpt>
<trkpt lat="33.517678" lon="126.5206"><ele>3.702398</ele><time>2025-09-05T01:28:21Z</time></trkpt>
<trkpt lat="33.517703" lon="126.520481"><ele>8.213096</ele><time>2025-09-05T01:28:26Z</time></trkpt>
<trkpt lat="33.517748" lon="126.52036"><ele>7.035938</ele><time>2025-09-05T01:28:31Z</time></trkpt>
<trkpt lat="33.517779" lon="126.520256"><ele>5.149637</ele><time>2025-09-05T01:28:35Z</time></trkpt>
<trkpt lat="33.517806" lon="126.520121"><ele>6.105709</ele><time>2025-09-05T01:28:40Z</time></trkpt>
<trkpt lat="33.517837" lon="126.52"><ele>5.520913</ele><time>2025-09-05T01:28:45Z</time></trkpt>
<trkpt lat="33.517849" lon="126.519869"><ele>5.220842</ele><time>2025-09-05T01:28:50Z</time></trkpt>
<trkpt lat="33.517881" lon="126.519756"><ele>5.946049</ele><time>2025-09-05T01:28:54Z</time></trkpt>
<trkpt lat="33.517897" lon="126.519644"><ele>6.596032</ele><time>2025-09-05T01:28:59Z</time></trkpt>
<trkpt lat="33.517923" lon="126.519538"><ele>5.736446</ele><time>2025-09-05T01:29:03Z</time></trkpt>
<trkpt lat="33.517954" lon="126.51943"><ele>5.802951</ele><time>2025-09-05T01:29:07Z</time></trkpt>
<trkpt lat="33.517986" lon="126.519315"><ele>5.600086</ele><time>2025-09-05T01:29:12Z</time></trkpt>
<trkpt lat="33.517904" lon="126.519239"><ele>5.7356</ele><time>2025-09-05T01:29:19Z</time></trkpt>
<trkpt lat="33.517806" lon="126.519222"><ele>6.12288</ele><time>2025-09-05T01:29:24Z</time></trkpt>
<trkpt lat="33.517714" lon="126.519224"><ele>6.077032</ele><time>2025-09-05T01:29:29Z</time></trkpt>
<trkpt lat="33.517613" lon="126.519185"><ele>5.559181</ele><time>2025-09-05T01:29:35Z</time></trkpt>
<trkpt lat="33.517518" lon="126.519167"><ele>4.522304</ele><time>2025-09-05T01:29:40Z</time></trkpt>
<trkpt lat="33.517411" lon="126.519136"><ele>3.554656</ele><time>2025-09-05T01:29:45Z</time></trkpt>
<trkpt lat="33.517316" lon="126.519113"><ele>4.358603</ele><time>2025-09-05T01:29:49Z</time></trkpt>
<trkpt lat="33.517222" lon="126.519102"><ele>4.45011</ele><time>2025-09-05T01:29:53Z</time></trkpt>
<trkpt lat="33.517122" lon="126.519081"><ele>4.159875</ele><time>2025-09-05T01:29:58Z</time></trkpt>
<trkpt lat="33.517011" lon="126.519104"><ele>3.936658</ele><time>2025-09-05T01:30:03Z</time></trkpt>
<trkpt lat="33.51691" lon="126.519125"><ele>4.024393</ele><time>2025-09-05T01:30:08Z</time></trkpt>
<trkpt lat="33.51682" lon="126.519166"><ele>3.212538</ele><time>2025-09-05T01:30:13Z</time></trkpt>
<trkpt lat="33.516727" lon="126.519186"><ele>2.719271</ele><time>2025-09-05T01:30:19Z</time></trkpt>
<trkpt lat="33.516742" lon="126.519306"><ele>4.740049</ele><time>2025-09-05T01:30:24Z</time></trkpt>
<trkpt lat="33.516751" lon="126.519419"><ele>7.140448</ele><time>2025-09-05T01:30:29Z</time></trkpt>
<trkpt lat="33.516768" lon="126.519555"><ele>8.218192</ele><time>2025-09-05T01:30:34Z</time></trkpt>
<trkpt lat="33.516794" lon="126.519682"><ele>8.729592</ele><time>2025-09-05T01:30:38Z</time></trkpt>
<trkpt lat="33.51681" lon="126.519805"><ele>7.664804</ele><time>2025-09-05T01:30:42Z</time></trkpt>
<trkpt lat="33.516817" lon="126.519934"><ele>7.363114</ele><time>2025-09-05T01:30:47Z</time></trkpt>
<trkpt lat="33.516821" lon="126.520053"><ele>7.213488</ele><time>2025-09-05T01:30:53Z</time></trkpt>
<trkpt lat="33.516825" lon="126.520176"><ele>7.142233</ele><time>2025-09-05T01:30:58Z</time></trkpt>
<trkpt lat="33.516834" lon="126.520299"><ele>5.756168</ele><time>2025-09-05T01:31:04Z</time></trkpt>
<trkpt lat="33.516871" lon="126.520399"><ele>5.950577</ele><time>2025-09-05T01:31:10Z</time></trkpt>
<trkpt lat="33.516968" lon="126.520446"><ele>5.526305</ele><time>2025-09-05T01:31:16Z</time></trkpt>
<trkpt lat="33.51707" lon="126.520467"><ele>5.891238</ele><time>2025-09-05T01:31:20Z</time></trkpt>
<trkpt lat="33.517179" lon="126.520478"><ele>5.717325</ele><time>2025-09-05T01:31:25Z</time></trkpt>
<trkpt lat="33.517279" lon="126.520484"><ele>5.791065</ele><time>2025-09-05T01:31:30Z</time></trkpt>
<trkpt lat="33.517384" lon="126.520465"><ele>4.88642</ele><time>2025-09-05T01:31:35Z</time></trkpt>
<trkpt lat="33.517487" lon="126.520456"><ele>5.600127</ele><time>2025-09-05T01:31:40Z</time></trkpt>
<trkpt lat="33.517587" lon="126.520401"><ele>5.945626</ele><time>2025-09-05T01:31:45Z</time></trkpt>
<trkpt lat="33.517684" lon="126.520411"><ele>5.126555</ele><time>2025-09-05T01:31:49Z</time></trkpt>
<trkpt lat="33.517749" lon="126.520304"><ele>7.383205</ele><time>2025-09-05T01:31:54Z</time></trkpt>
<trkpt lat="33.517781" lon="126.520202"><ele>8.073424</ele><time>2025-09-05T01:31:58Z</time></trkpt>
<trkpt lat="33.517811" lon="126.520096"><ele>6.26153</ele><time>2025-09-05T01:32:02Z</time></trkpt>
<trkpt lat="33.517835" lon="126.519982"><ele>6.256982</ele><time>2025-09-05T01:32:07Z</time></trkpt>
<trkpt lat="33.517857" lon="126.519859"><ele>5.813343</ele><time>2025-09-05T01:32:12Z</time></trkpt>
<trkpt lat="33.51788" lon="126.519745"><ele>5.250761</ele><time>2025-09-05T01:32:16Z</time></trkpt>
<trkpt lat="33.517902" lon="126.519638"><ele>5.040639</ele><time>2025-09-05T01:32:20Z</time></trkpt>
<trkpt lat="33.517927" lon="126.519526"><ele>5.331288</ele><time>2025-09-05T01:32:24Z</time></trkpt>
<trkpt lat="33.517958" lon="126.519411"><ele>5.411617</ele><time>2025-09-05T01:32:28Z</time></trkpt>
<trkpt lat="33.517997" lon="126.519306"><ele>5.239401</ele><time>2025-09-05T01:32:32Z</time></trkpt>
<trkpt lat="33.518026" lon="126.51919"><ele>5.415804</ele><time>2025-09-05T01:33:44Z</time></trkpt>
<trkpt lat="33.518047" lon="126.519058"><ele>5.182606</ele><time>2025-09-05T01:33:49Z</time></trkpt>
<trkpt lat="33.518073" lon="126.518931"><ele>4.610383</ele><time>2025-09-05T01:33:54Z</time></trkpt>
<trkpt lat="33.518089" lon="126.518798"><ele>4.601413</ele><time>2025-09-05T01:33:59Z</time></trkpt>
<trkpt lat="33.518123" lon="126.518679"><ele>4.282797</ele><time>2025-09-05T01:34:04Z</time></trkpt>
<trkpt lat="33.518158" lon="126.518569"><ele>4.365893</ele><time>2025-09-05T01:34:08Z</time></trkpt>
<trkpt lat="33.518186" lon="126.518461"><ele>4.235032</ele><time>2025-09-05T01:34:13Z</time></trkpt>
<trkpt lat="33.518214" lon="126.518355"><ele>3.882795</ele><time>2025-09-05T01:34:17Z</time></trkpt>
<trkpt lat="33.518237" lon="126.518226"><ele>3.736879</ele><time>2025-09-05T01:34:22Z</time></trkpt>
<trkpt lat="33.518237" lon="126.518098"><ele>3.898846</ele><time>2025-09-05T01:34:27Z</time></trkpt>
<trkpt lat="33.518213" lon="126.517981"><ele>3.892376</ele><time>2025-09-05T01:34:31Z</time></trkpt>
<trkpt lat="33.518188" lon="126.517876"><ele>4.531808</ele><time>2025-09-05T01:34:35Z</time></trkpt>
<trkpt lat="33.518157" lon="126.517749"><ele>4.170928</ele><time>2025-09-05T01:34:40Z</time></trkpt>
<trkpt lat="33.518153" lon="126.517638"><ele>3.536302</ele><time>2025-09-05T01:34:44Z</time></trkpt>
<trkpt lat="33.518116" lon="126.51752"><ele>3.919811</ele><time>2025-09-05T01:34:49Z</time></trkpt>
<trkpt lat="33.51808" lon="126.517404"><ele>4.291307</ele><time>2025-09-05T01:34:54Z</time></trkpt>
<trkpt lat="33.518031" lon="126.517307"><ele>4.597843</ele><time>2025-09-05T01:34:58Z</time></trkpt>
<trkpt lat="33.517987" lon="126.517189"><ele>3.743608</ele><time>2025-09-05T01:35:03Z</time></trkpt>
<trkpt lat="33.517948" lon="126.517088"><ele>4.872704</ele><time>2025-09-05T01:35:07Z</time></trkpt>
<trkpt lat="33.517896" lon="126.516975"><ele>4.08706</ele><time>2025-09-05T01:35:13Z</time></trkpt>
<trkpt lat="33.517842" lon="126.516873"><ele>3.767581</ele><time>2025-09-05T01:35:18Z</time></trkpt>
<trkpt lat="33.517779" lon="126.516778"><ele>4.021973</ele><time>2025-09-05T01:35:23Z</time></trkpt>
<trkpt lat="33.517705" lon="126.516706"><ele>4.026862</ele><time>2025-09-05T01:35:28Z</time></trkpt>
<trkpt lat="33.517611" lon="126.516646"><ele>3.541162</ele><time>2025-09-05T01:35:33Z</time></trkpt>
<trkpt lat="33.517519" lon="126.516625"><ele>3.545397</ele><time>2025-09-05T01:35:39Z</time></trkpt>
<trkpt lat="33.517414" lon="126.516613"><ele>2.376305</ele><time>2025-09-05T01:35:44Z</time></trkpt>
<trkpt lat="33.517314" lon="126.516602"><ele>1.97803</ele><time>2025-09-05T01:35:47Z</time></trkpt>
<trkpt lat="33.517217" lon="126.516579"><ele>1.704013</ele><time>2025-09-05T01:35:51Z</time></trkpt>
<trkpt lat="33.517109" lon="126.516591"><ele>2.283212</ele><time>2025-09-05T01:35:56Z</time></trkpt>
<trkpt lat="33.517015" lon="126.516624"><ele>2.386963</ele><time>2025-09-05T01:36:04Z</time></trkpt>
<trkpt lat="33.516963" lon="126.516532"><ele>2.387206</ele><time>2025-09-05T01:37:24Z</time></trkpt>
<trkpt lat="33.516938" lon="126.516423"><ele>2.642335</ele><time>2025-09-05T01:37:27Z</time></trkpt>
<trkpt lat="33.516838" lon="126.516389"><ele>2.208309</ele><time>2025-09-05T01:37:32Z</time></trkpt>
<trkpt lat="33.516736" lon="126.516422"><ele>2.53399</ele><time>2025-09-05T01:37:38Z</time></trkpt>
<trkpt lat="33.516635" lon="126.516443"><ele>3.180398</ele><time>2025-09-05T01:37:43Z</time></trkpt>
<trkpt lat="33.51653" lon="126.516477"><ele>4.284085</ele><time>2025-09-05T01:37:48Z</time></trkpt>
<trkpt lat="33.516442" lon="126.516533"><ele>4.177779</ele><time>2025-09-05T01:37:53Z</time></trkpt>
<trkpt lat="33.516347" lon="126.51657"><ele>3.735689</ele><time>2025-09-05T01:37:58Z</time></trkpt>
<trkpt lat="33.516263" lon="126.516611"><ele>3.10455</ele><time>2025-09-05T01:38:01Z</time></trkpt>
<trkpt lat="33.516145" lon="126.516628"><ele>2.882425</ele><time>2025-09-05T01:38:06Z</time></trkpt>
<trkpt lat="33.516042" lon="126.516653"><ele>3.754796</ele><time>2025-09-05T01:38:10Z</time></trkpt>
<trkpt lat="33.515939" lon="126.516662"><ele>4.364996</ele><time>2025-09-05T01:38:15Z</time></trkpt>
<trkpt lat="33.515925" lon="126.516549"><ele>5.144927</ele><time>2025-09-05T01:38:19Z</time></trkpt>
<trkpt lat="33.515881" lon="126.516449"><ele>5.392351</ele><time>2025-09-05T01:38:23Z</time></trkpt>
<trkpt lat="33.515868" lon="126.51632"><ele>4.457093</ele><time>2025-09-05T01:38:28Z</time></trkpt>
<trkpt lat="33.515844" lon="126.516203"><ele>5.456269</ele><time>2025-09-05T01:38:32Z</time></trkpt>
<trkpt lat="33.515764" lon="126.516148"><ele>5.226274</ele><time>2025-09-05T01:38:37Z</time></trkpt>
<trkpt lat="33.515652" lon="126.516162"><ele>5.640066</ele><time>2025-09-05T01:38:42Z</time></trkpt>
<trkpt lat="33.515545" lon="126.516179"><ele>5.029536</ele><time>2025-09-05T01:38:47Z</time></trkpt>
<trkpt lat="33.515454" lon="126.516215"><ele>4.929094</ele><time>2025-09-05T01:38:51Z</time></trkpt>
<trkpt lat="33.515366" lon="126.516263"><ele>6.325731</ele><time>2025-09-05T01:38:55Z</time></trkpt>
<trkpt lat="33.515287" lon="126.516318"><ele>6.730728</ele><time>2025-09-05T01:38:58Z</time></trkpt>
<trkpt lat="33.515224" lon="126.516403"><ele>7.607736</ele><time>2025-09-05T01:39:02Z</time></trkpt>
<trkpt lat="33.515181" lon="126.5165"><ele>7.570838</ele><time>2025-09-05T01:39:06Z</time></trkpt>
<trkpt lat="33.515195" lon="126.516608"><ele>7.323521</ele><time>2025-09-05T01:39:10Z</time></trkpt>
<trkpt lat="33.51526" lon="126.516701"><ele>6.689584</ele><time>2025-09-05T01:39:15Z</time></trkpt>
<trkpt lat="33.515327" lon="126.516778"><ele>6.358227</ele><time>2025-09-05T01:39:19Z</time></trkpt>
<trkpt lat="33.515369" lon="126.51688"><ele>5.720315</ele><time>2025-09-05T01:39:29Z</time></trkpt>
<trkpt lat="33.515372" lon="126.517009"><ele>5.930078</ele><time>2025-09-05T01:39:34Z</time></trkpt>
<trkpt lat="33.515385" lon="126.517118"><ele>4.411182</ele><time>2025-09-05T01:39:39Z</time></trkpt>
<trkpt lat="33.515382" lon="126.517229"><ele>4.77756</ele><time>2025-09-05T01:39:43Z</time></trkpt>
<trkpt lat="33.515399" lon="126.517338"><ele>4.823241</ele><time>2025-09-05T01:39:48Z</time></trkpt>
<trkpt lat="33.515402" lon="126.517446"><ele>5.774585</ele><time>2025-09-05T01:39:52Z</time></trkpt>
<trkpt lat="33.515421" lon="126.517557"><ele>6.014369</ele><time>2025-09-05T01:39:55Z</time></trkpt>
<trkpt lat="33.515432" lon="126.517665"><ele>5.676926</ele><time>2025-09-05T01:39:59Z</time></trkpt>
<trkpt lat="33.515443" lon="126.517786"><ele>5.571915</ele><time>2025-09-05T01:40:04Z</time></trkpt>
<trkpt lat="33.515457" lon="126.517906"><ele>5.965318</ele><time>2025-09-05T01:40:08Z</time></trkpt>
<trkpt lat="33.515469" lon="126.51804"><ele>5.949483</ele><time>2025-09-05T01:40:14Z</time></trkpt>
<trkpt lat="33.515486" lon="126.518174"><ele>6.007319</ele><time>2025-09-05T01:40:19Z</time></trkpt>
<trkpt lat="33.515411" lon="126.518277"><ele>4.186116</ele><time>2025-09-05T01:40:29Z</time></trkpt>
<trkpt lat="33.515423" lon="126.518404"><ele>5.972263</ele><time>2025-09-05T01:40:34Z</time></trkpt>
<trkpt lat="33.515439" lon="126.51852"><ele>6.72489</ele><time>2025-09-05T01:40:39Z</time></trkpt>
<trkpt lat="33.515445" lon="126.518652"><ele>7.499044</ele><time>2025-09-05T01:40:44Z</time></trkpt>
<trkpt lat="33.515467" lon="126.518776"><ele>6.638411</ele><time>2025-09-05T01:40:49Z</time></trkpt>
<trkpt lat="33.515435" lon="126.518883"><ele>6.457057</ele><time>2025-09-05T01:40:53Z</time></trkpt>
<trkpt lat="33.515329" lon="126.518912"><ele>6.620115</ele><time>2025-09-05T01:40:57Z</time></trkpt>
<trkpt lat="33.515223" lon="126.518943"><ele>6.690893</ele><time>2025-09-05T01:41:02Z</time></trkpt>
<trkpt lat="33.51514" lon="126.518988"><ele>6.723558</ele><time>2025-09-05T01:41:06Z</time></trkpt>
<trkpt lat="33.515047" lon="126.519031"><ele>6.280797</ele><time>2025-09-05T01:41:10Z</time></trkpt>
<trkpt lat="33.514955" lon="126.519102"><ele>7.332639</ele><time>2025-09-05T01:41:15Z</time></trkpt>
<trkpt lat="33.514871" lon="126.519179"><ele>8.190449</ele><time>2025-09-05T01:41:20Z</time></trkpt>
<trkpt lat="33.514778" lon="126.519236"><ele>9.666737</ele><time>2025-09-05T01:41:25Z</time></trkpt>
<trkpt lat="33.514683" lon="126.519271"><ele>8.51439</ele><time>2025-09-05T01:41:29Z</time></trkpt>
<trkpt lat="33.514589" lon="126.519333"><ele>9.028383</ele><time>2025-09-05T01:41:35Z</time></trkpt>
<trkpt lat="33.514488" lon="126.519386"><ele>8.904801</ele><time>2025-09-05T01:41:40Z</time></trkpt>
<trkpt lat="33.5144" lon="126.519455"><ele>9.508611</ele><time>2025-09-05T01:41:45Z</time></trkpt>
<trkpt lat="33.514305" lon="126.51948"><ele>8.599693</ele><time>2025-09-05T01:41:49Z</time></trkpt>
<trkpt lat="33.514201" lon="126.519481"><ele>8.256769</ele><time>2025-09-05T01:41:54Z</time></trkpt>
<trkpt lat="33.514094" lon="126.519488"><ele>8.501237</ele><time>2025-09-05T01:41:59Z</time></trkpt>
<trkpt lat="33.514006" lon="126.519458"><ele>8.260962</ele><time>2025-09-05T01:42:03Z</time></trkpt>
<trkpt lat="33.513892" lon="126.519433"><ele>9.19397</ele><time>2025-09-05T01:42:08Z</time></trkpt>
<trkpt lat="33.513793" lon="126.519415"><ele>10.498248</ele><time>2025-09-05T01:42:12Z</time></trkpt>
<trkpt lat="33.51371" lon="126.519471"><ele>9.914667</ele><time>2025-09-05T01:42:16Z</time></trkpt>
<trkpt lat="33.513609" lon="126.519475"><ele>9.358915</ele><time>2025-09-05T01:42:20Z</time></trkpt>
<trkpt lat="33.513502" lon="126.519469"><ele>9.493951</ele><time>2025-09-05T01:42:24Z</time></trkpt>
<trkpt lat="33.513409" lon="126.519459"><ele>9.908071</ele><time>2025-09-05T01:42:28Z</time></trkpt>
<trkpt lat="33.513306" lon="126.51942"><ele>10.004653</ele><time>2025-09-05T01:42:33Z</time></trkpt>
<trkpt lat="33.51322" lon="126.519387"><ele>10.017008</ele><time>2025-09-05T01:42:37Z</time></trkpt>
<trkpt lat="33.513125" lon="126.51935"><ele>9.180494</ele><time>2025-09-05T01:42:42Z</time></trkpt>
<trkpt lat="33.513019" lon="126.519312"><ele>9.86588</ele><time>2025-09-05T01:42:48Z</time></trkpt>
<trkpt lat="33.512913" lon="126.51929"><ele>10.384692</ele><time>2025-09-05T01:42:53Z</time></trkpt>
<trkpt lat="33.512808" lon="126.519296"><ele>10.447382</ele><time>2025-09-05T01:42:58Z</time></trkpt>
<trkpt lat="33.512819" lon="126.519405"><ele>11.859482</ele><time>2025-09-05T01:43:05Z</time></trkpt>
<trkpt lat="33.512808" lon="126.519518"><ele>11.609423</ele><time>2025-09-05T01:43:11Z</time></trkpt>
<trkpt lat="33.512741" lon="126.519617"><ele>11.337707</ele><time>2025-09-05T01:43:16Z</time></trkpt>
<trkpt lat="33.512786" lon="126.519728"><ele>11.153486</ele><time>2025-09-05T01:43:21Z</time></trkpt>
<trkpt lat="33.512844" lon="126.519829"><ele>11.039718</ele><time>2025-09-05T01:43:26Z</time></trkpt>
<trkpt lat="33.512885" lon="126.519956"><ele>12.817873</ele><time>2025-09-05T01:43:47Z</time></trkpt>
<trkpt lat="33.512912" lon="126.520076"><ele>12.593509</ele><time>2025-09-05T01:43:51Z</time></trkpt>
<trkpt lat="33.512956" lon="126.520197"><ele>12.35572</ele><time>2025-09-05T01:43:55Z</time></trkpt>
<trkpt lat="33.512994" lon="126.520305"><ele>11.834335</ele><time>2025-09-05T01:43:59Z</time></trkpt>
<trkpt lat="33.513032" lon="126.52041"><ele>11.807276</ele><time>2025-09-05T01:44:03Z</time></trkpt>
<trkpt lat="33.51306" lon="126.520526"><ele>12.363875</ele><time>2025-09-05T01:44:07Z</time></trkpt>
<trkpt lat="33.513076" lon="126.52064"><ele>12.301105</ele><time>2025-09-05T01:44:11Z</time></trkpt>
<trkpt lat="33.513106" lon="126.520762"><ele>13.805627</ele><time>2025-09-05T01:44:15Z</time></trkpt>
<trkpt lat="33.513145" lon="126.52086"><ele>12.964664</ele><time>2025-09-05T01:44:18Z</time></trkpt>
<trkpt lat="33.513174" lon="126.520966"><ele>12.636955</ele><time>2025-09-05T01:44:22Z</time></trkpt>
<trkpt lat="33.513206" lon="126.521069"><ele>12.527845</ele><time>2025-09-05T01:44:26Z</time></trkpt>
<trkpt lat="33.513239" lon="126.521171"><ele>12.667425</ele><time>2025-09-05T01:44:31Z</time></trkpt>
<trkpt lat="33.513347" lon="126.521178"><ele>12.779665</ele><time>2025-09-05T01:44:36Z</time></trkpt>
<trkpt lat="33.513486" lon="126.521194"><ele>14.322013</ele><time>2025-09-05T01:44:43Z</time></trkpt>
<trkpt lat="33.513589" lon="126.5212"><ele>13.730507</ele><time>2025-09-05T01:44:48Z</time></trkpt>
<trkpt lat="33.513676" lon="126.521235"><ele>12.237156</ele><time>2025-09-05T01:45:03Z</time></trkpt>
<trkpt lat="33.513778" lon="126.521252"><ele>11.83205</ele><time>2025-09-05T01:45:08Z</time></trkpt>
<trkpt lat="33.513878" lon="126.521284"><ele>12.349205</ele><time>2025-09-05T01:45:13Z</time></trkpt>
<trkpt lat="33.513977" lon="126.521318"><ele>12.054516</ele><time>2025-09-05T01:45:24Z</time></trkpt>
<trkpt lat="33.514083" lon="126.521355"><ele>11.059274</ele><time>2025-09-05T01:45:29Z</time></trkpt>
<trkpt lat="33.51417" lon="126.521409"><ele>10.703989</ele><time>2025-09-05T01:45:33Z</time></trkpt>
<trkpt lat="33.514276" lon="126.52144"><ele>9.551393</ele><time>2025-09-05T01:45:36Z</time></trkpt>
<trkpt lat="33.514376" lon="126.521487"><ele>9.976695</ele><time>2025-09-05T01:45:40Z</time></trkpt>
<trkpt lat="33.514468" lon="126.521553"><ele>10.597546</ele><time>2025-09-05T01:45:44Z</time></trkpt>
<trkpt lat="33.514559" lon="126.521589"><ele>9.14745</ele><time>2025-09-05T01:45:49Z</time></trkpt>
<trkpt lat="33.51463" lon="126.521683"><ele>8.495209</ele><time>2025-09-05T01:45:58Z</time></trkpt>
<trkpt lat="33.51465" lon="126.52179"><ele>8.248928</ele><time>2025-09-05T01:46:02Z</time></trkpt>
<trkpt lat="33.514626" lon="126.521903"><ele>8.349227</ele><time>2025-09-05T01:46:06Z</time></trkpt>
<trkpt lat="33.514634" lon="126.522013"><ele>8.755372</ele><time>2025-09-05T01:46:11Z</time></trkpt>
<trkpt lat="33.514632" lon="126.522143"><ele>9.543931</ele><time>2025-09-05T01:46:16Z</time></trkpt>
<trkpt lat="33.514634" lon="126.522253"><ele>9.455946</ele><time>2025-09-05T01:46:21Z</time></trkpt>
<trkpt lat="33.514639" lon="126.52236"><ele>10.201923</ele><time>2025-09-05T01:46:27Z</time></trkpt>
<trkpt lat="33.514655" lon="126.522467"><ele>10.43714</ele><time>2025-09-05T01:46:34Z</time></trkpt>
<trkpt lat="33.514639" lon="126.522579"><ele>10.467817</ele><time>2025-09-05T01:46:41Z</time></trkpt>
<trkpt lat="33.514605" lon="126.522703"><ele>9.872065</ele><time>2025-09-05T01:46:48Z</time></trkpt>
<trkpt lat="33.514589" lon="126.522814"><ele>9.264618</ele><time>2025-09-05T01:46:55Z</time></trkpt>
<trkpt lat="33.514558" lon="126.522923"><ele>9.593818</ele><time>2025-09-05T01:47:01Z</time></trkpt>
<trkpt lat="33.514516" lon="126.52303"><ele>9.01936</ele><time>2025-09-05T01:47:06Z</time></trkpt>
<trkpt lat="33.514541" lon="126.523154"><ele>8.578671</ele><time>2025-09-05T01:47:11Z</time></trkpt>
<trkpt lat="33.514574" lon="126.523255"><ele>8.589009</ele><time>2025-09-05T01:47:15Z</time></trkpt>
<trkpt lat="33.514607" lon="126.523378"><ele>8.601237</ele><time>2025-09-05T01:47:20Z</time></trkpt>
<trkpt lat="33.514638" lon="126.523484"><ele>8.843891</ele><time>2025-09-05T01:47:26Z</time></trkpt>
<trkpt lat="33.514655" lon="126.523593"><ele>9.216364</ele><time>2025-09-05T01:47:34Z</time></trkpt>
<trkpt lat="33.514735" lon="126.523642"><ele>10.310054</ele><time>2025-09-05T01:47:59Z</time></trkpt>
<trkpt lat="33.514768" lon="126.52375"><ele>11.742551</ele><time>2025-09-05T01:48:10Z</time></trkpt>
<trkpt lat="33.514812" lon="126.523865"><ele>10.480812</ele><time>2025-09-05T01:48:16Z</time></trkpt>
<trkpt lat="33.514828" lon="126.523974"><ele>11.685213</ele><time>2025-09-05T01:48:22Z</time></trkpt>
<trkpt lat="33.514837" lon="126.524108"><ele>8.885061</ele><time>2025-09-05T01:48:28Z</time></trkpt>
<trkpt lat="33.514845" lon="126.524238"><ele>8.410917</ele><time>2025-09-05T01:48:33Z</time></trkpt>
<trkpt lat="33.514877" lon="126.524367"><ele>10.261274</ele><time>2025-09-05T01:48:38Z</time></trkpt>
<trkpt lat="33.514889" lon="126.524494"><ele>8.573133</ele><time>2025-09-05T01:48:45Z</time></trkpt>
<trkpt lat="33.514897" lon="126.524614"><ele>10.176162</ele><time>2025-09-05T01:49:14Z</time></trkpt>
<trkpt lat="33.514955" lon="126.524705"><ele>10.017949</ele><time>2025-09-05T01:49:24Z</time></trkpt>
<trkpt lat="33.514902" lon="126.5248"><ele>11.277212</ele><time>2025-09-05T01:49:30Z</time></trkpt>
<trkpt lat="33.514788" lon="126.524798"><ele>9.97615</ele><time>2025-09-05T01:49:35Z</time></trkpt>
<trkpt lat="33.514681" lon="126.524806"><ele>9.545808</ele><time>2025-09-05T01:49:40Z</time></trkpt>
<trkpt lat="33.514581" lon="126.524825"><ele>9.43795</ele><time>2025-09-05T01:49:45Z</time></trkpt>
<trkpt lat="33.51447" lon="126.524822"><ele>9.156813</ele><time>2025-09-05T01:49:50Z</time></trkpt>
<trkpt lat="33.514363" lon="126.52482"><ele>9.447551</ele><time>2025-09-05T01:49:55Z</time></trkpt>
<trkpt lat="33.514268" lon="126.524814"><ele>10.26065</ele><time>2025-09-05T01:50:00Z</time></trkpt>
<trkpt lat="33.514166" lon="126.524804"><ele>9.959878</ele><time>2025-09-05T01:50:05Z</time></trkpt>
<trkpt lat="33.514074" lon="126.524817"><ele>10.297693</ele><time>2025-09-05T01:50:10Z</time></trkpt>
<trkpt lat="33.513979" lon="126.524812"><ele>10.634232</ele><time>2025-09-05T01:50:14Z</time></trkpt>
<trkpt lat="33.513876" lon="126.524799"><ele>10.575194</ele><time>2025-09-05T01:50:18Z</time></trkpt>
<trkpt lat="33.513779" lon="126.524806"><ele>12.006112</ele><time>2025-09-05T01:50:22Z</time></trkpt>
<trkpt lat="33.513661" lon="126.524807"><ele>11.555875</ele><time>2025-09-05T01:50:27Z</time></trkpt>
<trkpt lat="33.513559" lon="126.524795"><ele>10.439124</ele><time>2025-09-05T01:50:32Z</time></trkpt>
<trkpt lat="33.513456" lon="126.524812"><ele>10.718022</ele><time>2025-09-05T01:50:37Z</time></trkpt>
<trkpt lat="33.51339" lon="126.524903"><ele>10.764964</ele><time>2025-09-05T01:50:43Z</time></trkpt>
<trkpt lat="33.513326" lon="126.524999"><ele>10.323454</ele><time>2025-09-05T01:50:48Z</time></trkpt>
<trkpt lat="33.513232" lon="126.525032"><ele>12.16953</ele><time>2025-09-05T01:50:51Z</time></trkpt>
<trkpt lat="33.513216" lon="126.525147"><ele>11.238502</ele><time>2025-09-05T01:50:56Z</time></trkpt>
<trkpt lat="33.513207" lon="126.525267"><ele>7.11333</ele><time>2025-09-05T01:51:01Z</time></trkpt>
<trkpt lat="33.513203" lon="126.52539"><ele>8.034277</ele><time>2025-09-05T01:51:06Z</time></trkpt>
<trkpt lat="33.513187" lon="126.5255"><ele>10.535353</ele><time>2025-09-05T01:51:10Z</time></trkpt>
<trkpt lat="33.513205" lon="126.525608"><ele>10.984204</ele><time>2025-09-05T01:51:14Z</time></trkpt>
<trkpt lat="33.513181" lon="126.525735"><ele>11.083615</ele><time>2025-09-05T01:51:18Z</time></trkpt>
<trkpt lat="33.513185" lon="126.525856"><ele>11.006114</ele><time>2025-09-05T01:51:22Z</time></trkpt>
<trkpt lat="33.513167" lon="126.525995"><ele>10.732598</ele><time>2025-09-05T01:51:27Z</time></trkpt>
<trkpt lat="33.513176" lon="126.526123"><ele>11.223433</ele><time>2025-09-05T01:51:32Z</time></trkpt>
<trkpt lat="33.513166" lon="126.526242"><ele>11.182586</ele><time>2025-09-05T01:51:36Z</time></trkpt>
<trkpt lat="33.513167" lon="126.526367"><ele>11.606697</ele><time>2025-09-05T01:51:40Z</time></trkpt>
<trkpt lat="33.513157" lon="126.526481"><ele>11.207555</ele><time>2025-09-05T01:51:44Z</time></trkpt>
<trkpt lat="33.513163" lon="126.526599"><ele>11.222567</ele><time>2025-09-05T01:51:48Z</time></trkpt>
<trkpt lat="33.513168" lon="126.526718"><ele>10.191953</ele><time>2025-09-05T01:51:52Z</time></trkpt>
<trkpt lat="33.513153" lon="126.526834"><ele>11.082722</ele><time>2025-09-05T01:51:56Z</time></trkpt>
<trkpt lat="33.513254" lon="126.526879"><ele>13.094098</ele><time>2025-09-05T01:52:02Z</time></trkpt>
<trkpt lat="33.513355" lon="126.526867"><ele>11.760234</ele><time>2025-09-05T01:52:06Z</time></trkpt>
<trkpt lat="33.513455" lon="126.526869"><ele>11.019813</ele><time>2025-09-05T01:52:11Z</time></trkpt>
<trkpt lat="33.513559" lon="126.526882"><ele>10.109962</ele><time>2025-09-05T01:52:16Z</time></trkpt>
<trkpt lat="33.513664" lon="126.526884"><ele>9.287546</ele><time>2025-09-05T01:52:21Z</time></trkpt>
<trkpt lat="33.513752" lon="126.526852"><ele>10.403228</ele><time>2025-09-05T01:52:26Z</time></trkpt>
<trkpt lat="33.513839" lon="126.526815"><ele>10.261752</ele><time>2025-09-05T01:52:30Z</time></trkpt>
<trkpt lat="33.513939" lon="126.526788"><ele>9.685974</ele><time>2025-09-05T01:52:35Z</time></trkpt>
<trkpt lat="33.514038" lon="126.526743"><ele>10.741939</ele><time>2025-09-05T01:52:40Z</time></trkpt>
<trkpt lat="33.514134" lon="126.526714"><ele>9.727757</ele><time>2025-09-05T01:52:44Z</time></trkpt>
<trkpt lat="33.51423" lon="126.52669"><ele>8.693659</ele><time>2025-09-05T01:52:48Z</time></trkpt>
<trkpt lat="33.514326" lon="126.526705"><ele>8.853163</ele><time>2025-09-05T01:52:53Z</time></trkpt>
<trkpt lat="33.51444" lon="126.526713"><ele>7.680247</ele><time>2025-09-05T01:52:57Z</time></trkpt>
<trkpt lat="33.51456" lon="126.526718"><ele>8.503749</ele><time>2025-09-05T01:53:01Z</time></trkpt>
<trkpt lat="33.514667" lon="126.526751"><ele>9.629436</ele><time>2025-09-05T01:53:05Z</time></trkpt>
<trkpt lat="33.514764" lon="126.526749"><ele>9.092294</ele><time>2025-09-05T01:53:08Z</time></trkpt>
<trkpt lat="33.514864" lon="126.526756"><ele>8.663837</ele><time>2025-09-05T01:53:13Z</time></trkpt>
<trkpt lat="33.51496" lon="126.526767"><ele>8.82456</ele><time>2025-09-05T01:53:17Z</time></trkpt>
<trkpt lat="33.515047" lon="126.526806"><ele>7.307998</ele><time>2025-09-05T01:53:22Z</time></trkpt>
<trkpt lat="33.515156" lon="126.526827"><ele>8.988763</ele><time>2025-09-05T01:53:27Z</time></trkpt>
<trkpt lat="33.515261" lon="126.526825"><ele>8.445159</ele><time>2025-09-05T01:53:31Z</time></trkpt>
<trkpt lat="33.515366" lon="126.526851"><ele>7.371338</ele><time>2025-09-05T01:53:41Z</time></trkpt>
<trkpt lat="33.515465" lon="126.526831"><ele>8.03907</ele><time>2025-09-05T01:53:52Z</time></trkpt>
<trkpt lat="33.515549" lon="126.526873"><ele>6.653857</ele><time>2025-09-05T01:53:58Z</time></trkpt>
<trkpt lat="33.51564" lon="126.526878"><ele>7.84643</ele><time>2025-09-05T01:54:06Z</time></trkpt>
<trkpt lat="33.515738" lon="126.526861"><ele>7.625605</ele><time>2025-09-05T01:54:16Z</time></trkpt>
<trkpt lat="33.515838" lon="126.526895"><ele>9.265725</ele><time>2025-09-05T01:54:25Z</time></trkpt>
<trkpt lat="33.515935" lon="126.526891"><ele>8.060207</ele><time>2025-09-05T01:54:31Z</time></trkpt>
<trkpt lat="33.516025" lon="126.526913"><ele>7.267041</ele><time>2025-09-05T01:54:39Z</time></trkpt>
<trkpt lat="33.516116" lon="126.526938"><ele>6.300498</ele><time>2025-09-05T01:54:46Z</time></trkpt>
<trkpt lat="33.516218" lon="126.526995"><ele>7.683103</ele><time>2025-09-05T01:54:57Z</time></trkpt>
<trkpt lat="33.516313" lon="126.527017"><ele>5.834156</ele><time>2025-09-05T01:55:03Z</time></trkpt>
<trkpt lat="33.516372" lon="126.526901"><ele>6.033809</ele><time>2025-09-05T01:55:08Z</time></trkpt>
<trkpt lat="33.516399" lon="126.526797"><ele>6.922417</ele><time>2025-09-05T01:55:14Z</time></trkpt>
<trkpt lat="33.516428" lon="126.526686"><ele>6.759188</ele><time>2025-09-05T01:55:22Z</time></trkpt>
<trkpt lat="33.51652" lon="126.526618"><ele>5.128264</ele><time>2025-09-05T01:57:09Z</time></trkpt>
<trkpt lat="33.516611" lon="126.526619"><ele>6.961588</ele><time>2025-09-05T01:57:12Z</time></trkpt>
<trkpt lat="33.516684" lon="126.526536"><ele>4.816928</ele><time>2025-09-05T01:57:19Z</time></trkpt>
<trkpt lat="33.516778" lon="126.526545"><ele>4.741771</ele><time>2025-09-05T01:57:24Z</time></trkpt>
<trkpt lat="33.516875" lon="126.526531"><ele>4.286971</ele><time>2025-09-05T01:57:28Z</time></trkpt>
<trkpt lat="33.516972" lon="126.526519"><ele>3.785573</ele><time>2025-09-05T01:57:32Z</time></trkpt>
<trkpt lat="33.517079" lon="126.526523"><ele>1.80518</ele><time>2025-09-05T01:57:37Z</time></trkpt>
<trkpt lat="33.517178" lon="126.52653"><ele>2.255647</ele><time>2025-09-05T01:57:41Z</time></trkpt>
<trkpt lat="33.517278" lon="126.526525"><ele>3.348954</ele><time>2025-09-05T01:57:45Z</time></trkpt>
<trkpt lat="33.517369" lon="126.526531"><ele>3.124003</ele><time>2025-09-05T01:57:49Z</time></trkpt>
<trkpt lat="33.517465" lon="126.526546"><ele>3.226599</ele><time>2025-09-05T01:57:53Z</time></trkpt>
<trkpt lat="33.517559" lon="126.526589"><ele>1.893928</ele><time>2025-09-05T01:57:58Z</time></trkpt>
<trkpt lat="33.517667" lon="126.526602"><ele>2.518552</ele><time>2025-09-05T01:58:02Z</time></trkpt>
<trkpt lat="33.517573" lon="126.526597"><ele>3.182359</ele><time>2025-09-05T01:58:16Z</time></trkpt>
<trkpt lat="33.517481" lon="126.526606"><ele>3.618273</ele><time>2025-09-05T01:58:20Z</time></trkpt>
<trkpt lat="33.517382" lon="126.526624"><ele>2.492386</ele><time>2025-09-05T01:58:25Z</time></trkpt>
<trkpt lat="33.51729" lon="126.526626"><ele>2.119814</ele><time>2025-09-05T01:58:29Z</time></trkpt>
<trkpt lat="33.517206" lon="126.526585"><ele>1.869472</ele><time>2025-09-05T01:58:32Z</time></trkpt>
<trkpt lat="33.517102" lon="126.526533"><ele>2.452835</ele><time>2025-09-05T01:58:36Z</time></trkpt>
<trkpt lat="33.517002" lon="126.526518"><ele>3.485569</ele><time>2025-09-05T01:58:40Z</time></trkpt>
<trkpt lat="33.51691" lon="126.526511"><ele>4.673149</ele><time>2025-09-05T01:58:44Z</time></trkpt>
<trkpt lat="33.516802" lon="126.526521"><ele>2.851769</ele><time>2025-09-05T01:58:49Z</time></trkpt>
<trkpt lat="33.516712" lon="126.526502"><ele>3.26892</ele><time>2025-09-05T01:58:53Z</time></trkpt>
<trkpt lat="33.516612" lon="126.526529"><ele>6.294212</ele><time>2025-09-05T01:59:43Z</time></trkpt>
<trkpt lat="33.516543" lon="126.5266"><ele>5.917807</ele><time>2025-09-05T01:59:51Z</time></trkpt>
<trkpt lat="33.516452" lon="126.526586"><ele>7.302089</ele><time>2025-09-05T01:59:56Z</time></trkpt>
<trkpt lat="33.516445" lon="126.526457"><ele>6.786104</ele><time>2025-09-05T02:00:02Z</time></trkpt>
<trkpt lat="33.516433" lon="126.526336"><ele>6.91855</ele><time>2025-09-05T02:00:07Z</time></trkpt>
<trkpt lat="33.516441" lon="126.526214"><ele>8.085012</ele><time>2025-09-05T02:00:11Z</time></trkpt>
<trkpt lat="33.516447" lon="126.526089"><ele>6.687137</ele><time>2025-09-05T02:00:16Z</time></trkpt>
<trkpt lat="33.516443" lon="126.525942"><ele>5.921924</ele><time>2025-09-05T02:00:21Z</time></trkpt>
<trkpt lat="33.516443" lon="126.52582"><ele>4.392138</ele><time>2025-09-05T02:00:26Z</time></trkpt>
<trkpt lat="33.51647" lon="126.525699"><ele>3.877687</ele><time>2025-09-05T02:00:30Z</time></trkpt>
<trkpt lat="33.516506" lon="126.525593"><ele>5.03876</ele><time>2025-09-05T02:00:34Z</time></trkpt>
<trkpt lat="33.516528" lon="126.525473"><ele>4.841802</ele><time>2025-09-05T02:00:38Z</time></trkpt>
<trkpt lat="33.516546" lon="126.525359"><ele>5.405559</ele><time>2025-09-05T02:00:42Z</time></trkpt>
<trkpt lat="33.516569" lon="126.52525"><ele>4.756794</ele><time>2025-09-05T02:00:46Z</time></trkpt>
<trkpt lat="33.516593" lon="126.525142"><ele>5.418643</ele><time>2025-09-05T02:00:50Z</time></trkpt>
<trkpt lat="33.516614" lon="126.525011"><ele>5.015101</ele><time>2025-09-05T02:00:55Z</time></trkpt>
<trkpt lat="33.516619" lon="126.524871"><ele>4.282048</ele><time>2025-09-05T02:01:55Z</time></trkpt>
<trkpt lat="33.51666" lon="126.524756"><ele>4.886926</ele><time>2025-09-05T02:01:59Z</time></trkpt>
<trkpt lat="33.516709" lon="126.524657"><ele>4.410811</ele><time>2025-09-05T02:02:04Z</time></trkpt>
<trkpt lat="33.516724" lon="126.524548"><ele>4.86327</ele><time>2025-09-05T02:02:08Z</time></trkpt>
<trkpt lat="33.516738" lon="126.52444"><ele>4.948916</ele><time>2025-09-05T02:02:11Z</time></trkpt>
<trkpt lat="33.516771" lon="126.524338"><ele>6.057486</ele><time>2025-09-05T02:02:15Z</time></trkpt>
<trkpt lat="33.516809" lon="126.52424"><ele>6.942444</ele><time>2025-09-05T02:02:19Z</time></trkpt>
<trkpt lat="33.516827" lon="126.524133"><ele>6.668408</ele><time>2025-09-05T02:02:23Z</time></trkpt>
<trkpt lat="33.516876" lon="126.524009"><ele>5.927288</ele><time>2025-09-05T02:02:29Z</time></trkpt>
<trkpt lat="33.51691" lon="126.523881"><ele>6.043824</ele><time>2025-09-05T02:02:34Z</time></trkpt>
<trkpt lat="33.516945" lon="126.523781"><ele>6.055666</ele><time>2025-09-05T02:02:38Z</time></trkpt>
<trkpt lat="33.516962" lon="126.523635"><ele>5.886476</ele><time>2025-09-05T02:02:43Z</time></trkpt>
<trkpt lat="33.516993" lon="126.523512"><ele>5.660451</ele><time>2025-09-05T02:02:53Z</time></trkpt>
<trkpt lat="33.517042" lon="126.523408"><ele>3.186993</ele><time>2025-09-05T02:03:13Z</time></trkpt>
<trkpt lat="33.517061" lon="126.523296"><ele>4.451878</ele><time>2025-09-05T02:03:17Z</time></trkpt>
<trkpt lat="33.517079" lon="126.523187"><ele>5.168328</ele><time>2025-09-05T02:03:22Z</time></trkpt>
<trkpt lat="33.517101" lon="126.523081"><ele>5.684624</ele><time>2025-09-05T02:03:26Z</time></trkpt>
<trkpt lat="33.517122" lon="126.522961"><ele>6.211434</ele><time>2025-09-05T02:03:31Z</time></trkpt>
<trkpt lat="33.517167" lon="126.522853"><ele>6.979565</ele><time>2025-09-05T02:03:38Z</time></trkpt>
</trkseg>
</trk>
</gpx>
