<?xml version="1.0" encoding="UTF-8"?>
<gpx xmlns="http://www.topografix.com/GPX/1/1" creator="MTK - http://www.toursprung.com" version="1.1" xmlns:xsi="http://www.w3.org/2001/XMLSchema-instance" xsi:schemaLocation="http://www.topografix.com/GPX/1/1 http://www.topografix.com/GPX/1/1/gpx.xsd">
<metadata>
<name>사계해안도로 6.2km</name>
<extensions><extra>{}</extra></extensions>
</metadata>

<trk>
<name>사계해안도로 6.2km</name>
<trkseg>
<trkpt lat="33.228490" lon="126.306410" sectionIndex="0" pointIndex="0" originalElevation="2.0" isOriginalElevationFromOSM="false" isAnchor="false"><ele>2.5</ele></trkpt>
<trkpt lat="33.228490" lon="126.306380" sectionIndex="0" pointIndex="1" originalElevation="2.0" isOriginalElevationFromOSM="false" isAnchor="false"><ele>2.6</ele></trkpt>
<trkpt lat="33.228240" lon="126.305440" sectionIndex="0" pointIndex="2" originalElevation="3.0" isOriginalElevationFromOSM="false" isAnchor="false"><ele>2.8</ele></trkpt>
<trkpt lat="33.228060" lon="126.305120" sectionIndex="0" pointIndex="3" originalElevation="0.0" isOriginalElevationFromOSM="false" isAnchor="false"><ele>2.9</ele></trkpt>
<trkpt lat="33.227990" lon="126.304870" sectionIndex="0" pointIndex="4" originalElevation="0.0" isOriginalElevationFromOSM="false" isAnchor="false"><ele>3.0</ele></trkpt>
<trkpt lat="33.227880" lon="126.304440" sectionIndex="0" pointIndex="5" originalElevation="2.0" isOriginalElevationFromOSM="false" isAnchor="false"><ele>3.1</ele></trkpt>
<trkpt lat="33.227680" lon="126.303770" sectionIndex="0" pointIndex="6" originalElevation="2.5" isOriginalElevationFromOSM="false" isAnchor="false"><ele>3.2</ele></trkpt>
<trkpt lat="33.227680" lon="126.303770" sectionIndex="0" pointIndex="7" originalElevation="2.5" isOriginalElevationFromOSM="false" isAnchor="false"><ele>3.3</ele></trkpt>
<trkpt lat="33.227380" lon="126.302560" sectionIndex="0" pointIndex="8" originalElevation="6.0" isOriginalElevationFromOSM="false" isAnchor="false"><ele>3.5</ele></trkpt>
<trkpt lat="33.227090" lon="126.301570" sectionIndex="0" pointIndex="9" originalElevation="0.0" isOriginalElevationFromOSM="false" isAnchor="false"><ele>3.6</ele></trkpt>
<trkpt lat="33.226960" lon="126.301250" sectionIndex="0" pointIndex="10" originalElevation="6.0" isOriginalElevationFromOSM="false" isAnchor="false"><ele>3.7</ele></trkpt>
<trkpt lat="33.226810" lon="126.301050" sectionIndex="0" pointIndex="11" originalElevation="6.0" isOriginalElevationFromOSM="false" isAnchor="false"><ele>3.9</ele></trkpt>
<trkpt lat="33.226810" lon="126.301050" sectionIndex="0" pointIndex="12" originalElevation="6.0" isOriginalElevationFromOSM="false" isAnchor="false"><ele>4.0</ele></trkpt>
<trkpt lat="33.226790" lon="126.301020" sectionIndex="0" pointIndex="13" originalElevation="6.0" isOriginalElevationFromOSM="false" isAnchor="false"><ele>4.1</ele></trkpt>
<trkpt lat="33.226260" lon="126.300500" sectionIndex="0" pointIndex="14" originalElevation="6.0" isOriginalElevationFromOSM="false" isAnchor="false"><ele>4.2</ele></trkpt>
<trkpt lat="33.225380" lon="126.299780" sectionIndex="0" pointIndex="15" originalElevation="2.0" isOriginalElevationFromOSM="false" isAnchor="false"><ele>4.3</ele></trkpt>
<trkpt lat="33.225190" lon="126.299560" sectionIndex="0" pointIndex="16" originalElevation="5.0" isOriginalElevationFromOSM="false" isAnchor="false"><ele>4.4</ele></trkpt>
<trkpt lat="33.224370" lon="126.298150" sectionIndex="0" pointIndex="17" originalElevation="4.5" isOriginalElevationFromOSM="false" isAnchor="false"><ele>4.5</ele></trkpt>
<trkpt lat="33.224370" lon="126.298150" sectionIndex="0" pointIndex="18" originalElevation="4.5" isOriginalElevationFromOSM="false" isAnchor="false"><ele>4.6</ele></trkpt>
<trkpt lat="33.223740" lon="126.297080" sectionIndex="0" pointIndex="19" originalElevation="4.0" isOriginalElevationFromOSM="false" isAnchor="false"><ele>4.7</ele></trkpt>
<trkpt lat="33.222830" lon="126.295470" sectionIndex="0" pointIndex="20" originalElevation="4.0" isOriginalElevationFromOSM="false" isAnchor="false"><ele>4.8</ele></trkpt>
<trkpt lat="33.222470" lon="126.295020" sectionIndex="0" pointIndex="21" originalElevation="4.0" isOriginalElevationFromOSM="false" isAnchor="false"><ele>4.9</ele></trkpt>
<trkpt lat="33.222290" lon="126.294830" sectionIndex="0" pointIndex="22" originalElevation="1.0" isOriginalElevationFromOSM="false" isAnchor="false"><ele>5.0</ele></trkpt>
<trkpt lat="33.222150" lon="126.294750" sectionIndex="0" pointIndex="23" originalElevation="5.0" isOriginalElevationFromOSM="false" isAnchor="false"><ele>5.0</ele></trkpt>
<trkpt lat="33.222150" lon="126.294750" sectionIndex="0" pointIndex="24" originalElevation="5.0" isOriginalElevationFromOSM="false" isAnchor="false"><ele>5.1</ele></trkpt>
<trkpt lat="33.222100" lon="126.294720" sectionIndex="0" pointIndex="25" originalElevation="9.0" isOriginalElevationFromOSM="false" isAnchor="false"><ele>5.1</ele></trkpt>
<trkpt lat="33.221650" lon="126.294620" sectionIndex="0" pointIndex="26" originalElevation="9.0" isOriginalElevationFromOSM="false" isAnchor="false"><ele>5.2</ele></trkpt>
<trkpt lat="33.220410" lon="126.294390" sectionIndex="0" pointIndex="27" originalElevation="5.0" isOriginalElevationFromOSM="false" isAnchor="false"><ele>5.2</ele></trkpt>
<trkpt lat="33.220070" lon="126.294300" sectionIndex="0" pointIndex="28" originalElevation="5.0" isOriginalElevationFromOSM="false" isAnchor="false"><ele>5.1</ele></trkpt>
<trkpt lat="33.218590" lon="126.293860" sectionIndex="0" pointIndex="29" originalElevation="7.0" isOriginalElevationFromOSM="false" isAnchor="false"><ele>5.1</ele></trkpt>
<trkpt lat="33.217970" lon="126.293570" sectionIndex="0" pointIndex="30" originalElevation="5.5" isOriginalElevationFromOSM="false" isAnchor="false"><ele>5.1</ele></trkpt>
<trkpt lat="33.217970" lon="126.293570" sectionIndex="0" pointIndex="31" originalElevation="5.5" isOriginalElevationFromOSM="false" isAnchor="false"><ele>5.0</ele></trkpt>
<trkpt lat="33.217260" lon="126.293240" sectionIndex="0" pointIndex="32" originalElevation="4.0" isOriginalElevationFromOSM="false" isAnchor="false"><ele>5.0</ele></trkpt>
<trkpt lat="33.216940" lon="126.293180" sectionIndex="0" pointIndex="33" originalElevation="4.0" isOriginalElevationFromOSM="false" isAnchor="false"><ele>4.9</ele></trkpt>
<trkpt lat="33.216510" lon="126.293260" sectionIndex="0" pointIndex="34" originalElevation="4.0" isOriginalElevationFromOSM="false" isAnchor="false"><ele>4.8</ele></trkpt>
<trkpt lat="33.216290" lon="126.293370" sectionIndex="0" pointIndex="35" originalElevation="6.0" isOriginalElevationFromOSM="false" isAnchor="false"><ele>4.7</ele></trkpt>
<trkpt lat="33.216120" lon="126.293610" sectionIndex="0" pointIndex="36" originalElevation="6.0" isOriginalElevationFromOSM="false" isAnchor="false"><ele>4.6</ele></trkpt>
<trkpt lat="33.215870" lon="126.293790" sectionIndex="0" pointIndex="37" originalElevation="6.0" isOriginalElevationFromOSM="false" isAnchor="false"><ele>4.5</ele></trkpt>
<trkpt lat="33.215430" lon="126.294070" sectionIndex="0" pointIndex="38" originalElevation="4.0" isOriginalElevationFromOSM="false" isAnchor="false"><ele>4.4</ele></trkpt>
<trkpt lat="33.215270" lon="126.294140" sectionIndex="0" pointIndex="39" originalElevation="4.0" isOriginalElevationFromOSM="false" isAnchor="false"><ele>4.3</ele></trkpt>
<trkpt lat="33.215100" lon="126.294170" sectionIndex="0" pointIndex="40" originalElevation="4.0" isOriginalElevationFromOSM="false" isAnchor="false"><ele>4.2</ele></trkpt>
<trkpt lat="33.215100" lon="126.294170" sectionIndex="0" pointIndex="41" originalElevation="4.0" isOriginalElevationFromOSM="false" isAnchor="false"><ele>4.1</ele></trkpt>
<trkpt lat="33.215060" lon="126.294180" sectionIndex="0" pointIndex="42" originalElevation="4.0" isOriginalElevationFromOSM="false" isAnchor="false"><ele>4.0</ele></trkpt>
<trkpt lat="33.214630" lon="126.294100" sectionIndex="0" pointIndex="43" originalElevation="2.0" isOriginalElevationFromOSM="false" isAnchor="false"><ele>4.0</ele></trkpt>
<trkpt lat="33.214450" lon="126.294050" sectionIndex="0" pointIndex="44" originalElevation="2.0" isOriginalElevationFromOSM="false" isAnchor="false"><ele>4.0</ele></trkpt>
<trkpt lat="33.214290" lon="126.293950" sectionIndex="0" pointIndex="45" originalElevation="2.0" isOriginalElevationFromOSM="false" isAnchor="false"><ele>3.9</ele></trkpt>
<trkpt lat="33.213790" lon="126.293370" sectionIndex="0" pointIndex="46" originalElevation="2.0" isOriginalElevationFromOSM="false" isAnchor="false"><ele>3.9</ele></trkpt>
<trkpt lat="33.213090" lon="126.292890" sectionIndex="0" pointIndex="47" originalElevation="4.0" isOriginalElevationFromOSM="false" isAnchor="false"><ele>4.0</ele></trkpt>
<trkpt lat="33.212260" lon="126.292420" sectionIndex="0" pointIndex="48" originalElevation="3.5" isOriginalElevationFromOSM="false" isAnchor="false"><ele>4.0</ele></trkpt>
<trkpt lat="33.212260" lon="126.292420" sectionIndex="0" pointIndex="49" originalElevation="3.5" isOriginalElevationFromOSM="false" isAnchor="false"><ele>4.1</ele></trkpt>
<trkpt lat="33.211780" lon="126.292210" sectionIndex="0" pointIndex="50" originalElevation="5.0" isOriginalElevationFromOSM="false" isAnchor="false"><ele>4.2</ele></trkpt>
<trkpt lat="33.211060" lon="126.291980" sectionIndex="0" pointIndex="51" originalElevation="5.0" isOriginalElevationFromOSM="false" isAnchor="false"><ele>4.3</ele></trkpt>
<trkpt lat="33.210620" lon="126.291820" sectionIndex="0" pointIndex="52" originalElevation="5.0" isOriginalElevationFromOSM="false" isAnchor="false"><ele>4.4</ele></trkpt>
<trkpt lat="33.210210" lon="126.291660" sectionIndex="0" pointIndex="53" originalElevation="5.0" isOriginalElevationFromOSM="false" isAnchor="false"><ele>4.4</ele></trkpt>
<trkpt lat="33.209700" lon="126.291550" sectionIndex="0" pointIndex="54" originalElevation="2.0" isOriginalElevationFromOSM="false" isAnchor="false"><ele>4.5</ele></trkpt>
<trkpt lat="33.208940" lon="126.291470" sectionIndex="0" pointIndex="55" originalElevation="3.0" isOriginalElevationFromOSM="false" isAnchor="false"><ele>4.6</ele></trkpt>
<trkpt lat="33.208150" lon="126.291370" sectionIndex="0" pointIndex="56" originalElevation="7.0" isOriginalElevationFromOSM="false" isAnchor="false"><ele>4.7</ele></trkpt>
<trkpt lat="33.207880" lon="126.291310" sectionIndex="0" pointIndex="57" originalElevation="7.0" isOriginalElevationFromOSM="false" isAnchor="false"><ele>4.8</ele></trkpt>
<trkpt lat="33.207700" lon="126.291250" sectionIndex="0" pointIndex="58" originalElevation="7.0" isOriginalElevationFromOSM="false" isAnchor="false"><ele>4.8</ele></trkpt>
<trkpt lat="33.207510" lon="126.291120" sectionIndex="0" pointIndex="59" originalElevation="7.0" isOriginalElevationFromOSM="false" isAnchor="false"><ele>4.9</ele></trkpt>
<trkpt lat="33.207240" lon="126.290710" sectionIndex="0" pointIndex="60" originalElevation="2.0" isOriginalElevationFromOSM="false" isAnchor="false"><ele>4.9</ele></trkpt>
<trkpt lat="33.207210" lon="126.290730" sectionIndex="0" pointIndex="61" originalElevation="2.0" isOriginalElevationFromOSM="false" isAnchor="false"><ele>4.9</ele></trkpt>
<trkpt lat="33.207510" lon="126.291140" sectionIndex="0" pointIndex="62" originalElevation="7.0" isOriginalElevationFromOSM="false" isAnchor="false"><ele>4.9</ele></trkpt>
<trkpt lat="33.207600" lon="126.291200" sectionIndex="0" pointIndex="63" originalElevation="7.0" isOriginalElevationFromOSM="false" isAnchor="false"><ele>4.9</ele></trkpt>
<trkpt lat="33.207600" lon="126.291200" sectionIndex="0" pointIndex="64" originalElevation="7.0" isOriginalElevationFromOSM="false" isAnchor="false"><ele>4.8</ele></trkpt>
<trkpt lat="33.207690" lon="126.291280" sectionIndex="0" pointIndex="65" originalElevation="7.0" isOriginalElevationFromOSM="false" isAnchor="false"><ele>4.7</ele></trkpt>
<trkpt lat="33.207880" lon="126.291340" sectionIndex="0" pointIndex="66" originalElevation="7.0" isOriginalElevationFromOSM="false" isAnchor="false"><ele>4.6</ele></trkpt>
<trkpt lat="33.208160" lon="126.291500" sectionIndex="0" pointIndex="67" originalElevation="1.0" isOriginalElevationFromOSM="false" isAnchor="false"><ele>4.5</ele></trkpt>
<trkpt lat="33.209060" lon="126.291500" sectionIndex="0" pointIndex="68" originalElevation="2.0" isOriginalElevationFromOSM="false" isAnchor="false"><ele>4.4</ele></trkpt>
<trkpt lat="33.209700" lon="126.291570" sectionIndex="0" pointIndex="69" originalElevation="2.0" isOriginalElevationFromOSM="false" isAnchor="false"><ele>4.3</ele></trkpt>
<trkpt lat="33.210210" lon="126.291670" sectionIndex="0" pointIndex="70" originalElevation="5.0" isOriginalElevationFromOSM="false" isAnchor="false"><ele>4.2</ele></trkpt>
<trkpt lat="33.210500" lon="126.291800" sectionIndex="0" pointIndex="71" originalElevation="5.0" isOriginalElevationFromOSM="false" isAnchor="false"><ele>4.1</ele></trkpt>
<trkpt lat="33.211230" lon="126.292040" sectionIndex="0" pointIndex="72" originalElevation="5.0" isOriginalElevationFromOSM="false" isAnchor="false"><ele>4.0</ele></trkpt>
<trkpt lat="33.211230" lon="126.292040" sectionIndex="0" pointIndex="73" originalElevation="5.0" isOriginalElevationFromOSM="false" isAnchor="false"><ele>3.9</ele></trkpt>
<trkpt lat="33.211740" lon="126.292210" sectionIndex="0" pointIndex="74" originalElevation="5.0" isOriginalElevationFromOSM="false" isAnchor="false"><ele>3.8</ele></trkpt>
<trkpt lat="33.212220" lon="126.292430" sectionIndex="0" pointIndex="75" originalElevation="3.0" isOriginalElevationFromOSM="false" isAnchor="false"><ele>3.7</ele></trkpt>
<trkpt lat="33.213080" lon="126.292910" sectionIndex="0" pointIndex="76" originalElevation="4.0" isOriginalElevationFromOSM="false" isAnchor="false"><ele>3.7</ele></trkpt>
<trkpt lat="33.213780" lon="126.293380" sectionIndex="0" pointIndex="77" originalElevation="2.0" isOriginalElevationFromOSM="false" isAnchor="false"><ele>3.7</ele></trkpt>
<trkpt lat="33.213820" lon="126.293420" sectionIndex="0" pointIndex="78" originalElevation="2.0" isOriginalElevationFromOSM="false" isAnchor="false"><ele>3.7</ele></trkpt>
<trkpt lat="33.213820" lon="126.293420" sectionIndex="0" pointIndex="79" originalElevation="2.0" isOriginalElevationFromOSM="false" isAnchor="false"><ele>3.7</ele></trkpt>
<trkpt lat="33.214270" lon="126.293960" sectionIndex="0" pointIndex="80" originalElevation="2.0" isOriginalElevationFromOSM="false" isAnchor="false"><ele>3.7</ele></trkpt>
<trkpt lat="33.214450" lon="126.294060" sectionIndex="0" pointIndex="81" originalElevation="2.0" isOriginalElevationFromOSM="false" isAnchor="false"><ele>3.8</ele></trkpt>
<trkpt lat="33.214740" lon="126.294190" sectionIndex="0" pointIndex="82" originalElevation="2.0" isOriginalElevationFromOSM="false" isAnchor="false"><ele>3.9</ele></trkpt>
<trkpt lat="33.215070" lon="126.294220" sectionIndex="0" pointIndex="83" originalElevation="4.0" isOriginalElevationFromOSM="false" isAnchor="false"><ele>4.0</ele></trkpt>
<trkpt lat="33.215290" lon="126.294160" sectionIndex="0" pointIndex="84" originalElevation="4.0" isOriginalElevationFromOSM="false" isAnchor="false"><ele>4.2</ele></trkpt>
<trkpt lat="33.215430" lon="126.294100" sectionIndex="0" pointIndex="85" originalElevation="4.0" isOriginalElevationFromOSM="false" isAnchor="false"><ele>4.3</ele></trkpt>
<trkpt lat="33.215650" lon="126.293960" sectionIndex="0" pointIndex="86" originalElevation="5.0" isOriginalElevationFromOSM="false" isAnchor="false"><ele>4.5</ele></trkpt>
<trkpt lat="33.215650" lon="126.293960" sectionIndex="0" pointIndex="87" originalElevation="5.0" isOriginalElevationFromOSM="false" isAnchor="false"><ele>4.6</ele></trkpt>
<trkpt lat="33.215820" lon="126.293850" sectionIndex="0" pointIndex="88" originalElevation="5.0" isOriginalElevationFromOSM="false" isAnchor="false"><ele>4.8</ele></trkpt>
<trkpt lat="33.215820" lon="126.293850" sectionIndex="0" pointIndex="89" originalElevation="6.0" isOriginalElevationFromOSM="false" isAnchor="false"><ele>4.9</ele></trkpt>
<trkpt lat="33.215861" lon="126.293829" sectionIndex="0" pointIndex="90" originalElevation="6.0" isOriginalElevationFromOSM="false" isAnchor="false"><ele>5.1</ele></trkpt>
<trkpt lat="33.215903" lon="126.293808" sectionIndex="0" pointIndex="91" originalElevation="6.0" isOriginalElevationFromOSM="false" isAnchor="false"><ele>5.2</ele></trkpt>
<trkpt lat="33.215944" lon="126.293787" sectionIndex="0" pointIndex="92" originalElevation="6.0" isOriginalElevationFromOSM="false" isAnchor="false"><ele>5.3</ele></trkpt>
<trkpt lat="33.215985" lon="126.293766" sectionIndex="0" pointIndex="93" originalElevation="6.0" isOriginalElevationFromOSM="false" isAnchor="false"><ele>5.5</ele></trkpt>
<trkpt lat="33.216027" lon="126.293745" sectionIndex="0" pointIndex="94" originalElevation="6.0" isOriginalElevationFromOSM="false" isAnchor="false"><ele>5.6</ele></trkpt>
<trkpt lat="33.216037" lon="126.293739" sectionIndex="0" pointIndex="95" originalElevation="6.0" isOriginalElevationFromOSM="false" isAnchor="false"><ele>5.7</ele></trkpt>
<trkpt lat="33.216020" lon="126.293710" sectionIndex="0" pointIndex="96" originalElevation="6.0" isOriginalElevationFromOSM="false" isAnchor="false"><ele>5.8</ele></trkpt>
<trkpt lat="33.216130" lon="126.293630" sectionIndex="0" pointIndex="97" originalElevation="6.0" isOriginalElevationFromOSM="false" isAnchor="false"><ele>5.8</ele></trkpt>
<trkpt lat="33.216150" lon="126.293640" sectionIndex="0" pointIndex="98" originalElevation="6.0" isOriginalElevationFromOSM="false" isAnchor="false"><ele>5.9</ele></trkpt>
<trkpt lat="33.216150" lon="126.293640" sectionIndex="0" pointIndex="99" originalElevation="6.0" isOriginalElevationFromOSM="false" isAnchor="false"><ele>5.9</ele></trkpt>
<trkpt lat="33.216181" lon="126.293602" sectionIndex="0" pointIndex="100" originalElevation="6.0" isOriginalElevationFromOSM="false" isAnchor="false"><ele>5.9</ele></trkpt>
<trkpt lat="33.216213" lon="126.293563" sectionIndex="0" pointIndex="101" originalElevation="6.0" isOriginalElevationFromOSM="false" isAnchor="false"><ele>6.0</ele></trkpt>
<trkpt lat="33.216244" lon="126.293525" sectionIndex="0" pointIndex="102" originalElevation="6.0" isOriginalElevationFromOSM="false" isAnchor="false"><ele>6.0</ele></trkpt>
<trkpt lat="33.216276" lon="126.293486" sectionIndex="0" pointIndex="103" originalElevation="6.0" isOriginalElevationFromOSM="false" isAnchor="false"><ele>6.0</ele></trkpt>
<trkpt lat="33.216307" lon="126.293448" sectionIndex="0" pointIndex="104" originalElevation="6.0" isOriginalElevationFromOSM="false" isAnchor="false"><ele>6.0</ele></trkpt>
<trkpt lat="33.216315" lon="126.293439" sectionIndex="0" pointIndex="105" originalElevation="6.0" isOriginalElevationFromOSM="false" isAnchor="false"><ele>6.0</ele></trkpt>
<trkpt lat="33.216315" lon="126.293439" sectionIndex="0" pointIndex="106" originalElevation="6.0" isOriginalElevationFromOSM="false" isAnchor="false"><ele>6.1</ele></trkpt>
<trkpt lat="33.216349" lon="126.293405" sectionIndex="0" pointIndex="107" originalElevation="6.0" isOriginalElevationFromOSM="false" isAnchor="false"><ele>6.1</ele></trkpt>
<trkpt lat="33.216384" lon="126.293370" sectionIndex="0" pointIndex="108" originalElevation="6.0" isOriginalElevationFromOSM="false" isAnchor="false"><ele>6.1</ele></trkpt>
<trkpt lat="33.216419" lon="126.293336" sectionIndex="0" pointIndex="109" originalElevation="6.0" isOriginalElevationFromOSM="false" isAnchor="false"><ele>6.1</ele></trkpt>
<trkpt lat="33.216453" lon="126.293302" sectionIndex="0" pointIndex="110" originalElevation="6.0" isOriginalElevationFromOSM="false" isAnchor="false"><ele>6.2</ele></trkpt>
<trkpt lat="33.216481" lon="126.293275" sectionIndex="0" pointIndex="111" originalElevation="6.0" isOriginalElevationFromOSM="false" isAnchor="false"><ele>6.2</ele></trkpt>
<trkpt lat="33.216481" lon="126.293275" sectionIndex="0" pointIndex="112" originalElevation="6.0" isOriginalElevationFromOSM="false" isAnchor="false"><ele>6.3</ele></trkpt>
<trkpt lat="33.216525" lon="126.293266" sectionIndex="0" pointIndex="113" originalElevation="6.0" isOriginalElevationFromOSM="false" isAnchor="false"><ele>6.3</ele></trkpt>
<trkpt lat="33.216570" lon="126.293258" sectionIndex="0" pointIndex="114" originalElevation="6.0" isOriginalElevationFromOSM="false" isAnchor="false"><ele>6.4</ele></trkpt>
<trkpt lat="33.216614" lon="126.293249" sectionIndex="0" pointIndex="115" originalElevation="6.0" isOriginalElevationFromOSM="false" isAnchor="false"><ele>6.4</ele></trkpt>
<trkpt lat="33.216658" lon="126.293241" sectionIndex="0" pointIndex="116" originalElevation="6.0" isOriginalElevationFromOSM="false" isAnchor="false"><ele>6.5</ele></trkpt>
<trkpt lat="33.216703" lon="126.293232" sectionIndex="0" pointIndex="117" originalElevation="7.0" isOriginalElevationFromOSM="false" isAnchor="false"><ele>6.5</ele></trkpt>
<trkpt lat="33.216747" lon="126.293224" sectionIndex="0" pointIndex="118" originalElevation="7.0" isOriginalElevationFromOSM="false" isAnchor="false"><ele>6.6</ele></trkpt>
<trkpt lat="33.216792" lon="126.293215" sectionIndex="0" pointIndex="119" originalElevation="7.0" isOriginalElevationFromOSM="false" isAnchor="false"><ele>6.6</ele></trkpt>
<trkpt lat="33.216836" lon="126.293207" sectionIndex="0" pointIndex="120" originalElevation="7.0" isOriginalElevationFromOSM="false" isAnchor="false"><ele>6.6</ele></trkpt>
<trkpt lat="33.216880" lon="126.293198" sectionIndex="0" pointIndex="121" originalElevation="7.0" isOriginalElevationFromOSM="false" isAnchor="false"><ele>6.6</ele></trkpt>
<trkpt lat="33.216925" lon="126.293190" sectionIndex="0" pointIndex="122" originalElevation="7.0" isOriginalElevationFromOSM="false" isAnchor="false"><ele>6.7</ele></trkpt>
<trkpt lat="33.216958" lon="126.293183" sectionIndex="0" pointIndex="123" originalElevation="7.0" isOriginalElevationFromOSM="false" isAnchor="false"><ele>6.6</ele></trkpt>
<trkpt lat="33.216958" lon="126.293183" sectionIndex="0" pointIndex="124" originalElevation="7.0" isOriginalElevationFromOSM="false" isAnchor="false"><ele>6.6</ele></trkpt>
<trkpt lat="33.217001" lon="126.293200" sectionIndex="0" pointIndex="125" originalElevation="7.0" isOriginalElevationFromOSM="false" isAnchor="false"><ele>6.6</ele></trkpt>
<trkpt lat="33.217044" lon="126.293216" sectionIndex="0" pointIndex="126" originalElevation="7.0" isOriginalElevationFromOSM="false" isAnchor="false"><ele>6.5</ele></trkpt>
<trkpt lat="33.217087" lon="126.293233" sectionIndex="0" pointIndex="127" originalElevation="7.0" isOriginalElevationFromOSM="false" isAnchor="false"><ele>6.5</ele></trkpt>
<trkpt lat="33.217130" lon="126.293249" sectionIndex="0" pointIndex="128" originalElevation="7.0" isOriginalElevationFromOSM="false" isAnchor="false"><ele>6.4</ele></trkpt>
<trkpt lat="33.217172" lon="126.293266" sectionIndex="0" pointIndex="129" originalElevation="7.0" isOriginalElevationFromOSM="false" isAnchor="false"><ele>6.3</ele></trkpt>
<trkpt lat="33.217215" lon="126.293282" sectionIndex="0" pointIndex="130" originalElevation="7.0" isOriginalElevationFromOSM="false" isAnchor="false"><ele>6.2</ele></trkpt>
<trkpt lat="33.217258" lon="126.293298" sectionIndex="0" pointIndex="131" originalElevation="7.0" isOriginalElevationFromOSM="false" isAnchor="false"><ele>6.1</ele></trkpt>
<trkpt lat="33.217301" lon="126.293315" sectionIndex="0" pointIndex="132" originalElevation="7.0" isOriginalElevationFromOSM="false" isAnchor="false"><ele>6.0</ele></trkpt>
<trkpt lat="33.217344" lon="126.293331" sectionIndex="0" pointIndex="133" originalElevation="7.0" isOriginalElevationFromOSM="false" isAnchor="false"><ele>5.9</ele></trkpt>
<trkpt lat="33.217387" lon="126.293348" sectionIndex="0" pointIndex="134" originalElevation="4.0" isOriginalElevationFromOSM="false" isAnchor="false"><ele>5.8</ele></trkpt>
<trkpt lat="33.217429" lon="126.293364" sectionIndex="0" pointIndex="135" originalElevation="4.0" isOriginalElevationFromOSM="false" isAnchor="false"><ele>5.7</ele></trkpt>
<trkpt lat="33.217472" lon="126.293381" sectionIndex="0" pointIndex="136" originalElevation="4.0" isOriginalElevationFromOSM="false" isAnchor="false"><ele>5.6</ele></trkpt>
<trkpt lat="33.217515" lon="126.293397" sectionIndex="0" pointIndex="137" originalElevation="5.0" isOriginalElevationFromOSM="false" isAnchor="false"><ele>5.5</ele></trkpt>
<trkpt lat="33.217558" lon="126.293414" sectionIndex="0" pointIndex="138" originalElevation="5.0" isOriginalElevationFromOSM="false" isAnchor="false"><ele>5.4</ele></trkpt>
<trkpt lat="33.217601" lon="126.293430" sectionIndex="0" pointIndex="139" originalElevation="5.0" isOriginalElevationFromOSM="false" isAnchor="false"><ele>5.3</ele></trkpt>
<trkpt lat="33.217643" lon="126.293446" sectionIndex="0" pointIndex="140" originalElevation="5.0" isOriginalElevationFromOSM="false" isAnchor="false"><ele>5.2</ele></trkpt>
<trkpt lat="33.217686" lon="126.293463" sectionIndex="0" pointIndex="141" originalElevation="5.0" isOriginalElevationFromOSM="false" isAnchor="false"><ele>5.2</ele></trkpt>
<trkpt lat="33.217729" lon="126.293479" sectionIndex="0" pointIndex="142" originalElevation="5.0" isOriginalElevationFromOSM="false" isAnchor="false"><ele>5.1</ele></trkpt>
<trkpt lat="33.217772" lon="126.293496" sectionIndex="0" pointIndex="143" originalElevation="5.0" isOriginalElevationFromOSM="false" isAnchor="false"><ele>5.1</ele></trkpt>
<trkpt lat="33.217815" lon="126.293512" sectionIndex="0" pointIndex="144" originalElevation="5.0" isOriginalElevationFromOSM="false" isAnchor="false"><ele>5.1</ele></trkpt>
<trkpt lat="33.217857" lon="126.293529" sectionIndex="0" pointIndex="145" originalElevation="5.0" isOriginalElevationFromOSM="false" isAnchor="false"><ele>5.1</ele></trkpt>
<trkpt lat="33.217900" lon="126.293545" sectionIndex="0" pointIndex="146" originalElevation="5.0" isOriginalElevationFromOSM="false" isAnchor="false"><ele>5.1</ele></trkpt>
<trkpt lat="33.217943" lon="126.293561" sectionIndex="0" pointIndex="147" originalElevation="5.0" isOriginalElevationFromOSM="false" isAnchor="false"><ele>5.1</ele></trkpt>
<trkpt lat="33.217986" lon="126.293578" sectionIndex="0" pointIndex="148" originalElevation="5.0" isOriginalElevationFromOSM="false" isAnchor="false"><ele>5.2</ele></trkpt>
<trkpt lat="33.217991" lon="126.293580" sectionIndex="0" pointIndex="149" originalElevation="5.0" isOriginalElevationFromOSM="false" isAnchor="false"><ele>5.2</ele></trkpt>
<trkpt lat="33.217991" lon="126.293580" sectionIndex="0" pointIndex="150" originalElevation="5.0" isOriginalElevationFromOSM="false" isAnchor="false"><ele>5.3</ele></trkpt>
<trkpt lat="33.218034" lon="126.293597" sectionIndex="0" pointIndex="151" originalElevation="5.0" isOriginalElevationFromOSM="false" isAnchor="false"><ele>5.4</ele></trkpt>
<trkpt lat="33.218077" lon="126.293613" sectionIndex="0" pointIndex="152" originalElevation="5.0" isOriginalElevationFromOSM="false" isAnchor="false"><ele>5.4</ele></trkpt>
<trkpt lat="33.218120" lon="126.293630" sectionIndex="0" pointIndex="153" originalElevation="5.0" isOriginalElevationFromOSM="false" isAnchor="false"><ele>5.5</ele></trkpt>
<trkpt lat="33.218163" lon="126.293646" sectionIndex="0" pointIndex="154" originalElevation="5.0" isOriginalElevationFromOSM="false" isAnchor="false"><ele>5.6</ele></trkpt>
<trkpt lat="33.218205" lon="126.293663" sectionIndex="0" pointIndex="155" originalElevation="5.0" isOriginalElevationFromOSM="false" isAnchor="false"><ele>5.7</ele></trkpt>
<trkpt lat="33.218248" lon="126.293679" sectionIndex="0" pointIndex="156" originalElevation="5.0" isOriginalElevationFromOSM="false" isAnchor="false"><ele>5.8</ele></trkpt>
<trkpt lat="33.218291" lon="126.293696" sectionIndex="0" pointIndex="157" originalElevation="5.0" isOriginalElevationFromOSM="false" isAnchor="false"><ele>5.9</ele></trkpt>
<trkpt lat="33.218334" lon="126.293712" sectionIndex="0" pointIndex="158" originalElevation="7.0" isOriginalElevationFromOSM="false" isAnchor="false"><ele>6.1</ele></trkpt>
<trkpt lat="33.218377" lon="126.293729" sectionIndex="0" pointIndex="159" originalElevation="7.0" isOriginalElevationFromOSM="false" isAnchor="false"><ele>6.2</ele></trkpt>
<trkpt lat="33.218419" lon="126.293745" sectionIndex="0" pointIndex="160" originalElevation="7.0" isOriginalElevationFromOSM="false" isAnchor="false"><ele>6.3</ele></trkpt>
<trkpt lat="33.218462" lon="126.293762" sectionIndex="0" pointIndex="161" originalElevation="7.0" isOriginalElevationFromOSM="false" isAnchor="false"><ele>6.4</ele></trkpt>
<trkpt lat="33.218505" lon="126.293778" sectionIndex="0" pointIndex="162" originalElevation="7.0" isOriginalElevationFromOSM="false" isAnchor="false"><ele>6.5</ele></trkpt>
<trkpt lat="33.218548" lon="126.293795" sectionIndex="0" pointIndex="163" originalElevation="7.0" isOriginalElevationFromOSM="false" isAnchor="false"><ele>6.6</ele></trkpt>
<trkpt lat="33.218590" lon="126.293811" sectionIndex="0" pointIndex="164" originalElevation="7.0" isOriginalElevationFromOSM="false" isAnchor="false"><ele>6.6</ele></trkpt>
<trkpt lat="33.218633" lon="126.293828" sectionIndex="0" pointIndex="165" originalElevation="7.0" isOriginalElevationFromOSM="false" isAnchor="false"><ele>6.7</ele></trkpt>
<trkpt lat="33.218676" lon="126.293845" sectionIndex="0" pointIndex="166" originalElevation="7.0" isOriginalElevationFromOSM="false" isAnchor="false"><ele>6.7</ele></trkpt>
<trkpt lat="33.218719" lon="126.293861" sectionIndex="0" pointIndex="167" originalElevation="7.0" isOriginalElevationFromOSM="false" isAnchor="false"><ele>6.8</ele></trkpt>
<trkpt lat="33.218762" lon="126.293878" sectionIndex="0" pointIndex="168" originalElevation="7.0" isOriginalElevationFromOSM="false" isAnchor="false"><ele>6.8</ele></trkpt>
<trkpt lat="33.218804" lon="126.293894" sectionIndex="0" pointIndex="169" originalElevation="7.0" isOriginalElevationFromOSM="false" isAnchor="false"><ele>6.8</ele></trkpt>
<trkpt lat="33.218847" lon="126.293911" sectionIndex="0" pointIndex="170" originalElevation="7.0" isOriginalElevationFromOSM="false" isAnchor="false"><ele>6.8</ele></trkpt>
<trkpt lat="33.218890" lon="126.293927" sectionIndex="0" pointIndex="171" originalElevation="7.0" isOriginalElevationFromOSM="false" isAnchor="false"><ele>6.8</ele></trkpt>
<trkpt lat="33.218933" lon="126.293944" sectionIndex="0" pointIndex="172" originalElevation="7.0" isOriginalElevationFromOSM="false" isAnchor="false"><ele>6.8</ele></trkpt>
<trkpt lat="33.218976" lon="126.293960" sectionIndex="0" pointIndex="173" originalElevation="7.0" isOriginalElevationFromOSM="false" isAnchor="false"><ele>6.7</ele></trkpt>
<trkpt lat="33.219018" lon="126.293977" sectionIndex="0" pointIndex="174" originalElevation="7.0" isOriginalElevationFromOSM="false" isAnchor="false"><ele>6.6</ele></trkpt>
<trkpt lat="33.219061" lon="126.293993" sectionIndex="0" pointIndex="175" originalElevation="7.0" isOriginalElevationFromOSM="false" isAnchor="false"><ele>6.6</ele></trkpt>
<trkpt lat="33.219104" lon="126.294010" sectionIndex="0" pointIndex="176" originalElevation="7.0" isOriginalElevationFromOSM="false" isAnchor="false"><ele>6.5</ele></trkpt>
<trkpt lat="33.219138" lon="126.294023" sectionIndex="0" pointIndex="177" originalElevation="7.0" isOriginalElevationFromOSM="false" isAnchor="false"><ele>6.4</ele></trkpt>
<trkpt lat="33.219140" lon="126.294020" sectionIndex="0" pointIndex="178" originalElevation="6.0" isOriginalElevationFromOSM="false" isAnchor="false"><ele>6.3</ele></trkpt>
<trkpt lat="33.220070" lon="126.294300" sectionIndex="0" pointIndex="179" originalElevation="5.0" isOriginalElevationFromOSM="false" isAnchor="false"><ele>6.1</ele></trkpt>
<trkpt lat="33.220410" lon="126.294390" sectionIndex="0" pointIndex="180" originalElevation="5.0" isOriginalElevationFromOSM="false" isAnchor="false"><ele>6.0</ele></trkpt>
<trkpt lat="33.220920" lon="126.294480" sectionIndex="0" pointIndex="181" originalElevation="7.0" isOriginalElevationFromOSM="false" isAnchor="false"><ele>5.9</ele></trkpt>
<trkpt lat="33.220920" lon="126.294480" sectionIndex="0" pointIndex="182" originalElevation="7.0" isOriginalElevationFromOSM="false" isAnchor="false"><ele>5.8</ele></trkpt>
<trkpt lat="33.221650" lon="126.294620" sectionIndex="0" pointIndex="183" originalElevation="9.0" isOriginalElevationFromOSM="false" isAnchor="false"><ele>5.7</ele></trkpt>
<trkpt lat="33.222100" lon="126.294720" sectionIndex="0" pointIndex="184" originalElevation="9.0" isOriginalElevationFromOSM="false" isAnchor="false"><ele>5.5</ele></trkpt>
<trkpt lat="33.222290" lon="126.294830" sectionIndex="0" pointIndex="185" originalElevation="1.0" isOriginalElevationFromOSM="false" isAnchor="false"><ele>5.4</ele></trkpt>
<trkpt lat="33.222430" lon="126.294970" sectionIndex="0" pointIndex="186" originalElevation="4.0" isOriginalElevationFromOSM="false" isAnchor="false"><ele>5.3</ele></trkpt>
<trkpt lat="33.222430" lon="126.294970" sectionIndex="0" pointIndex="187" originalElevation="4.0" isOriginalElevationFromOSM="false" isAnchor="false"><ele>5.1</ele></trkpt>
<trkpt lat="33.222470" lon="126.295020" sectionIndex="0" pointIndex="188" originalElevation="4.0" isOriginalElevationFromOSM="false" isAnchor="false"><ele>5.0</ele></trkpt>
<trkpt lat="33.222830" lon="126.295470" sectionIndex="0" pointIndex="189" originalElevation="4.0" isOriginalElevationFromOSM="false" isAnchor="false"><ele>4.8</ele></trkpt>
<trkpt lat="33.223880" lon="126.297320" sectionIndex="0" pointIndex="190" originalElevation="4.5" isOriginalElevationFromOSM="false" isAnchor="false"><ele>4.7</ele></trkpt>
<trkpt lat="33.223880" lon="126.297320" sectionIndex="0" pointIndex="191" originalElevation="4.5" isOriginalElevationFromOSM="false" isAnchor="false"><ele>4.6</ele></trkpt>
<trkpt lat="33.225180" lon="126.299540" sectionIndex="0" pointIndex="192" originalElevation="4.5" isOriginalElevationFromOSM="false" isAnchor="false"><ele>4.4</ele></trkpt>
<trkpt lat="33.225180" lon="126.299540" sectionIndex="0" pointIndex="193" originalElevation="4.5" isOriginalElevationFromOSM="false" isAnchor="false"><ele>4.3</ele></trkpt>
<trkpt lat="33.225380" lon="126.299780" sectionIndex="0" pointIndex="194" originalElevation="2.0" isOriginalElevationFromOSM="false" isAnchor="false"><ele>4.2</ele></trkpt>
<trkpt lat="33.226260" lon="126.300500" sectionIndex="0" pointIndex="195" originalElevation="6.0" isOriginalElevationFromOSM="false" isAnchor="false"><ele>4.1</ele></trkpt>
<trkpt lat="33.226790" lon="126.301020" sectionIndex="0" pointIndex="196" originalElevation="6.0" isOriginalElevationFromOSM="false" isAnchor="false"><ele>4.0</ele></trkpt>
<trkpt lat="33.226940" lon="126.301240" sectionIndex="0" pointIndex="197" originalElevation="6.0" isOriginalElevationFromOSM="false" isAnchor="false"><ele>3.9</ele></trkpt>
<trkpt lat="33.226940" lon="126.301240" sectionIndex="0" pointIndex="198" originalElevation="6.0" isOriginalElevationFromOSM="false" isAnchor="false"><ele>3.7</ele></trkpt>
<trkpt lat="33.227090" lon="126.301570" sectionIndex="0" pointIndex="199" originalElevation="0.0" isOriginalElevationFromOSM="false" isAnchor="false"><ele>3.6</ele></trkpt>
<trkpt lat="33.227380" lon="126.302560" sectionIndex="0" pointIndex="200" originalElevation="6.0" isOriginalElevationFromOSM="false" isAnchor="false"><ele>3.5</ele></trkpt>
<trkpt lat="33.227660" lon="126.303700" sectionIndex="0" pointIndex="201" originalElevation="3.0" isOriginalElevationFromOSM="false" isAnchor="false"><ele>3.4</ele></trkpt>
<trkpt lat="33.227880" lon="126.304440" sectionIndex="0" pointIndex="202" originalElevation="2.0" isOriginalElevationFromOSM="false" isAnchor="false"><ele>3.3</ele></trkpt>
<trkpt lat="33.227990" lon="126.304870" sectionIndex="0" pointIndex="203" originalElevation="0.0" isOriginalElevationFromOSM="false" isAnchor="false"><ele>3.2</ele></trkpt>
<trkpt lat="33.228060" lon="126.305120" sectionIndex="0" pointIndex="204" originalElevation="0.0" isOriginalElevationFromOSM="false" isAnchor="false"><ele>3.1</ele></trkpt>
<trkpt lat="33.228240" lon="126.305440" sectionIndex="0" pointIndex="205" originalElevation="3.0" isOriginalElevationFromOSM="false" isAnchor="false"><ele>3.0</ele></trkpt>
<trkpt lat="33.228470" lon="126.306300" sectionIndex="0" pointIndex="206" originalElevation="2.5" isOriginalElevationFromOSM="false" isAnchor="false"><ele>2.9</ele></trkpt>
</trkseg>
</trk>
</gpx>