<?xml version="1.0" encoding="UTF-8"?>
<gpx xmlns="http://www.topografix.com/GPX/1/1" creator="MTK - http://www.toursprung.com" version="1.1" xmlns:xsi="http://www.w3.org/2001/XMLSchema-instance" xsi:schemaLocation="http://www.topografix.com/GPX/1/1 http://www.topografix.com/GPX/1/1/gpx.xsd">
<metadata>
<name>러닝아일랜드 우도런_3그룹</name>
<extensions><extra>{}</extra></extensions>
</metadata>

<trk>
<name>러닝아일랜드 우도런_3그룹</name>
<trkseg>
<trkpt lat="33.512300" lon="126.959710" sectionIndex="0" pointIndex="0" originalElevation="7.0" isOriginalElevationFromOSM="false" isAnchor="false"><ele>5.1</ele></trkpt>
<trkpt lat="33.512360" lon="126.960000" sectionIndex="0" pointIndex="1" originalElevation="7.0" isOriginalElevationFromOSM="false" isAnchor="false"><ele>5.0</ele></trkpt>
<trkpt lat="33.512530" lon="126.960010" sectionIndex="0" pointIndex="2" originalElevation="5.0" isOriginalElevationFromOSM="false" isAnchor="false"><ele>4.9</ele></trkpt>
<trkpt lat="33.512820" lon="126.959810" sectionIndex="0" pointIndex="3" originalElevation="4.9" isOriginalElevationFromOSM="false" isAnchor="false"><ele>4.8</ele></trkpt>
<trkpt lat="33.512920" lon="126.959780" sectionIndex="0" pointIndex="4" originalElevation="5.0" isOriginalElevationFromOSM="false" isAnchor="false"><ele>4.7</ele></trkpt>
<trkpt lat="33.513040" lon="126.959830" sectionIndex="0" pointIndex="5" originalElevation="5.1" isOriginalElevationFromOSM="false" isAnchor="false"><ele>4.6</ele></trkpt>
<trkpt lat="33.513110" lon="126.959960" sectionIndex="0" pointIndex="6" originalElevation="5.2" isOriginalElevationFromOSM="false" isAnchor="false"><ele>4.5</ele></trkpt>
<trkpt lat="33.513100" lon="126.960420" sectionIndex="0" pointIndex="7" originalElevation="5.0" isOriginalElevationFromOSM="false" isAnchor="false"><ele>4.4</ele></trkpt>
<trkpt lat="33.513000" lon="126.961050" sectionIndex="0" pointIndex="8" originalElevation="4.3" isOriginalElevationFromOSM="false" isAnchor="false"><ele>4.4</ele></trkpt>
<trkpt lat="33.512980" lon="126.961450" sectionIndex="0" pointIndex="9" originalElevation="3.9" isOriginalElevationFromOSM="false" isAnchor="false"><ele>4.3</ele></trkpt>
<trkpt lat="33.512980" lon="126.961450" sectionIndex="0" pointIndex="10" originalElevation="3.9" isOriginalElevationFromOSM="false" isAnchor="false"><ele>4.3</ele></trkpt>
<trkpt lat="33.512970" lon="126.961760" sectionIndex="0" pointIndex="11" originalElevation="3.5" isOriginalElevationFromOSM="false" isAnchor="false"><ele>4.2</ele></trkpt>
<trkpt lat="33.513090" lon="126.961970" sectionIndex="0" pointIndex="12" originalElevation="3.4" isOriginalElevationFromOSM="false" isAnchor="false"><ele>4.2</ele></trkpt>
<trkpt lat="33.513190" lon="126.962050" sectionIndex="0" pointIndex="13" originalElevation="3.1" isOriginalElevationFromOSM="false" isAnchor="false"><ele>4.2</ele></trkpt>
<trkpt lat="33.513380" lon="126.962130" sectionIndex="0" pointIndex="14" originalElevation="3.0" isOriginalElevationFromOSM="false" isAnchor="false"><ele>4.2</ele></trkpt>
<trkpt lat="33.513550" lon="126.962260" sectionIndex="0" pointIndex="15" originalElevation="3.1" isOriginalElevationFromOSM="false" isAnchor="false"><ele>4.2</ele></trkpt>
<trkpt lat="33.513660" lon="126.962380" sectionIndex="0" pointIndex="16" originalElevation="2.0" isOriginalElevationFromOSM="false" isAnchor="false"><ele>4.3</ele></trkpt>
<trkpt lat="33.513620" lon="126.963170" sectionIndex="0" pointIndex="17" originalElevation="3.3" isOriginalElevationFromOSM="false" isAnchor="false"><ele>4.3</ele></trkpt>
<trkpt lat="33.513670" lon="126.963350" sectionIndex="0" pointIndex="18" originalElevation="4.0" isOriginalElevationFromOSM="false" isAnchor="false"><ele>4.4</ele></trkpt>
<trkpt lat="33.513930" lon="126.963600" sectionIndex="0" pointIndex="19" originalElevation="5.0" isOriginalElevationFromOSM="false" isAnchor="false"><ele>4.5</ele></trkpt>
<trkpt lat="33.514000" lon="126.963770" sectionIndex="0" pointIndex="20" originalElevation="5.1" isOriginalElevationFromOSM="false" isAnchor="false"><ele>4.6</ele></trkpt>
<trkpt lat="33.514080" lon="126.964140" sectionIndex="0" pointIndex="21" originalElevation="5.3" isOriginalElevationFromOSM="false" isAnchor="false"><ele>4.7</ele></trkpt>
<trkpt lat="33.513960" lon="126.964340" sectionIndex="0" pointIndex="22" originalElevation="5.3" isOriginalElevationFromOSM="false" isAnchor="false"><ele>4.8</ele></trkpt>
<trkpt lat="33.513960" lon="126.964340" sectionIndex="0" pointIndex="23" originalElevation="5.3" isOriginalElevationFromOSM="false" isAnchor="false"><ele>4.9</ele></trkpt>
<trkpt lat="33.513900" lon="126.964440" sectionIndex="0" pointIndex="24" originalElevation="5.4" isOriginalElevationFromOSM="false" isAnchor="false"><ele>5.0</ele></trkpt>
<trkpt lat="33.513760" lon="126.964540" sectionIndex="0" pointIndex="25" originalElevation="5.3" isOriginalElevationFromOSM="false" isAnchor="false"><ele>5.1</ele></trkpt>
<trkpt lat="33.513490" lon="126.964590" sectionIndex="0" pointIndex="26" originalElevation="5.3" isOriginalElevationFromOSM="false" isAnchor="false"><ele>5.2</ele></trkpt>
<trkpt lat="33.513190" lon="126.964710" sectionIndex="0" pointIndex="27" originalElevation="6.0" isOriginalElevationFromOSM="false" isAnchor="false"><ele>5.3</ele></trkpt>
<trkpt lat="33.512810" lon="126.964850" sectionIndex="0" pointIndex="28" originalElevation="5.8" isOriginalElevationFromOSM="false" isAnchor="false"><ele>5.4</ele></trkpt>
<trkpt lat="33.512520" lon="126.964990" sectionIndex="0" pointIndex="29" originalElevation="5.7" isOriginalElevationFromOSM="false" isAnchor="false"><ele>5.5</ele></trkpt>
<trkpt lat="33.511950" lon="126.965040" sectionIndex="0" pointIndex="30" originalElevation="5.0" isOriginalElevationFromOSM="false" isAnchor="false"><ele>5.5</ele></trkpt>
<trkpt lat="33.511810" lon="126.965090" sectionIndex="0" pointIndex="31" originalElevation="5.8" isOriginalElevationFromOSM="false" isAnchor="false"><ele>5.6</ele></trkpt>
<trkpt lat="33.511570" lon="126.965480" sectionIndex="0" pointIndex="32" originalElevation="5.8" isOriginalElevationFromOSM="false" isAnchor="false"><ele>5.7</ele></trkpt>
<trkpt lat="33.511400" lon="126.965650" sectionIndex="0" pointIndex="33" originalElevation="5.7" isOriginalElevationFromOSM="false" isAnchor="false"><ele>5.7</ele></trkpt>
<trkpt lat="33.511330" lon="126.965690" sectionIndex="0" pointIndex="34" originalElevation="5.7" isOriginalElevationFromOSM="false" isAnchor="false"><ele>5.7</ele></trkpt>
<trkpt lat="33.511250" lon="126.965680" sectionIndex="0" pointIndex="35" originalElevation="5.7" isOriginalElevationFromOSM="false" isAnchor="false"><ele>5.8</ele></trkpt>
<trkpt lat="33.510950" lon="126.965590" sectionIndex="0" pointIndex="36" originalElevation="5.8" isOriginalElevationFromOSM="false" isAnchor="false"><ele>5.8</ele></trkpt>
<trkpt lat="33.510840" lon="126.965610" sectionIndex="0" pointIndex="37" originalElevation="5.7" isOriginalElevationFromOSM="false" isAnchor="false"><ele>5.8</ele></trkpt>
<trkpt lat="33.510620" lon="126.965780" sectionIndex="0" pointIndex="38" originalElevation="5.9" isOriginalElevationFromOSM="false" isAnchor="false"><ele>5.9</ele></trkpt>
<trkpt lat="33.510620" lon="126.965780" sectionIndex="0" pointIndex="39" originalElevation="5.9" isOriginalElevationFromOSM="false" isAnchor="false"><ele>5.9</ele></trkpt>
<trkpt lat="33.510230" lon="126.966060" sectionIndex="0" pointIndex="40" originalElevation="6.1" isOriginalElevationFromOSM="false" isAnchor="false"><ele>5.9</ele></trkpt>
<trkpt lat="33.509860" lon="126.966240" sectionIndex="0" pointIndex="41" originalElevation="6.4" isOriginalElevationFromOSM="false" isAnchor="false"><ele>5.9</ele></trkpt>
<trkpt lat="33.509590" lon="126.966490" sectionIndex="0" pointIndex="42" originalElevation="6.6" isOriginalElevationFromOSM="false" isAnchor="false"><ele>6.0</ele></trkpt>
<trkpt lat="33.509570" lon="126.966540" sectionIndex="0" pointIndex="43" originalElevation="7.0" isOriginalElevationFromOSM="false" isAnchor="false"><ele>6.0</ele></trkpt>
<trkpt lat="33.509520" lon="126.966650" sectionIndex="0" pointIndex="44" originalElevation="7.0" isOriginalElevationFromOSM="false" isAnchor="false"><ele>6.0</ele></trkpt>
<trkpt lat="33.509360" lon="126.966970" sectionIndex="0" pointIndex="45" originalElevation="5.0" isOriginalElevationFromOSM="false" isAnchor="false"><ele>6.1</ele></trkpt>
<trkpt lat="33.509230" lon="126.967080" sectionIndex="0" pointIndex="46" originalElevation="5.3" isOriginalElevationFromOSM="false" isAnchor="false"><ele>6.1</ele></trkpt>
<trkpt lat="33.508690" lon="126.967250" sectionIndex="0" pointIndex="47" originalElevation="5.0" isOriginalElevationFromOSM="false" isAnchor="false"><ele>6.1</ele></trkpt>
<trkpt lat="33.508630" lon="126.967260" sectionIndex="0" pointIndex="48" originalElevation="5.0" isOriginalElevationFromOSM="false" isAnchor="false"><ele>6.2</ele></trkpt>
<trkpt lat="33.508420" lon="126.967260" sectionIndex="0" pointIndex="49" originalElevation="5.0" isOriginalElevationFromOSM="false" isAnchor="false"><ele>6.2</ele></trkpt>
<trkpt lat="33.507860" lon="126.967190" sectionIndex="0" pointIndex="50" originalElevation="5.3" isOriginalElevationFromOSM="false" isAnchor="false"><ele>6.2</ele></trkpt>
<trkpt lat="33.507170" lon="126.967250" sectionIndex="0" pointIndex="51" originalElevation="7.0" isOriginalElevationFromOSM="false" isAnchor="false"><ele>6.2</ele></trkpt>
<trkpt lat="33.506540" lon="126.967240" sectionIndex="0" pointIndex="52" originalElevation="7.0" isOriginalElevationFromOSM="false" isAnchor="false"><ele>6.2</ele></trkpt>
<trkpt lat="33.506180" lon="126.967230" sectionIndex="0" pointIndex="53" originalElevation="7.0" isOriginalElevationFromOSM="false" isAnchor="false"><ele>6.2</ele></trkpt>
<trkpt lat="33.505970" lon="126.967290" sectionIndex="0" pointIndex="54" originalElevation="7.0" isOriginalElevationFromOSM="false" isAnchor="false"><ele>6.2</ele></trkpt>
<trkpt lat="33.505730" lon="126.967420" sectionIndex="0" pointIndex="55" originalElevation="7.0" isOriginalElevationFromOSM="false" isAnchor="false"><ele>6.2</ele></trkpt>
<trkpt lat="33.505570" lon="126.967470" sectionIndex="0" pointIndex="56" originalElevation="7.0" isOriginalElevationFromOSM="false" isAnchor="false"><ele>6.1</ele></trkpt>
<trkpt lat="33.505330" lon="126.967400" sectionIndex="0" pointIndex="57" originalElevation="7.0" isOriginalElevationFromOSM="false" isAnchor="false"><ele>6.1</ele></trkpt>
<trkpt lat="33.505210" lon="126.967360" sectionIndex="0" pointIndex="58" originalElevation="7.0" isOriginalElevationFromOSM="false" isAnchor="false"><ele>6.0</ele></trkpt>
<trkpt lat="33.505060" lon="126.967400" sectionIndex="0" pointIndex="59" originalElevation="7.0" isOriginalElevationFromOSM="false" isAnchor="false"><ele>5.9</ele></trkpt>
<trkpt lat="33.505060" lon="126.967400" sectionIndex="0" pointIndex="60" originalElevation="7.0" isOriginalElevationFromOSM="false" isAnchor="false"><ele>5.8</ele></trkpt>
<trkpt lat="33.504960" lon="126.967430" sectionIndex="0" pointIndex="61" originalElevation="7.0" isOriginalElevationFromOSM="false" isAnchor="false"><ele>5.7</ele></trkpt>
<trkpt lat="33.504380" lon="126.967590" sectionIndex="0" pointIndex="62" originalElevation="5.2" isOriginalElevationFromOSM="false" isAnchor="false"><ele>5.6</ele></trkpt>
<trkpt lat="33.504080" lon="126.967750" sectionIndex="0" pointIndex="63" originalElevation="5.5" isOriginalElevationFromOSM="false" isAnchor="false"><ele>5.5</ele></trkpt>
<trkpt lat="33.503800" lon="126.967840" sectionIndex="0" pointIndex="64" originalElevation="5.2" isOriginalElevationFromOSM="false" isAnchor="false"><ele>5.4</ele></trkpt>
<trkpt lat="33.503400" lon="126.967890" sectionIndex="0" pointIndex="65" originalElevation="5.0" isOriginalElevationFromOSM="false" isAnchor="false"><ele>5.3</ele></trkpt>
<trkpt lat="33.503180" lon="126.967960" sectionIndex="0" pointIndex="66" originalElevation="5.0" isOriginalElevationFromOSM="false" isAnchor="false"><ele>5.2</ele></trkpt>
<trkpt lat="33.502690" lon="126.968470" sectionIndex="0" pointIndex="67" originalElevation="3.0" isOriginalElevationFromOSM="false" isAnchor="false"><ele>5.1</ele></trkpt>
<trkpt lat="33.502630" lon="126.968860" sectionIndex="0" pointIndex="68" originalElevation="3.0" isOriginalElevationFromOSM="false" isAnchor="false"><ele>5.0</ele></trkpt>
<trkpt lat="33.502590" lon="126.969170" sectionIndex="0" pointIndex="69" originalElevation="3.0" isOriginalElevationFromOSM="false" isAnchor="false"><ele>5.0</ele></trkpt>
<trkpt lat="33.502530" lon="126.969290" sectionIndex="0" pointIndex="70" originalElevation="3.2" isOriginalElevationFromOSM="false" isAnchor="false"><ele>4.9</ele></trkpt>
<trkpt lat="33.502340" lon="126.969440" sectionIndex="0" pointIndex="71" originalElevation="3.4" isOriginalElevationFromOSM="false" isAnchor="false"><ele>4.9</ele></trkpt>
<trkpt lat="33.502100" lon="126.969550" sectionIndex="0" pointIndex="72" originalElevation="4.0" isOriginalElevationFromOSM="false" isAnchor="false"><ele>4.9</ele></trkpt>
<trkpt lat="33.501600" lon="126.969660" sectionIndex="0" pointIndex="73" originalElevation="5.7" isOriginalElevationFromOSM="false" isAnchor="false"><ele>4.8</ele></trkpt>
<trkpt lat="33.500910" lon="126.969790" sectionIndex="0" pointIndex="74" originalElevation="5.6" isOriginalElevationFromOSM="false" isAnchor="false"><ele>4.8</ele></trkpt>
<trkpt lat="33.500730" lon="126.969760" sectionIndex="0" pointIndex="75" originalElevation="7.0" isOriginalElevationFromOSM="false" isAnchor="false"><ele>-240.6</ele></trkpt>
<trkpt lat="33.500260" lon="126.969870" sectionIndex="0" pointIndex="76" originalElevation="5.8" isOriginalElevationFromOSM="false" isAnchor="false"><ele>-312.7</ele></trkpt>
<trkpt lat="33.499790" lon="126.970060" sectionIndex="0" pointIndex="77" originalElevation="5.5" isOriginalElevationFromOSM="false" isAnchor="false"><ele>-398.8</ele></trkpt>
<trkpt lat="33.499590" lon="126.970270" sectionIndex="0" pointIndex="78" originalElevation="5.4" isOriginalElevationFromOSM="false" isAnchor="false"><ele>-499.1</ele></trkpt>
<trkpt lat="33.499320" lon="126.970420" sectionIndex="0" pointIndex="79" originalElevation="5.1" isOriginalElevationFromOSM="false" isAnchor="false"><ele>-613.2</ele></trkpt>
<trkpt lat="33.499030" lon="126.970410" sectionIndex="0" pointIndex="80" originalElevation="5.0" isOriginalElevationFromOSM="false" isAnchor="false"><ele>-739.8</ele></trkpt>
<trkpt lat="33.498880" lon="126.970360" sectionIndex="0" pointIndex="81" originalElevation="5.1" isOriginalElevationFromOSM="false" isAnchor="false"><ele>-876.4</ele></trkpt>
<trkpt lat="33.498550" lon="126.969960" sectionIndex="0" pointIndex="82" originalElevation="5.3" isOriginalElevationFromOSM="false" isAnchor="false"><ele>-1019.9</ele></trkpt>
<trkpt lat="33.498180" lon="126.969880" sectionIndex="0" pointIndex="83" originalElevation="5.1" isOriginalElevationFromOSM="false" isAnchor="false"><ele>-1165.6</ele></trkpt>
<trkpt lat="33.497610" lon="126.969450" sectionIndex="0" pointIndex="84" originalElevation="5.0" isOriginalElevationFromOSM="false" isAnchor="false"><ele>-1308.4</ele></trkpt>
<trkpt lat="33.497550" lon="126.969270" sectionIndex="0" pointIndex="85" originalElevation="4.4" isOriginalElevationFromOSM="false" isAnchor="false"><ele>-1442.7</ele></trkpt>
<trkpt lat="33.497550" lon="126.969270" sectionIndex="0" pointIndex="86" originalElevation="4.4" isOriginalElevationFromOSM="false" isAnchor="false"><ele>-1562.5</ele></trkpt>
<trkpt lat="33.497520" lon="126.969170" sectionIndex="0" pointIndex="87" originalElevation="3.8" isOriginalElevationFromOSM="false" isAnchor="false"><ele>-1662.2</ele></trkpt>
<trkpt lat="33.497430" lon="126.968790" sectionIndex="0" pointIndex="88" originalElevation="3.0" isOriginalElevationFromOSM="false" isAnchor="false"><ele>-1736.8</ele></trkpt>
<trkpt lat="33.497440" lon="126.968370" sectionIndex="0" pointIndex="89" originalElevation="3.0" isOriginalElevationFromOSM="false" isAnchor="false"><ele>-1782.6</ele></trkpt>
<trkpt lat="33.497480" lon="126.968020" sectionIndex="0" pointIndex="90" originalElevation="-32768.0" isOriginalElevationFromOSM="false" isAnchor="false"><ele>-1796.9</ele></trkpt>
<trkpt lat="33.497520" lon="126.967890" sectionIndex="0" pointIndex="91" originalElevation="10.0" isOriginalElevationFromOSM="false" isAnchor="false"><ele>-1778.9</ele></trkpt>
<trkpt lat="33.497580" lon="126.967710" sectionIndex="0" pointIndex="92" originalElevation="10.0" isOriginalElevationFromOSM="false" isAnchor="false"><ele>-1729.7</ele></trkpt>
<trkpt lat="33.497780" lon="126.967190" sectionIndex="0" pointIndex="93" originalElevation="20.0" isOriginalElevationFromOSM="false" isAnchor="false"><ele>-1651.6</ele></trkpt>
<trkpt lat="33.497830" lon="126.967010" sectionIndex="0" pointIndex="94" originalElevation="34.0" isOriginalElevationFromOSM="false" isAnchor="false"><ele>-1548.6</ele></trkpt>
<trkpt lat="33.498300" lon="126.966160" sectionIndex="0" pointIndex="95" originalElevation="35.5" isOriginalElevationFromOSM="false" isAnchor="false"><ele>-1425.6</ele></trkpt>
<trkpt lat="33.498320" lon="126.966080" sectionIndex="0" pointIndex="96" originalElevation="41.0" isOriginalElevationFromOSM="false" isAnchor="false"><ele>-1288.4</ele></trkpt>
<trkpt lat="33.498380" lon="126.965870" sectionIndex="0" pointIndex="97" originalElevation="38.0" isOriginalElevationFromOSM="false" isAnchor="false"><ele>-1142.8</ele></trkpt>
<trkpt lat="33.498420" lon="126.965780" sectionIndex="0" pointIndex="98" originalElevation="39.0" isOriginalElevationFromOSM="false" isAnchor="false"><ele>-994.5</ele></trkpt>
<trkpt lat="33.498420" lon="126.965780" sectionIndex="0" pointIndex="99" originalElevation="39.0" isOriginalElevationFromOSM="false" isAnchor="false"><ele>-848.8</ele></trkpt>
<trkpt lat="33.498440" lon="126.965730" sectionIndex="0" pointIndex="100" originalElevation="39.0" isOriginalElevationFromOSM="false" isAnchor="false"><ele>-710.1</ele></trkpt>
<trkpt lat="33.498440" lon="126.965730" sectionIndex="0" pointIndex="101" originalElevation="39.0" isOriginalElevationFromOSM="false" isAnchor="false"><ele>-581.7</ele></trkpt>
<trkpt lat="33.498440" lon="126.965730" sectionIndex="0" pointIndex="102" originalElevation="39.0" isOriginalElevationFromOSM="false" isAnchor="false"><ele>-466.1</ele></trkpt>
<trkpt lat="33.498440" lon="126.965730" sectionIndex="0" pointIndex="103" originalElevation="39.0" isOriginalElevationFromOSM="false" isAnchor="false"><ele>-364.5</ele></trkpt>
<trkpt lat="33.498450" lon="126.965710" sectionIndex="0" pointIndex="104" originalElevation="40.0" isOriginalElevationFromOSM="false" isAnchor="false"><ele>-277.5</ele></trkpt>
<trkpt lat="33.498750" lon="126.965090" sectionIndex="0" pointIndex="105" originalElevation="46.6" isOriginalElevationFromOSM="false" isAnchor="false"><ele>-204.6</ele></trkpt>
<trkpt lat="33.499140" lon="126.963950" sectionIndex="0" pointIndex="106" originalElevation="60.0" isOriginalElevationFromOSM="false" isAnchor="false"><ele>41.3</ele></trkpt>
<trkpt lat="33.499180" lon="126.963760" sectionIndex="0" pointIndex="107" originalElevation="47.3" isOriginalElevationFromOSM="false" isAnchor="false"><ele>41.6</ele></trkpt>
<trkpt lat="33.499390" lon="126.962470" sectionIndex="0" pointIndex="108" originalElevation="46.8" isOriginalElevationFromOSM="false" isAnchor="false"><ele>41.8</ele></trkpt>
<trkpt lat="33.499450" lon="126.962150" sectionIndex="0" pointIndex="109" originalElevation="43.0" isOriginalElevationFromOSM="false" isAnchor="false"><ele>41.7</ele></trkpt>
<trkpt lat="33.499500" lon="126.961520" sectionIndex="0" pointIndex="110" originalElevation="42.2" isOriginalElevationFromOSM="false" isAnchor="false"><ele>41.5</ele></trkpt>
<trkpt lat="33.499490" lon="126.961000" sectionIndex="0" pointIndex="111" originalElevation="41.9" isOriginalElevationFromOSM="false" isAnchor="false"><ele>41.1</ele></trkpt>
<trkpt lat="33.499490" lon="126.960960" sectionIndex="0" pointIndex="112" originalElevation="41.5" isOriginalElevationFromOSM="false" isAnchor="false"><ele>40.5</ele></trkpt>
<trkpt lat="33.499490" lon="126.960960" sectionIndex="0" pointIndex="113" originalElevation="41.5" isOriginalElevationFromOSM="false" isAnchor="false"><ele>39.9</ele></trkpt>
<trkpt lat="33.499520" lon="126.960790" sectionIndex="0" pointIndex="114" originalElevation="41.1" isOriginalElevationFromOSM="false" isAnchor="false"><ele>39.1</ele></trkpt>
<trkpt lat="33.499610" lon="126.960590" sectionIndex="0" pointIndex="115" originalElevation="38.0" isOriginalElevationFromOSM="false" isAnchor="false"><ele>38.2</ele></trkpt>
<trkpt lat="33.499090" lon="126.960060" sectionIndex="0" pointIndex="116" originalElevation="46.0" isOriginalElevationFromOSM="false" isAnchor="false"><ele>37.3</ele></trkpt>
<trkpt lat="33.498930" lon="126.959780" sectionIndex="0" pointIndex="117" originalElevation="40.7" isOriginalElevationFromOSM="false" isAnchor="false"><ele>36.2</ele></trkpt>
<trkpt lat="33.498690" lon="126.959430" sectionIndex="0" pointIndex="118" originalElevation="36.5" isOriginalElevationFromOSM="false" isAnchor="false"><ele>35.1</ele></trkpt>
<trkpt lat="33.498270" lon="126.958750" sectionIndex="0" pointIndex="119" originalElevation="33.3" isOriginalElevationFromOSM="false" isAnchor="false"><ele>34.0</ele></trkpt>
<trkpt lat="33.498270" lon="126.958750" sectionIndex="0" pointIndex="120" originalElevation="33.3" isOriginalElevationFromOSM="false" isAnchor="false"><ele>32.7</ele></trkpt>
<trkpt lat="33.498010" lon="126.958310" sectionIndex="0" pointIndex="121" originalElevation="30.1" isOriginalElevationFromOSM="false" isAnchor="false"><ele>31.5</ele></trkpt>
<trkpt lat="33.497890" lon="126.958060" sectionIndex="0" pointIndex="122" originalElevation="29.4" isOriginalElevationFromOSM="false" isAnchor="false"><ele>30.1</ele></trkpt>
<trkpt lat="33.497860" lon="126.957880" sectionIndex="0" pointIndex="123" originalElevation="29.4" isOriginalElevationFromOSM="false" isAnchor="false"><ele>28.8</ele></trkpt>
<trkpt lat="33.497780" lon="126.957740" sectionIndex="0" pointIndex="124" originalElevation="29.5" isOriginalElevationFromOSM="false" isAnchor="false"><ele>27.5</ele></trkpt>
<trkpt lat="33.497570" lon="126.957630" sectionIndex="0" pointIndex="125" originalElevation="29.0" isOriginalElevationFromOSM="false" isAnchor="false"><ele>26.3</ele></trkpt>
<trkpt lat="33.497360" lon="126.957470" sectionIndex="0" pointIndex="126" originalElevation="29.0" isOriginalElevationFromOSM="false" isAnchor="false"><ele>25.0</ele></trkpt>
<trkpt lat="33.496310" lon="126.955740" sectionIndex="0" pointIndex="127" originalElevation="18.0" isOriginalElevationFromOSM="false" isAnchor="false"><ele>23.8</ele></trkpt>
<trkpt lat="33.496140" lon="126.955400" sectionIndex="0" pointIndex="128" originalElevation="16.6" isOriginalElevationFromOSM="false" isAnchor="false"><ele>22.7</ele></trkpt>
<trkpt lat="33.495810" lon="126.954960" sectionIndex="0" pointIndex="129" originalElevation="16.2" isOriginalElevationFromOSM="false" isAnchor="false"><ele>21.6</ele></trkpt>
<trkpt lat="33.495770" lon="126.954880" sectionIndex="0" pointIndex="130" originalElevation="16.3" isOriginalElevationFromOSM="false" isAnchor="false"><ele>20.5</ele></trkpt>
<trkpt lat="33.495770" lon="126.954880" sectionIndex="0" pointIndex="131" originalElevation="16.3" isOriginalElevationFromOSM="false" isAnchor="false"><ele>19.5</ele></trkpt>
<trkpt lat="33.495760" lon="126.954870" sectionIndex="0" pointIndex="132" originalElevation="16.4" isOriginalElevationFromOSM="false" isAnchor="false"><ele>18.5</ele></trkpt>
<trkpt lat="33.495490" lon="126.953910" sectionIndex="0" pointIndex="133" originalElevation="16.0" isOriginalElevationFromOSM="false" isAnchor="false"><ele>17.7</ele></trkpt>
<trkpt lat="33.495170" lon="126.954080" sectionIndex="0" pointIndex="134" originalElevation="15.7" isOriginalElevationFromOSM="false" isAnchor="false"><ele>16.8</ele></trkpt>
<trkpt lat="33.495170" lon="126.954080" sectionIndex="0" pointIndex="135" originalElevation="15.7" isOriginalElevationFromOSM="false" isAnchor="false"><ele>16.1</ele></trkpt>
<trkpt lat="33.494850" lon="126.954260" sectionIndex="0" pointIndex="136" originalElevation="15.4" isOriginalElevationFromOSM="false" isAnchor="false"><ele>15.3</ele></trkpt>
<trkpt lat="33.494530" lon="126.954270" sectionIndex="0" pointIndex="137" originalElevation="15.3" isOriginalElevationFromOSM="false" isAnchor="false"><ele>14.6</ele></trkpt>
<trkpt lat="33.494470" lon="126.954310" sectionIndex="0" pointIndex="138" originalElevation="15.2" isOriginalElevationFromOSM="false" isAnchor="false"><ele>13.9</ele></trkpt>
<trkpt lat="33.494305" lon="126.954491" sectionIndex="0" pointIndex="139" originalElevation="14.3" isOriginalElevationFromOSM="false" isAnchor="false"><ele>11.9</ele></trkpt>
<trkpt lat="33.494210" lon="126.954640" sectionIndex="0" pointIndex="140" originalElevation="13.5" isOriginalElevationFromOSM="false" isAnchor="false"><ele>5.3</ele></trkpt>
<trkpt lat="33.494030" lon="126.954750" sectionIndex="0" pointIndex="141" originalElevation="13.0" isOriginalElevationFromOSM="false" isAnchor="false"><ele>-25.1</ele></trkpt>
<trkpt lat="33.493920" lon="126.954810" sectionIndex="0" pointIndex="142" originalElevation="11.0" isOriginalElevationFromOSM="false" isAnchor="false"><ele>-113.0</ele></trkpt>
<trkpt lat="33.493810" lon="126.954860" sectionIndex="0" pointIndex="143" originalElevation="9.9" isOriginalElevationFromOSM="false" isAnchor="false"><ele>-148.8</ele></trkpt>
<trkpt lat="33.493740" lon="126.954870" sectionIndex="0" pointIndex="144" originalElevation="10.0" isOriginalElevationFromOSM="false" isAnchor="false"><ele>-190.8</ele></trkpt>
<trkpt lat="33.493740" lon="126.954870" sectionIndex="0" pointIndex="145" originalElevation="10.0" isOriginalElevationFromOSM="false" isAnchor="false"><ele>-239.3</ele></trkpt>
<trkpt lat="33.493680" lon="126.954880" sectionIndex="0" pointIndex="146" originalElevation="10.0" isOriginalElevationFromOSM="false" isAnchor="false"><ele>-293.8</ele></trkpt>
<trkpt lat="33.493170" lon="126.954860" sectionIndex="0" pointIndex="147" originalElevation="9.8" isOriginalElevationFromOSM="false" isAnchor="false"><ele>-353.6</ele></trkpt>
<trkpt lat="33.493010" lon="126.954890" sectionIndex="0" pointIndex="148" originalElevation="7.0" isOriginalElevationFromOSM="false" isAnchor="false"><ele>-417.3</ele></trkpt>
<trkpt lat="33.492460" lon="126.954980" sectionIndex="0" pointIndex="149" originalElevation="5.4" isOriginalElevationFromOSM="false" isAnchor="false"><ele>-483.4</ele></trkpt>
<trkpt lat="33.491950" lon="126.955020" sectionIndex="0" pointIndex="150" originalElevation="5.3" isOriginalElevationFromOSM="false" isAnchor="false"><ele>-549.6</ele></trkpt>
<trkpt lat="33.491780" lon="126.954950" sectionIndex="0" pointIndex="151" originalElevation="4.7" isOriginalElevationFromOSM="false" isAnchor="false"><ele>-613.5</ele></trkpt>
<trkpt lat="33.491780" lon="126.954950" sectionIndex="0" pointIndex="152" originalElevation="4.7" isOriginalElevationFromOSM="false" isAnchor="false"><ele>-672.6</ele></trkpt>
<trkpt lat="33.491760" lon="126.954940" sectionIndex="0" pointIndex="153" originalElevation="4.0" isOriginalElevationFromOSM="false" isAnchor="false"><ele>-724.2</ele></trkpt>
<trkpt lat="33.491890" lon="126.954600" sectionIndex="0" pointIndex="154" originalElevation="-180.5" isOriginalElevationFromOSM="false" isAnchor="false"><ele>-765.9</ele></trkpt>
<trkpt lat="33.491960" lon="126.954140" sectionIndex="0" pointIndex="155" originalElevation="-733.9" isOriginalElevationFromOSM="false" isAnchor="false"><ele>-795.6</ele></trkpt>
<trkpt lat="33.492340" lon="126.952880" sectionIndex="0" pointIndex="156" originalElevation="-3684.4" isOriginalElevationFromOSM="false" isAnchor="false"><ele>-811.9</ele></trkpt>
<trkpt lat="33.492490" lon="126.952340" sectionIndex="0" pointIndex="157" originalElevation="-10238.6" isOriginalElevationFromOSM="false" isAnchor="false"><ele>-1059.4</ele></trkpt>
<trkpt lat="33.492790" lon="126.951840" sectionIndex="0" pointIndex="158" originalElevation="2.0" isOriginalElevationFromOSM="false" isAnchor="false"><ele>-1297.3</ele></trkpt>
<trkpt lat="33.492900" lon="126.951820" sectionIndex="0" pointIndex="159" originalElevation="2.0" isOriginalElevationFromOSM="false" isAnchor="false"><ele>-1603.6</ele></trkpt>
<trkpt lat="33.492990" lon="126.951730" sectionIndex="0" pointIndex="160" originalElevation="2.0" isOriginalElevationFromOSM="false" isAnchor="false"><ele>-1985.5</ele></trkpt>
<trkpt lat="33.493030" lon="126.951720" sectionIndex="0" pointIndex="161" originalElevation="2.0" isOriginalElevationFromOSM="false" isAnchor="false"><ele>-2250.9</ele></trkpt>
<trkpt lat="33.493070" lon="126.951710" sectionIndex="0" pointIndex="162" originalElevation="2.0" isOriginalElevationFromOSM="false" isAnchor="false"><ele>-2553.6</ele></trkpt>
<trkpt lat="33.493070" lon="126.951710" sectionIndex="0" pointIndex="163" originalElevation="2.0" isOriginalElevationFromOSM="false" isAnchor="false"><ele>-2892.9</ele></trkpt>
<trkpt lat="33.493090" lon="126.951700" sectionIndex="0" pointIndex="164" originalElevation="2.0" isOriginalElevationFromOSM="false" isAnchor="false"><ele>-3264.7</ele></trkpt>
<trkpt lat="33.493150" lon="126.951640" sectionIndex="0" pointIndex="165" originalElevation="2.0" isOriginalElevationFromOSM="false" isAnchor="false"><ele>-3662.0</ele></trkpt>
<trkpt lat="33.493260" lon="126.951490" sectionIndex="0" pointIndex="166" originalElevation="2.0" isOriginalElevationFromOSM="false" isAnchor="false"><ele>-4073.8</ele></trkpt>
<trkpt lat="33.493300" lon="126.951470" sectionIndex="0" pointIndex="167" originalElevation="2.0" isOriginalElevationFromOSM="false" isAnchor="false"><ele>-4486.3</ele></trkpt>
<trkpt lat="33.493240" lon="126.951400" sectionIndex="0" pointIndex="168" originalElevation="2.0" isOriginalElevationFromOSM="false" isAnchor="false"><ele>-4883.3</ele></trkpt>
<trkpt lat="33.493380" lon="126.951210" sectionIndex="0" pointIndex="169" originalElevation="2.7" isOriginalElevationFromOSM="false" isAnchor="false"><ele>-5246.8</ele></trkpt>
<trkpt lat="33.493760" lon="126.950880" sectionIndex="0" pointIndex="170" originalElevation="2.8" isOriginalElevationFromOSM="false" isAnchor="false"><ele>-5558.1</ele></trkpt>
<trkpt lat="33.493880" lon="126.950840" sectionIndex="0" pointIndex="171" originalElevation="3.0" isOriginalElevationFromOSM="false" isAnchor="false"><ele>-5798.6</ele></trkpt>
<trkpt lat="33.493840" lon="126.950720" sectionIndex="0" pointIndex="172" originalElevation="-32768.0" isOriginalElevationFromOSM="false" isAnchor="false"><ele>-6105.0</ele></trkpt>
<trkpt lat="33.493920" lon="126.950610" sectionIndex="0" pointIndex="173" originalElevation="-23784.0" isOriginalElevationFromOSM="false" isAnchor="false"><ele>-6417.0</ele></trkpt>
<trkpt lat="33.493970" lon="126.950480" sectionIndex="0" pointIndex="174" originalElevation="-25889.6" isOriginalElevationFromOSM="false" isAnchor="false"><ele>-6615.6</ele></trkpt>
<trkpt lat="33.494050" lon="126.950110" sectionIndex="0" pointIndex="175" originalElevation="-26749.4" isOriginalElevationFromOSM="false" isAnchor="false"><ele>-6742.7</ele></trkpt>
<trkpt lat="33.494040" lon="126.949750" sectionIndex="0" pointIndex="176" originalElevation="0.0" isOriginalElevationFromOSM="false" isAnchor="false"><ele>-6757.8</ele></trkpt>
<trkpt lat="33.494020" lon="126.948940" sectionIndex="0" pointIndex="177" originalElevation="0.0" isOriginalElevationFromOSM="false" isAnchor="false"><ele>-6738.4</ele></trkpt>
<trkpt lat="33.494000" lon="126.948880" sectionIndex="0" pointIndex="178" originalElevation="0.3" isOriginalElevationFromOSM="false" isAnchor="false"><ele>-6718.0</ele></trkpt>
<trkpt lat="33.494000" lon="126.948880" sectionIndex="0" pointIndex="179" originalElevation="0.3" isOriginalElevationFromOSM="false" isAnchor="false"><ele>-6673.6</ele></trkpt>
<trkpt lat="33.493980" lon="126.948820" sectionIndex="0" pointIndex="180" originalElevation="0.6" isOriginalElevationFromOSM="false" isAnchor="false"><ele>-6577.5</ele></trkpt>
<trkpt lat="33.493870" lon="126.948520" sectionIndex="0" pointIndex="181" originalElevation="0.5" isOriginalElevationFromOSM="false" isAnchor="false"><ele>-6525.3</ele></trkpt>
<trkpt lat="33.493640" lon="126.948240" sectionIndex="0" pointIndex="182" originalElevation="0.8" isOriginalElevationFromOSM="false" isAnchor="false"><ele>-6498.3</ele></trkpt>
<trkpt lat="33.493410" lon="126.947780" sectionIndex="0" pointIndex="183" originalElevation="0.9" isOriginalElevationFromOSM="false" isAnchor="false"><ele>-6457.4</ele></trkpt>
<trkpt lat="33.493380" lon="126.947660" sectionIndex="0" pointIndex="184" originalElevation="1.0" isOriginalElevationFromOSM="false" isAnchor="false"><ele>-6409.6</ele></trkpt>
<trkpt lat="33.493410" lon="126.947530" sectionIndex="0" pointIndex="185" originalElevation="1.1" isOriginalElevationFromOSM="false" isAnchor="false"><ele>-6397.2</ele></trkpt>
<trkpt lat="33.493860" lon="126.946700" sectionIndex="0" pointIndex="186" originalElevation="1.0" isOriginalElevationFromOSM="false" isAnchor="false"><ele>-6391.5</ele></trkpt>
<trkpt lat="33.493940" lon="126.946550" sectionIndex="0" pointIndex="187" originalElevation="-21845.0" isOriginalElevationFromOSM="false" isAnchor="false"><ele>-6354.5</ele></trkpt>
<trkpt lat="33.494130" lon="126.946290" sectionIndex="0" pointIndex="188" originalElevation="-32768.0" isOriginalElevationFromOSM="false" isAnchor="false"><ele>-6135.4</ele></trkpt>
<trkpt lat="33.494200" lon="126.945840" sectionIndex="0" pointIndex="189" originalElevation="-10237.9" isOriginalElevationFromOSM="false" isAnchor="false"><ele>-6032.2</ele></trkpt>
<trkpt lat="33.494180" lon="126.945630" sectionIndex="0" pointIndex="190" originalElevation="-8189.8" isOriginalElevationFromOSM="false" isAnchor="false"><ele>-5916.2</ele></trkpt>
<trkpt lat="33.494070" lon="126.945250" sectionIndex="0" pointIndex="191" originalElevation="1.0" isOriginalElevationFromOSM="false" isAnchor="false"><ele>-5747.7</ele></trkpt>
<trkpt lat="33.494070" lon="126.945140" sectionIndex="0" pointIndex="192" originalElevation="-2882.7" isOriginalElevationFromOSM="false" isAnchor="false"><ele>-5786.1</ele></trkpt>
<trkpt lat="33.494140" lon="126.944950" sectionIndex="0" pointIndex="193" originalElevation="-7863.6" isOriginalElevationFromOSM="false" isAnchor="false"><ele>-5806.5</ele></trkpt>
<trkpt lat="33.494250" lon="126.944770" sectionIndex="0" pointIndex="194" originalElevation="-6552.8" isOriginalElevationFromOSM="false" isAnchor="false"><ele>-5822.1</ele></trkpt>
<trkpt lat="33.494380" lon="126.944640" sectionIndex="0" pointIndex="195" originalElevation="1.0" isOriginalElevationFromOSM="false" isAnchor="false"><ele>-5824.9</ele></trkpt>
<trkpt lat="33.494250" lon="126.944770" sectionIndex="0" pointIndex="196" originalElevation="-6552.8" isOriginalElevationFromOSM="false" isAnchor="false"><ele>-5836.1</ele></trkpt>
<trkpt lat="33.494140" lon="126.944950" sectionIndex="0" pointIndex="197" originalElevation="-7863.6" isOriginalElevationFromOSM="false" isAnchor="false"><ele>-5869.8</ele></trkpt>
<trkpt lat="33.494070" lon="126.945140" sectionIndex="0" pointIndex="198" originalElevation="-2882.7" isOriginalElevationFromOSM="false" isAnchor="false"><ele>-5928.1</ele></trkpt>
<trkpt lat="33.494070" lon="126.945250" sectionIndex="0" pointIndex="199" originalElevation="1.0" isOriginalElevationFromOSM="false" isAnchor="false"><ele>-6019.5</ele></trkpt>
<trkpt lat="33.494150" lon="126.945530" sectionIndex="0" pointIndex="200" originalElevation="-4094.4" isOriginalElevationFromOSM="false" isAnchor="false"><ele>-6075.5</ele></trkpt>
<trkpt lat="33.494150" lon="126.945530" sectionIndex="0" pointIndex="201" originalElevation="-4094.4" isOriginalElevationFromOSM="false" isAnchor="false"><ele>-6157.4</ele></trkpt>
<trkpt lat="33.494070" lon="126.945250" sectionIndex="0" pointIndex="202" originalElevation="1.0" isOriginalElevationFromOSM="false" isAnchor="false"><ele>-6260.4</ele></trkpt>
<trkpt lat="33.494070" lon="126.945140" sectionIndex="0" pointIndex="203" originalElevation="-2882.7" isOriginalElevationFromOSM="false" isAnchor="false"><ele>-6252.6</ele></trkpt>
<trkpt lat="33.494140" lon="126.944950" sectionIndex="0" pointIndex="204" originalElevation="-7863.6" isOriginalElevationFromOSM="false" isAnchor="false"><ele>-6217.1</ele></trkpt>
<trkpt lat="33.494250" lon="126.944770" sectionIndex="0" pointIndex="205" originalElevation="-6552.8" isOriginalElevationFromOSM="false" isAnchor="false"><ele>-6340.4</ele></trkpt>
<trkpt lat="33.494380" lon="126.944640" sectionIndex="0" pointIndex="206" originalElevation="1.0" isOriginalElevationFromOSM="false" isAnchor="false"><ele>-6451.0</ele></trkpt>
<trkpt lat="33.494450" lon="126.944580" sectionIndex="0" pointIndex="207" originalElevation="-9592.5" isOriginalElevationFromOSM="false" isAnchor="false"><ele>-6567.2</ele></trkpt>
<trkpt lat="33.494760" lon="126.944150" sectionIndex="0" pointIndex="208" originalElevation="-12405.0" isOriginalElevationFromOSM="false" isAnchor="false"><ele>-6602.5</ele></trkpt>
<trkpt lat="33.495000" lon="126.943670" sectionIndex="0" pointIndex="209" originalElevation="-14709.5" isOriginalElevationFromOSM="false" isAnchor="false"><ele>-6542.5</ele></trkpt>
<trkpt lat="33.495160" lon="126.943560" sectionIndex="0" pointIndex="210" originalElevation="-13483.6" isOriginalElevationFromOSM="false" isAnchor="false"><ele>-6425.2</ele></trkpt>
<trkpt lat="33.495380" lon="126.943530" sectionIndex="0" pointIndex="211" originalElevation="-13483.6" isOriginalElevationFromOSM="false" isAnchor="false"><ele>-6275.5</ele></trkpt>
<trkpt lat="33.495520" lon="126.943580" sectionIndex="0" pointIndex="212" originalElevation="-13483.6" isOriginalElevationFromOSM="false" isAnchor="false"><ele>-6010.5</ele></trkpt>
<trkpt lat="33.495750" lon="126.943800" sectionIndex="0" pointIndex="213" originalElevation="-12135.1" isOriginalElevationFromOSM="false" isAnchor="false"><ele>-5676.1</ele></trkpt>
<trkpt lat="33.496010" lon="126.944280" sectionIndex="0" pointIndex="214" originalElevation="-10921.1" isOriginalElevationFromOSM="false" isAnchor="false"><ele>-5317.8</ele></trkpt>
<trkpt lat="33.496110" lon="126.944370" sectionIndex="0" pointIndex="215" originalElevation="5.0" isOriginalElevationFromOSM="false" isAnchor="false"><ele>-4926.7</ele></trkpt>
<trkpt lat="33.496450" lon="126.944600" sectionIndex="0" pointIndex="216" originalElevation="3.8" isOriginalElevationFromOSM="false" isAnchor="false"><ele>-4472.3</ele></trkpt>
<trkpt lat="33.496640" lon="126.944660" sectionIndex="0" pointIndex="217" originalElevation="4.0" isOriginalElevationFromOSM="false" isAnchor="false"><ele>-3999.4</ele></trkpt>
<trkpt lat="33.496810" lon="126.944800" sectionIndex="0" pointIndex="218" originalElevation="0.0" isOriginalElevationFromOSM="false" isAnchor="false"><ele>-3545.2</ele></trkpt>
<trkpt lat="33.496910" lon="126.944800" sectionIndex="0" pointIndex="219" originalElevation="0.4" isOriginalElevationFromOSM="false" isAnchor="false"><ele>-3076.9</ele></trkpt>
<trkpt lat="33.497560" lon="126.944680" sectionIndex="0" pointIndex="220" originalElevation="0.5" isOriginalElevationFromOSM="false" isAnchor="false"><ele>-2599.7</ele></trkpt>
<trkpt lat="33.497880" lon="126.944670" sectionIndex="0" pointIndex="221" originalElevation="0.8" isOriginalElevationFromOSM="false" isAnchor="false"><ele>-2166.0</ele></trkpt>
<trkpt lat="33.497880" lon="126.944670" sectionIndex="0" pointIndex="222" originalElevation="0.8" isOriginalElevationFromOSM="false" isAnchor="false"><ele>-1809.4</ele></trkpt>
<trkpt lat="33.497920" lon="126.944670" sectionIndex="0" pointIndex="223" originalElevation="1.0" isOriginalElevationFromOSM="false" isAnchor="false"><ele>-1432.1</ele></trkpt>
<trkpt lat="33.498230" lon="126.944450" sectionIndex="0" pointIndex="224" originalElevation="1.2" isOriginalElevationFromOSM="false" isAnchor="false"><ele>-1090.3</ele></trkpt>
<trkpt lat="33.498710" lon="126.944190" sectionIndex="0" pointIndex="225" originalElevation="1.3" isOriginalElevationFromOSM="false" isAnchor="false"><ele>-789.0</ele></trkpt>
<trkpt lat="33.498850" lon="126.944140" sectionIndex="0" pointIndex="226" originalElevation="1.3" isOriginalElevationFromOSM="false" isAnchor="false"><ele>-792.9</ele></trkpt>
<trkpt lat="33.499190" lon="126.944080" sectionIndex="0" pointIndex="227" originalElevation="1.6" isOriginalElevationFromOSM="false" isAnchor="false"><ele>-832.6</ele></trkpt>
<trkpt lat="33.499590" lon="126.943990" sectionIndex="0" pointIndex="228" originalElevation="3.0" isOriginalElevationFromOSM="false" isAnchor="false"><ele>-810.4</ele></trkpt>
<trkpt lat="33.500290" lon="126.943790" sectionIndex="0" pointIndex="229" originalElevation="1.7" isOriginalElevationFromOSM="false" isAnchor="false"><ele>-853.3</ele></trkpt>
<trkpt lat="33.500500" lon="126.943750" sectionIndex="0" pointIndex="230" originalElevation="1.6" isOriginalElevationFromOSM="false" isAnchor="false"><ele>-952.8</ele></trkpt>
<trkpt lat="33.500990" lon="126.943770" sectionIndex="0" pointIndex="231" originalElevation="1.6" isOriginalElevationFromOSM="false" isAnchor="false"><ele>-1155.9</ele></trkpt>
<trkpt lat="33.501180" lon="126.943740" sectionIndex="0" pointIndex="232" originalElevation="1.7" isOriginalElevationFromOSM="false" isAnchor="false"><ele>-1377.7</ele></trkpt>
<trkpt lat="33.501620" lon="126.943550" sectionIndex="0" pointIndex="233" originalElevation="1.8" isOriginalElevationFromOSM="false" isAnchor="false"><ele>-1651.6</ele></trkpt>
<trkpt lat="33.501740" lon="126.943530" sectionIndex="0" pointIndex="234" originalElevation="1.9" isOriginalElevationFromOSM="false" isAnchor="false"><ele>-1940.7</ele></trkpt>
<trkpt lat="33.501940" lon="126.943650" sectionIndex="0" pointIndex="235" originalElevation="2.0" isOriginalElevationFromOSM="false" isAnchor="false"><ele>-2258.8</ele></trkpt>
<trkpt lat="33.502170" lon="126.943750" sectionIndex="0" pointIndex="236" originalElevation="2.0" isOriginalElevationFromOSM="false" isAnchor="false"><ele>-2596.8</ele></trkpt>
<trkpt lat="33.502240" lon="126.943750" sectionIndex="0" pointIndex="237" originalElevation="2.0" isOriginalElevationFromOSM="false" isAnchor="false"><ele>-2935.4</ele></trkpt>
<trkpt lat="33.502310" lon="126.943710" sectionIndex="0" pointIndex="238" originalElevation="2.0" isOriginalElevationFromOSM="false" isAnchor="false"><ele>-3267.3</ele></trkpt>
<trkpt lat="33.502540" lon="126.943540" sectionIndex="0" pointIndex="239" originalElevation="2.0" isOriginalElevationFromOSM="false" isAnchor="false"><ele>-3585.7</ele></trkpt>
<trkpt lat="33.502670" lon="126.943430" sectionIndex="0" pointIndex="240" originalElevation="2.0" isOriginalElevationFromOSM="false" isAnchor="false"><ele>-3884.2</ele></trkpt>
<trkpt lat="33.502970" lon="126.943120" sectionIndex="0" pointIndex="241" originalElevation="-32768.0" isOriginalElevationFromOSM="false" isAnchor="false"><ele>-4116.8</ele></trkpt>
<trkpt lat="33.503300" lon="126.942780" sectionIndex="0" pointIndex="242" originalElevation="-21844.0" isOriginalElevationFromOSM="false" isAnchor="false"><ele>-4311.8</ele></trkpt>
<trkpt lat="33.503390" lon="126.942580" sectionIndex="0" pointIndex="243" originalElevation="4.0" isOriginalElevationFromOSM="false" isAnchor="false"><ele>-4465.3</ele></trkpt>
<trkpt lat="33.503400" lon="126.942560" sectionIndex="0" pointIndex="244" originalElevation="3.0" isOriginalElevationFromOSM="false" isAnchor="false"><ele>-4574.5</ele></trkpt>
<trkpt lat="33.503400" lon="126.942560" sectionIndex="0" pointIndex="245" originalElevation="3.0" isOriginalElevationFromOSM="false" isAnchor="false"><ele>-4638.4</ele></trkpt>
<trkpt lat="33.503500" lon="126.942160" sectionIndex="0" pointIndex="246" originalElevation="2.0" isOriginalElevationFromOSM="false" isAnchor="false"><ele>-4656.7</ele></trkpt>
<trkpt lat="33.503600" lon="126.941930" sectionIndex="0" pointIndex="247" originalElevation="2.0" isOriginalElevationFromOSM="false" isAnchor="false"><ele>-4630.4</ele></trkpt>
<trkpt lat="33.503740" lon="126.941790" sectionIndex="0" pointIndex="248" originalElevation="-5154.8" isOriginalElevationFromOSM="false" isAnchor="false"><ele>-4561.3</ele></trkpt>
<trkpt lat="33.503870" lon="126.941700" sectionIndex="0" pointIndex="249" originalElevation="-4725.1" isOriginalElevationFromOSM="false" isAnchor="false"><ele>-4451.7</ele></trkpt>
<trkpt lat="33.504040" lon="126.941640" sectionIndex="0" pointIndex="250" originalElevation="-7062.0" isOriginalElevationFromOSM="false" isAnchor="false"><ele>-4304.4</ele></trkpt>
<trkpt lat="33.504210" lon="126.941650" sectionIndex="0" pointIndex="251" originalElevation="-8437.2" isOriginalElevationFromOSM="false" isAnchor="false"><ele>-4122.8</ele></trkpt>
<trkpt lat="33.504340" lon="126.941630" sectionIndex="0" pointIndex="252" originalElevation="-7734.2" isOriginalElevationFromOSM="false" isAnchor="false"><ele>-3910.8</ele></trkpt>
<trkpt lat="33.504580" lon="126.941500" sectionIndex="0" pointIndex="253" originalElevation="-7089.8" isOriginalElevationFromOSM="false" isAnchor="false"><ele>-3672.6</ele></trkpt>
<trkpt lat="33.504670" lon="126.941500" sectionIndex="0" pointIndex="254" originalElevation="-6499.1" isOriginalElevationFromOSM="false" isAnchor="false"><ele>-3412.9</ele></trkpt>
<trkpt lat="33.504730" lon="126.941540" sectionIndex="0" pointIndex="255" originalElevation="-5957.6" isOriginalElevationFromOSM="false" isAnchor="false"><ele>-3137.2</ele></trkpt>
<trkpt lat="33.504890" lon="126.941760" sectionIndex="0" pointIndex="256" originalElevation="2.0" isOriginalElevationFromOSM="false" isAnchor="false"><ele>-2851.0</ele></trkpt>
<trkpt lat="33.505110" lon="126.941800" sectionIndex="0" pointIndex="257" originalElevation="1.3" isOriginalElevationFromOSM="false" isAnchor="false"><ele>-2373.8</ele></trkpt>
<trkpt lat="33.505400" lon="126.941780" sectionIndex="0" pointIndex="258" originalElevation="1.3" isOriginalElevationFromOSM="false" isAnchor="false"><ele>-2007.4</ele></trkpt>
<trkpt lat="33.505660" lon="126.941730" sectionIndex="0" pointIndex="259" originalElevation="1.0" isOriginalElevationFromOSM="false" isAnchor="false"><ele>-1793.3</ele></trkpt>
<trkpt lat="33.505950" lon="126.941590" sectionIndex="0" pointIndex="260" originalElevation="1.9" isOriginalElevationFromOSM="false" isAnchor="false"><ele>-1575.8</ele></trkpt>
<trkpt lat="33.506150" lon="126.941390" sectionIndex="0" pointIndex="261" originalElevation="1.9" isOriginalElevationFromOSM="false" isAnchor="false"><ele>-1362.0</ele></trkpt>
<trkpt lat="33.506300" lon="126.941300" sectionIndex="0" pointIndex="262" originalElevation="2.0" isOriginalElevationFromOSM="false" isAnchor="false"><ele>-1157.9</ele></trkpt>
<trkpt lat="33.506460" lon="126.941260" sectionIndex="0" pointIndex="263" originalElevation="2.0" isOriginalElevationFromOSM="false" isAnchor="false"><ele>-968.1</ele></trkpt>
<trkpt lat="33.506600" lon="126.941290" sectionIndex="0" pointIndex="264" originalElevation="2.0" isOriginalElevationFromOSM="false" isAnchor="false"><ele>-766.6</ele></trkpt>
<trkpt lat="33.506810" lon="126.941570" sectionIndex="0" pointIndex="265" originalElevation="2.0" isOriginalElevationFromOSM="false" isAnchor="false"><ele>-594.8</ele></trkpt>
<trkpt lat="33.506990" lon="126.941950" sectionIndex="0" pointIndex="266" originalElevation="2.1" isOriginalElevationFromOSM="false" isAnchor="false"><ele>-435.4</ele></trkpt>
<trkpt lat="33.507140" lon="126.942320" sectionIndex="0" pointIndex="267" originalElevation="2.5" isOriginalElevationFromOSM="false" isAnchor="false"><ele>-295.7</ele></trkpt>
<trkpt lat="33.507240" lon="126.942450" sectionIndex="0" pointIndex="268" originalElevation="2.5" isOriginalElevationFromOSM="false" isAnchor="false"><ele>-186.7</ele></trkpt>
<trkpt lat="33.507360" lon="126.942680" sectionIndex="0" pointIndex="269" originalElevation="2.9" isOriginalElevationFromOSM="false" isAnchor="false"><ele>-103.6</ele></trkpt>
<trkpt lat="33.507520" lon="126.942820" sectionIndex="0" pointIndex="270" originalElevation="2.8" isOriginalElevationFromOSM="false" isAnchor="false"><ele>-41.7</ele></trkpt>
<trkpt lat="33.507640" lon="126.943030" sectionIndex="0" pointIndex="271" originalElevation="3.0" isOriginalElevationFromOSM="false" isAnchor="false"><ele>3.0</ele></trkpt>
<trkpt lat="33.507760" lon="126.943330" sectionIndex="0" pointIndex="272" originalElevation="3.0" isOriginalElevationFromOSM="false" isAnchor="false"><ele>3.1</ele></trkpt>
<trkpt lat="33.507910" lon="126.943540" sectionIndex="0" pointIndex="273" originalElevation="3.4" isOriginalElevationFromOSM="false" isAnchor="false"><ele>3.1</ele></trkpt>
<trkpt lat="33.507980" lon="126.943580" sectionIndex="0" pointIndex="274" originalElevation="6.0" isOriginalElevationFromOSM="false" isAnchor="false"><ele>3.2</ele></trkpt>
<trkpt lat="33.508030" lon="126.943610" sectionIndex="0" pointIndex="275" originalElevation="6.0" isOriginalElevationFromOSM="false" isAnchor="false"><ele>3.2</ele></trkpt>
<trkpt lat="33.508210" lon="126.943680" sectionIndex="0" pointIndex="276" originalElevation="4.1" isOriginalElevationFromOSM="false" isAnchor="false"><ele>3.2</ele></trkpt>
<trkpt lat="33.508290" lon="126.943710" sectionIndex="0" pointIndex="277" originalElevation="4.0" isOriginalElevationFromOSM="false" isAnchor="false"><ele>3.2</ele></trkpt>
<trkpt lat="33.508290" lon="126.943710" sectionIndex="0" pointIndex="278" originalElevation="4.0" isOriginalElevationFromOSM="false" isAnchor="false"><ele>3.1</ele></trkpt>
<trkpt lat="33.508370" lon="126.943730" sectionIndex="0" pointIndex="279" originalElevation="3.8" isOriginalElevationFromOSM="false" isAnchor="false"><ele>3.1</ele></trkpt>
<trkpt lat="33.508520" lon="126.943710" sectionIndex="0" pointIndex="280" originalElevation="3.5" isOriginalElevationFromOSM="false" isAnchor="false"><ele>3.0</ele></trkpt>
<trkpt lat="33.509010" lon="126.943570" sectionIndex="0" pointIndex="281" originalElevation="2.0" isOriginalElevationFromOSM="false" isAnchor="false"><ele>3.0</ele></trkpt>
<trkpt lat="33.509380" lon="126.943440" sectionIndex="0" pointIndex="282" originalElevation="2.0" isOriginalElevationFromOSM="false" isAnchor="false"><ele>2.9</ele></trkpt>
<trkpt lat="33.509550" lon="126.943380" sectionIndex="0" pointIndex="283" originalElevation="2.0" isOriginalElevationFromOSM="false" isAnchor="false"><ele>2.9</ele></trkpt>
<trkpt lat="33.510070" lon="126.943370" sectionIndex="0" pointIndex="284" originalElevation="1.3" isOriginalElevationFromOSM="false" isAnchor="false"><ele>2.8</ele></trkpt>
<trkpt lat="33.510410" lon="126.943330" sectionIndex="0" pointIndex="285" originalElevation="1.0" isOriginalElevationFromOSM="false" isAnchor="false"><ele>2.8</ele></trkpt>
<trkpt lat="33.510670" lon="126.943320" sectionIndex="0" pointIndex="286" originalElevation="1.6" isOriginalElevationFromOSM="false" isAnchor="false"><ele>2.7</ele></trkpt>
<trkpt lat="33.510930" lon="126.943290" sectionIndex="0" pointIndex="287" originalElevation="1.5" isOriginalElevationFromOSM="false" isAnchor="false"><ele>2.7</ele></trkpt>
<trkpt lat="33.511190" lon="126.943490" sectionIndex="0" pointIndex="288" originalElevation="3.0" isOriginalElevationFromOSM="false" isAnchor="false"><ele>2.7</ele></trkpt>
<trkpt lat="33.511390" lon="126.943640" sectionIndex="0" pointIndex="289" originalElevation="3.0" isOriginalElevationFromOSM="false" isAnchor="false"><ele>2.7</ele></trkpt>
<trkpt lat="33.511930" lon="126.944060" sectionIndex="0" pointIndex="290" originalElevation="3.0" isOriginalElevationFromOSM="false" isAnchor="false"><ele>2.7</ele></trkpt>
<trkpt lat="33.511930" lon="126.944060" sectionIndex="0" pointIndex="291" originalElevation="3.0" isOriginalElevationFromOSM="false" isAnchor="false"><ele>2.7</ele></trkpt>
<trkpt lat="33.512090" lon="126.944190" sectionIndex="0" pointIndex="292" originalElevation="3.0" isOriginalElevationFromOSM="false" isAnchor="false"><ele>2.7</ele></trkpt>
<trkpt lat="33.512360" lon="126.944330" sectionIndex="0" pointIndex="293" originalElevation="3.2" isOriginalElevationFromOSM="false" isAnchor="false"><ele>2.8</ele></trkpt>
<trkpt lat="33.512700" lon="126.944560" sectionIndex="0" pointIndex="294" originalElevation="2.9" isOriginalElevationFromOSM="false" isAnchor="false"><ele>2.8</ele></trkpt>
<trkpt lat="33.512760" lon="126.944670" sectionIndex="0" pointIndex="295" originalElevation="2.6" isOriginalElevationFromOSM="false" isAnchor="false"><ele>2.8</ele></trkpt>
<trkpt lat="33.512790" lon="126.945120" sectionIndex="0" pointIndex="296" originalElevation="2.7" isOriginalElevationFromOSM="false" isAnchor="false"><ele>2.9</ele></trkpt>
<trkpt lat="33.512900" lon="126.945500" sectionIndex="0" pointIndex="297" originalElevation="3.0" isOriginalElevationFromOSM="false" isAnchor="false"><ele>2.9</ele></trkpt>
<trkpt lat="33.512890" lon="126.945730" sectionIndex="0" pointIndex="298" originalElevation="3.0" isOriginalElevationFromOSM="false" isAnchor="false"><ele>2.9</ele></trkpt>
<trkpt lat="33.512920" lon="126.945930" sectionIndex="0" pointIndex="299" originalElevation="3.2" isOriginalElevationFromOSM="false" isAnchor="false"><ele>3.0</ele></trkpt>
<trkpt lat="33.512970" lon="126.946110" sectionIndex="0" pointIndex="300" originalElevation="3.4" isOriginalElevationFromOSM="false" isAnchor="false"><ele>3.0</ele></trkpt>
<trkpt lat="33.513040" lon="126.946200" sectionIndex="0" pointIndex="301" originalElevation="3.6" isOriginalElevationFromOSM="false" isAnchor="false"><ele>3.0</ele></trkpt>
<trkpt lat="33.513150" lon="126.946210" sectionIndex="0" pointIndex="302" originalElevation="3.7" isOriginalElevationFromOSM="false" isAnchor="false"><ele>3.1</ele></trkpt>
<trkpt lat="33.513320" lon="126.946200" sectionIndex="0" pointIndex="303" originalElevation="3.8" isOriginalElevationFromOSM="false" isAnchor="false"><ele>3.1</ele></trkpt>
<trkpt lat="33.513450" lon="126.946240" sectionIndex="0" pointIndex="304" originalElevation="3.5" isOriginalElevationFromOSM="false" isAnchor="false"><ele>3.1</ele></trkpt>
<trkpt lat="33.513570" lon="126.946370" sectionIndex="0" pointIndex="305" originalElevation="3.1" isOriginalElevationFromOSM="false" isAnchor="false"><ele>3.1</ele></trkpt>
<trkpt lat="33.513720" lon="126.946610" sectionIndex="0" pointIndex="306" originalElevation="0.0" isOriginalElevationFromOSM="false" isAnchor="false"><ele>3.1</ele></trkpt>
<trkpt lat="33.513830" lon="126.946880" sectionIndex="0" pointIndex="307" originalElevation="2.4" isOriginalElevationFromOSM="false" isAnchor="false"><ele>3.1</ele></trkpt>
<trkpt lat="33.513900" lon="126.947200" sectionIndex="0" pointIndex="308" originalElevation="2.8" isOriginalElevationFromOSM="false" isAnchor="false"><ele>3.1</ele></trkpt>
<trkpt lat="33.513950" lon="126.947340" sectionIndex="0" pointIndex="309" originalElevation="3.0" isOriginalElevationFromOSM="false" isAnchor="false"><ele>3.2</ele></trkpt>
<trkpt lat="33.514080" lon="126.947480" sectionIndex="0" pointIndex="310" originalElevation="3.3" isOriginalElevationFromOSM="false" isAnchor="false"><ele>3.2</ele></trkpt>
<trkpt lat="33.514300" lon="126.947610" sectionIndex="0" pointIndex="311" originalElevation="3.0" isOriginalElevationFromOSM="false" isAnchor="false"><ele>3.2</ele></trkpt>
<trkpt lat="33.514400" lon="126.947720" sectionIndex="0" pointIndex="312" originalElevation="3.8" isOriginalElevationFromOSM="false" isAnchor="false"><ele>3.3</ele></trkpt>
<trkpt lat="33.514430" lon="126.947860" sectionIndex="0" pointIndex="313" originalElevation="3.7" isOriginalElevationFromOSM="false" isAnchor="false"><ele>3.3</ele></trkpt>
<trkpt lat="33.514390" lon="126.948060" sectionIndex="0" pointIndex="314" originalElevation="3.6" isOriginalElevationFromOSM="false" isAnchor="false"><ele>3.3</ele></trkpt>
<trkpt lat="33.514540" lon="126.948700" sectionIndex="0" pointIndex="315" originalElevation="3.7" isOriginalElevationFromOSM="false" isAnchor="false"><ele>3.4</ele></trkpt>
<trkpt lat="33.514790" lon="126.949250" sectionIndex="0" pointIndex="316" originalElevation="6.0" isOriginalElevationFromOSM="false" isAnchor="false"><ele>3.4</ele></trkpt>
<trkpt lat="33.515100" lon="126.949420" sectionIndex="0" pointIndex="317" originalElevation="3.0" isOriginalElevationFromOSM="false" isAnchor="false"><ele>3.5</ele></trkpt>
<trkpt lat="33.515152" lon="126.949398" sectionIndex="0" pointIndex="318" originalElevation="2.9" isOriginalElevationFromOSM="false" isAnchor="false"><ele>3.5</ele></trkpt>
<trkpt lat="33.515150" lon="126.949400" sectionIndex="0" pointIndex="319" originalElevation="2.7" isOriginalElevationFromOSM="false" isAnchor="false"><ele>3.6</ele></trkpt>
<trkpt lat="33.515100" lon="126.949420" sectionIndex="0" pointIndex="320" originalElevation="3.0" isOriginalElevationFromOSM="false" isAnchor="false"><ele>3.6</ele></trkpt>
<trkpt lat="33.515720" lon="126.949770" sectionIndex="0" pointIndex="321" originalElevation="3.0" isOriginalElevationFromOSM="false" isAnchor="false"><ele>3.7</ele></trkpt>
<trkpt lat="33.515980" lon="126.949870" sectionIndex="0" pointIndex="322" originalElevation="3.0" isOriginalElevationFromOSM="false" isAnchor="false"><ele>3.8</ele></trkpt>
<trkpt lat="33.516080" lon="126.949950" sectionIndex="0" pointIndex="323" originalElevation="3.0" isOriginalElevationFromOSM="false" isAnchor="false"><ele>3.9</ele></trkpt>
<trkpt lat="33.516050" lon="126.950220" sectionIndex="0" pointIndex="324" originalElevation="3.8" isOriginalElevationFromOSM="false" isAnchor="false"><ele>4.0</ele></trkpt>
<trkpt lat="33.516100" lon="126.950340" sectionIndex="0" pointIndex="325" originalElevation="3.8" isOriginalElevationFromOSM="false" isAnchor="false"><ele>4.1</ele></trkpt>
<trkpt lat="33.516180" lon="126.950440" sectionIndex="0" pointIndex="326" originalElevation="3.7" isOriginalElevationFromOSM="false" isAnchor="false"><ele>4.2</ele></trkpt>
<trkpt lat="33.516620" lon="126.950700" sectionIndex="0" pointIndex="327" originalElevation="4.0" isOriginalElevationFromOSM="false" isAnchor="false"><ele>4.3</ele></trkpt>
<trkpt lat="33.516670" lon="126.950920" sectionIndex="0" pointIndex="328" originalElevation="5.0" isOriginalElevationFromOSM="false" isAnchor="false"><ele>4.5</ele></trkpt>
<trkpt lat="33.516470" lon="126.951020" sectionIndex="0" pointIndex="329" originalElevation="5.0" isOriginalElevationFromOSM="false" isAnchor="false"><ele>4.6</ele></trkpt>
<trkpt lat="33.516410" lon="126.951130" sectionIndex="0" pointIndex="330" originalElevation="5.0" isOriginalElevationFromOSM="false" isAnchor="false"><ele>4.7</ele></trkpt>
<trkpt lat="33.516410" lon="126.951130" sectionIndex="0" pointIndex="331" originalElevation="5.0" isOriginalElevationFromOSM="false" isAnchor="false"><ele>4.8</ele></trkpt>
<trkpt lat="33.516280" lon="126.951340" sectionIndex="0" pointIndex="332" originalElevation="5.0" isOriginalElevationFromOSM="false" isAnchor="false"><ele>4.9</ele></trkpt>
<trkpt lat="33.516270" lon="126.951510" sectionIndex="0" pointIndex="333" originalElevation="5.0" isOriginalElevationFromOSM="false" isAnchor="false"><ele>5.1</ele></trkpt>
<trkpt lat="33.516210" lon="126.951620" sectionIndex="0" pointIndex="334" originalElevation="5.7" isOriginalElevationFromOSM="false" isAnchor="false"><ele>5.2</ele></trkpt>
<trkpt lat="33.516170" lon="126.951910" sectionIndex="0" pointIndex="335" originalElevation="5.8" isOriginalElevationFromOSM="false" isAnchor="false"><ele>5.3</ele></trkpt>
<trkpt lat="33.516010" lon="126.952060" sectionIndex="0" pointIndex="336" originalElevation="5.8" isOriginalElevationFromOSM="false" isAnchor="false"><ele>5.5</ele></trkpt>
<trkpt lat="33.515920" lon="126.952230" sectionIndex="0" pointIndex="337" originalElevation="5.8" isOriginalElevationFromOSM="false" isAnchor="false"><ele>5.6</ele></trkpt>
<trkpt lat="33.515760" lon="126.952450" sectionIndex="0" pointIndex="338" originalElevation="5.9" isOriginalElevationFromOSM="false" isAnchor="false"><ele>5.7</ele></trkpt>
<trkpt lat="33.515560" lon="126.952590" sectionIndex="0" pointIndex="339" originalElevation="5.9" isOriginalElevationFromOSM="false" isAnchor="false"><ele>5.8</ele></trkpt>
<trkpt lat="33.515520" lon="126.952640" sectionIndex="0" pointIndex="340" originalElevation="5.9" isOriginalElevationFromOSM="false" isAnchor="false"><ele>5.9</ele></trkpt>
<trkpt lat="33.515540" lon="126.952720" sectionIndex="0" pointIndex="341" originalElevation="5.9" isOriginalElevationFromOSM="false" isAnchor="false"><ele>6.0</ele></trkpt>
<trkpt lat="33.515610" lon="126.952810" sectionIndex="0" pointIndex="342" originalElevation="5.9" isOriginalElevationFromOSM="false" isAnchor="false"><ele>6.1</ele></trkpt>
<trkpt lat="33.515630" lon="126.952890" sectionIndex="0" pointIndex="343" originalElevation="5.9" isOriginalElevationFromOSM="false" isAnchor="false"><ele>6.2</ele></trkpt>
<trkpt lat="33.515550" lon="126.953080" sectionIndex="0" pointIndex="344" originalElevation="6.1" isOriginalElevationFromOSM="false" isAnchor="false"><ele>6.2</ele></trkpt>
<trkpt lat="33.515380" lon="126.953320" sectionIndex="0" pointIndex="345" originalElevation="6.0" isOriginalElevationFromOSM="false" isAnchor="false"><ele>6.3</ele></trkpt>
<trkpt lat="33.515330" lon="126.953420" sectionIndex="0" pointIndex="346" originalElevation="6.3" isOriginalElevationFromOSM="false" isAnchor="false"><ele>6.4</ele></trkpt>
<trkpt lat="33.515330" lon="126.953580" sectionIndex="0" pointIndex="347" originalElevation="6.1" isOriginalElevationFromOSM="false" isAnchor="false"><ele>6.4</ele></trkpt>
<trkpt lat="33.514880" lon="126.953840" sectionIndex="0" pointIndex="348" originalElevation="6.2" isOriginalElevationFromOSM="false" isAnchor="false"><ele>6.5</ele></trkpt>
<trkpt lat="33.514790" lon="126.953960" sectionIndex="0" pointIndex="349" originalElevation="6.3" isOriginalElevationFromOSM="false" isAnchor="false"><ele>6.5</ele></trkpt>
<trkpt lat="33.514660" lon="126.954170" sectionIndex="0" pointIndex="350" originalElevation="8.0" isOriginalElevationFromOSM="false" isAnchor="false"><ele>6.6</ele></trkpt>
<trkpt lat="33.514580" lon="126.954360" sectionIndex="0" pointIndex="351" originalElevation="7.8" isOriginalElevationFromOSM="false" isAnchor="false"><ele>6.5</ele></trkpt>
<trkpt lat="33.514580" lon="126.954360" sectionIndex="0" pointIndex="352" originalElevation="7.8" isOriginalElevationFromOSM="false" isAnchor="false"><ele>6.5</ele></trkpt>
<trkpt lat="33.514570" lon="126.954390" sectionIndex="0" pointIndex="353" originalElevation="7.6" isOriginalElevationFromOSM="false" isAnchor="false"><ele>6.5</ele></trkpt>
<trkpt lat="33.514260" lon="126.954790" sectionIndex="0" pointIndex="354" originalElevation="7.5" isOriginalElevationFromOSM="false" isAnchor="false"><ele>6.4</ele></trkpt>
<trkpt lat="33.513910" lon="126.955490" sectionIndex="0" pointIndex="355" originalElevation="7.0" isOriginalElevationFromOSM="false" isAnchor="false"><ele>6.4</ele></trkpt>
<trkpt lat="33.513510" lon="126.955980" sectionIndex="0" pointIndex="356" originalElevation="6.5" isOriginalElevationFromOSM="false" isAnchor="false"><ele>6.3</ele></trkpt>
<trkpt lat="33.513420" lon="126.956370" sectionIndex="0" pointIndex="357" originalElevation="6.2" isOriginalElevationFromOSM="false" isAnchor="false"><ele>6.2</ele></trkpt>
<trkpt lat="33.513590" lon="126.956700" sectionIndex="0" pointIndex="358" originalElevation="6.2" isOriginalElevationFromOSM="false" isAnchor="false"><ele>6.1</ele></trkpt>
<trkpt lat="33.513700" lon="126.957080" sectionIndex="0" pointIndex="359" originalElevation="6.1" isOriginalElevationFromOSM="false" isAnchor="false"><ele>6.1</ele></trkpt>
<trkpt lat="33.513713" lon="126.957244" sectionIndex="0" pointIndex="360" originalElevation="6.0" isOriginalElevationFromOSM="false" isAnchor="false"><ele>6.0</ele></trkpt>
<trkpt lat="33.513610" lon="126.957560" sectionIndex="0" pointIndex="361" originalElevation="6.0" isOriginalElevationFromOSM="false" isAnchor="false"><ele>5.9</ele></trkpt>
<trkpt lat="33.512970" lon="126.958280" sectionIndex="0" pointIndex="362" originalElevation="6.0" isOriginalElevationFromOSM="false" isAnchor="false"><ele>5.7</ele></trkpt>
<trkpt lat="33.512970" lon="126.958280" sectionIndex="0" pointIndex="363" originalElevation="6.0" isOriginalElevationFromOSM="false" isAnchor="false"><ele>5.6</ele></trkpt>
<trkpt lat="33.512960" lon="126.958300" sectionIndex="0" pointIndex="364" originalElevation="6.0" isOriginalElevationFromOSM="false" isAnchor="false"><ele>5.6</ele></trkpt>
<trkpt lat="33.512770" lon="126.958450" sectionIndex="0" pointIndex="365" originalElevation="6.0" isOriginalElevationFromOSM="false" isAnchor="false"><ele>5.5</ele></trkpt>
<trkpt lat="33.512670" lon="126.958530" sectionIndex="0" pointIndex="366" originalElevation="0.0" isOriginalElevationFromOSM="false" isAnchor="false"><ele>5.4</ele></trkpt>
<trkpt lat="33.512630" lon="126.958560" sectionIndex="0" pointIndex="367" originalElevation="0.0" isOriginalElevationFromOSM="false" isAnchor="false"><ele>5.3</ele></trkpt>
<trkpt lat="33.512600" lon="126.958580" sectionIndex="0" pointIndex="368" originalElevation="6.0" isOriginalElevationFromOSM="false" isAnchor="false"><ele>5.2</ele></trkpt>
<trkpt lat="33.512350" lon="126.958820" sectionIndex="0" pointIndex="369" originalElevation="6.7" isOriginalElevationFromOSM="false" isAnchor="false"><ele>5.1</ele></trkpt>
<trkpt lat="33.512210" lon="126.959070" sectionIndex="0" pointIndex="370" originalElevation="6.8" isOriginalElevationFromOSM="false" isAnchor="false"><ele>5.1</ele></trkpt>
</trkseg>
</trk>
</gpx>